{"type": "FeatureCollection", "crs": {"type": "name", "properties": {"name": "EPSG:2056"}}, "features": [{"type": "Feature", "geometry": {"type": "Polygon", "coordinates": [[[2566157.529, 1122285.434], [2566115.736, 1122268.209], [2566114.488, 1122241.185], [2566111.242, 1122233.345], [2566071.661, 1122216.94], [2566105.715, 1122125.263], [2566109.086, 1122126.466], [2566111.626, 1122126.886], [2566131.876, 1122130.226], [2566155.515, 1122130.187], [2566178.035, 1122126.427], [2566208.495, 1122116.977], [2566227.214, 1122108.327], [2566250.274, 1122093.547], [2566220.447, 1122205.765], [2566194.866, 1122195.182], [2566157.529, 1122285.434]]]}, "properties": {"EGRID": "CH314526837779", "NUMERO": "1857", "NO_COM_FED": 5402, "GENRE_TXT": "parcelle priv\u00e9e", "SUPERFICIE_MO": 16846, "SUPERFICIE_RF": 16846}}, {"type": "Feature", "geometry": {"type": "Polygon", "coordinates": [[[2566157.529, 1122285.434], [2566194.866, 1122195.182], [2566220.447, 1122205.765], [2566250.274, 1122093.547], [2566242.134, 1122130.677], [2566229.244, 1122181.658], [2566220.303, 1122221.198], [2566195.443, 1122293.748], [2566193.123, 1122296.188], [2566190.233, 1122297.368], [2566186.703, 1122297.458], [2566157.529, 1122285.434]]]}, "properties": {"EGRID": "CH338300458111", "NUMERO": "6821", "NO_COM_FED": 5402, "GENRE_TXT": "parcelle priv\u00e9e", "SUPERFICIE_MO": 3657, "SUPERFICIE_RF": 3657}}, {"type": "Feature", "geometry": {"type": "Polygon", "coordinates": [[[2566319.882, 1122179.919], [2566328.002, 1122150.048], [2566350.762, 1122155.859], [2566342.652, 1122186.199], [2566319.882, 1122179.919]]]}, "properties": {"EGRID": "CH407945478312", "NUMERO": "6377", "NO_COM_FED": 5402, "GENRE_TXT": "parcelle priv\u00e9e", "SUPERFICIE_MO": 734, "SUPERFICIE_RF": 734}}, {"type": "Feature", "geometry": {"type": "Polygon", "coordinates": [[[2566396.981, 1122117.249], [2566384.421, 1122164.459], [2566350.762, 1122155.859], [2566328.002, 1122150.048], [2566328.722, 1122147.398], [2566331.116, 1122138.48], [2566341.033, 1122101.538], [2566396.981, 1122117.249]]]}, "properties": {"EGRID": "CH944583775631", "NUMERO": "74", "NO_COM_FED": 5402, "GENRE_TXT": "parcelle priv\u00e9e", "SUPERFICIE_MO": 2881, "SUPERFICIE_RF": 2884}}, {"type": "Feature", "geometry": {"type": "Polygon", "coordinates": [[[2566417.271, 1122112.139], [2566408.271, 1122147.583], [2566399.241, 1122183.019], [2566390.92, 1122214.879], [2566386.88, 1122230.32], [2566380.41, 1122255.3], [2566379.0609999998, 1122254.871], [2566366.351, 1122236.339], [2566369.771, 1122222.729], [2566384.421, 1122164.459], [2566396.981, 1122117.249], [2566402.392, 1122096.939], [2566403.492, 1122092.629], [2566405.502, 1122093.109], [2566410.442, 1122073.959], [2566409.162, 1122073.649], [2566418.002, 1122039.459], [2566419.462, 1122029.809], [2566426.602, 1121992.949], [2566430.533, 1121968.438], [2566431.973, 1121946.808], [2566449.753, 1121952.119], [2566451.153, 1121952.629], [2566437.152, 1122027.689], [2566431.802, 1122055.459], [2566429.865768585, 1122057.8933150484], [2566428.122, 1122060.469], [2566426.725079454, 1122063.2298228757], [2566425.592, 1122066.109], [2566419.491, 1122089.429], [2566421.5609999998, 1122095.199], [2566417.271, 1122112.139]]]}, "properties": {"EGRID": "CH338377455919", "NUMERO": "DP 1021", "NO_COM_FED": 5402, "GENRE_TXT": "DP communal", "SUPERFICIE_MO": 5329, "SUPERFICIE_RF": null}}, {"type": "Feature", "geometry": {"type": "Polygon", "coordinates": [[[2566295.431, 1122333.439], [2566272.0609999998, 1122323.449], [2566282.191, 1122295.109], [2566303.511, 1122302.689], [2566295.431, 1122333.439]]]}, "properties": {"EGRID": "CH427769834506", "NUMERO": "5", "NO_COM_FED": 5402, "GENRE_TXT": "parcelle priv\u00e9e", "SUPERFICIE_MO": 740, "SUPERFICIE_RF": 738}}, {"type": "Feature", "geometry": {"type": "Polygon", "coordinates": [[[2566255.571, 1122370.409], [2566264.341, 1122344.679], [2566270.531, 1122344.049], [2566307.17, 1122360.309], [2566306.27, 1122362.369], [2566303.83, 1122368.309], [2566296.36, 1122386.349], [2566282.1, 1122380.839], [2566267.89, 1122375.269], [2566255.571, 1122370.409]]]}, "properties": {"EGRID": "CH207845638359", "NUMERO": "4", "NO_COM_FED": 5402, "GENRE_TXT": "parcelle priv\u00e9e", "SUPERFICIE_MO": 1300, "SUPERFICIE_RF": 1302}}, {"type": "Feature", "geometry": {"type": "Polygon", "coordinates": [[[2566295.431, 1122333.439], [2566303.511, 1122302.689], [2566282.191, 1122295.109], [2566293.391, 1122263.619], [2566353.74, 1122283.409], [2566349.31, 1122299.65], [2566338.81, 1122344.44], [2566331.77, 1122347.8], [2566319.84, 1122348.35], [2566312.24, 1122345.069], [2566294.221, 1122337.279], [2566295.431, 1122333.439]]]}, "properties": {"EGRID": "CH627756834555", "NUMERO": "6", "NO_COM_FED": 5402, "GENRE_TXT": "parcelle priv\u00e9e", "SUPERFICIE_MO": 3806, "SUPERFICIE_RF": 3807}}, {"type": "Feature", "geometry": {"type": "Polygon", "coordinates": [[[2566372.86, 1122284.7], [2566371.61, 1122290.05], [2566366.21, 1122312.05], [2566360.839, 1122333.87], [2566360.304, 1122336.312], [2566359.381, 1122340.236], [2566359.0250019026, 1122344.3876560235], [2566359.335, 1122348.543], [2566360.425034488, 1122352.420093216], [2566362.121, 1122356.073], [2566363.557934668, 1122358.3532228644], [2566365.319083954, 1122360.393455876], [2566367.365, 1122362.148], [2566349.969, 1122398.43], [2566340.188, 1122459.01], [2566336.638, 1122482.07], [2566333.818, 1122498.841], [2566313.158, 1122501.61], [2566324.859, 1122427.59], [2566329.829, 1122399.21], [2566330.639, 1122379], [2566328.16, 1122371.5], [2566338.81, 1122344.44], [2566349.31, 1122299.65], [2566353.74, 1122283.409], [2566354.44, 1122280.849], [2566366.351, 1122236.339], [2566379.0609999998, 1122254.871], [2566372.949, 1122279.517], [2566374, 1122279.91], [2566372.86, 1122284.7]]]}, "properties": {"EGRID": "CH698377254587", "NUMERO": "DP 1004", "NO_COM_FED": 5402, "GENRE_TXT": "DP communal", "SUPERFICIE_MO": 5454, "SUPERFICIE_RF": null}}, {"type": "Feature", "geometry": {"type": "Polygon", "coordinates": [[[2566379.0609999998, 1122254.871], [2566380.41, 1122255.3], [2566389.94, 1122258.28], [2566405.41, 1122263.21], [2566406.22, 1122263.47], [2566417.139, 1122267.16], [2566416.029, 1122270.69], [2566408.489, 1122295.64], [2566372.86, 1122284.7], [2566374, 1122279.91], [2566372.949, 1122279.517], [2566379.0609999998, 1122254.871]]]}, "properties": {"EGRID": "CH156183784589", "NUMERO": "84", "NO_COM_FED": 5402, "GENRE_TXT": "parcelle priv\u00e9e", "SUPERFICIE_MO": 1176, "SUPERFICIE_RF": 1176}}, {"type": "Feature", "geometry": {"type": "Polygon", "coordinates": [[[2566430.818, 1122332.001], [2566423.738, 1122354.541], [2566414.306, 1122384.929], [2566408.276, 1122382.303], [2566386.599, 1122372.851], [2566384.042, 1122371.748], [2566396.714, 1122321.47], [2566430.818, 1122332.001]]]}, "properties": {"EGRID": "CH398377554502", "NUMERO": "80", "NO_COM_FED": 5402, "GENRE_TXT": "parcelle priv\u00e9e", "SUPERFICIE_MO": 1832, "SUPERFICIE_RF": 1833}}, {"type": "Feature", "geometry": {"type": "Polygon", "coordinates": [[[2566379.327, 1122507.791], [2566420.277, 1122410.391], [2566443.867, 1122420.351], [2566428.477, 1122457.111], [2566460.856, 1122471.072], [2566434.676, 1122531.722], [2566379.327, 1122507.791]]]}, "properties": {"EGRID": "CH607745258364", "NUMERO": "38", "NO_COM_FED": 5402, "GENRE_TXT": "parcelle priv\u00e9e", "SUPERFICIE_MO": 5021, "SUPERFICIE_RF": 5018}}, {"type": "Feature", "geometry": {"type": "Polygon", "coordinates": [[[2566482.625, 1122552.442], [2566523.605, 1122569.983], [2566533.135, 1122574.083], [2566540.005, 1122575.023], [2566501.9359999998, 1122586.962], [2566510.175, 1122573.042], [2566508.275, 1122567.832], [2566419.6859999998, 1122529.582], [2566341.168, 1122495.681], [2566333.818, 1122498.841], [2566336.638, 1122482.07], [2566337.758, 1122487.831], [2566341.458, 1122491.471], [2566355.178, 1122497.391], [2566379.327, 1122507.791], [2566434.676, 1122531.722], [2566471.675, 1122547.642], [2566482.625, 1122552.442]]]}, "properties": {"EGRID": "CH244583798738", "NUMERO": "DP 1014", "NO_COM_FED": 5402, "GENRE_TXT": "DP communal", "SUPERFICIE_MO": 1124, "SUPERFICIE_RF": null}}, {"type": "Feature", "geometry": {"type": "Polygon", "coordinates": [[[2566491.227, 1122317.711], [2566497.638, 1122298.911], [2566543.967, 1122314.132], [2566537.636, 1122333.462], [2566537.546, 1122333.722], [2566530.627, 1122330.982], [2566491.227, 1122317.711]]]}, "properties": {"EGRID": "CH669183450837", "NUMERO": "6554", "NO_COM_FED": 5402, "GENRE_TXT": "parcelle priv\u00e9e", "SUPERFICIE_MO": 981, "SUPERFICIE_RF": 982}}, {"type": "Feature", "geometry": {"type": "Polygon", "coordinates": [[[2566551.365, 1122339.172], [2566537.546, 1122333.722], [2566537.636, 1122333.462], [2566543.967, 1122314.132], [2566497.638, 1122298.911], [2566513.849, 1122251.702], [2566572.29, 1122270.122], [2566551.365, 1122339.172]]]}, "properties": {"EGRID": "CH667783456864", "NUMERO": "89", "NO_COM_FED": 5402, "GENRE_TXT": "parcelle priv\u00e9e", "SUPERFICIE_MO": 3434, "SUPERFICIE_RF": 3432}}, {"type": "Feature", "geometry": {"type": "Polygon", "coordinates": [[[2566575.244, 1122541.123], [2566564.415, 1122562.363], [2566555.935, 1122569.903], [2566540.005, 1122575.023], [2566533.135, 1122574.083], [2566523.605, 1122569.983], [2566545.104, 1122528.013], [2566551.244, 1122530.763], [2566575.244, 1122541.123]]]}, "properties": {"EGRID": "CH152983794577", "NUMERO": "42", "NO_COM_FED": 5402, "GENRE_TXT": "parcelle priv\u00e9e", "SUPERFICIE_MO": 1378, "SUPERFICIE_RF": 1376}}, {"type": "Feature", "geometry": {"type": "Polygon", "coordinates": [[[2566629.712, 1122197.484], [2566628.013, 1122203.088], [2566614.504, 1122199.179], [2566623.623, 1122169.094], [2566637.08, 1122173.173], [2566629.712, 1122197.484]]]}, "properties": {"EGRID": "CH244583080938", "NUMERO": "6778", "NO_COM_FED": 5402, "GENRE_TXT": "parcelle priv\u00e9e", "SUPERFICIE_MO": 441, "SUPERFICIE_RF": 441}}, {"type": "Feature", "geometry": {"type": "Polygon", "coordinates": [[[2566642.861, 1122174.925], [2566635.492, 1122199.236], [2566629.712, 1122197.484], [2566637.08, 1122173.173], [2566642.861, 1122174.925]]]}, "properties": {"EGRID": "CH214509830844", "NUMERO": "6779", "NO_COM_FED": 5402, "GENRE_TXT": "parcelle priv\u00e9e", "SUPERFICIE_MO": 153, "SUPERFICIE_RF": 154}}, {"type": "Feature", "geometry": {"type": "Polygon", "coordinates": [[[2566650.402, 1122147.163], [2566660.83, 1122150.324], [2566654.286, 1122174.699], [2566648.962, 1122173.086], [2566648.576, 1122174.358], [2566642.7, 1122172.577], [2566650.402, 1122147.163]]]}, "properties": {"EGRID": "CH260883450985", "NUMERO": "6777", "NO_COM_FED": 5402, "GENRE_TXT": "parcelle priv\u00e9e", "SUPERFICIE_MO": 293, "SUPERFICIE_RF": 293}}, {"type": "Feature", "geometry": {"type": "Polygon", "coordinates": [[[2566661.976, 1122173.232], [2566684.977, 1122087.682], [2566721.226, 1122085.672], [2566705.716, 1122158.702], [2566700.546, 1122181.712], [2566685.982, 1122178.496], [2566662.916, 1122173.402], [2566661.976, 1122173.232]]]}, "properties": {"EGRID": "CH138377455888", "NUMERO": "174", "NO_COM_FED": 5402, "GENRE_TXT": "parcelle priv\u00e9e", "SUPERFICIE_MO": 3477, "SUPERFICIE_RF": 3471}}, {"type": "Feature", "geometry": {"type": "Polygon", "coordinates": [[[2566747.385, 1122173.203], [2566730.055, 1122167.203], [2566714.426, 1122161.732], [2566723.626, 1122121.732], [2566741.086, 1122125.833], [2566758.325, 1122129.863], [2566751.845, 1122155.413], [2566747.385, 1122173.203]]]}, "properties": {"EGRID": "CH350383794532", "NUMERO": "170", "NO_COM_FED": 5402, "GENRE_TXT": "parcelle priv\u00e9e", "SUPERFICIE_MO": 1508, "SUPERFICIE_RF": 1509}}, {"type": "Feature", "geometry": {"type": "Polygon", "coordinates": [[[2566751.845, 1122155.413], [2566752.335, 1122155.523], [2566810.174, 1122169.703], [2566804.354, 1122193.884], [2566779.364, 1122184.833], [2566754.405, 1122175.823], [2566747.385, 1122173.203], [2566751.845, 1122155.413]]]}, "properties": {"EGRID": "CH555883774537", "NUMERO": "169", "NO_COM_FED": 5402, "GENRE_TXT": "parcelle priv\u00e9e", "SUPERFICIE_MO": 1302, "SUPERFICIE_RF": 1300}}, {"type": "Feature", "geometry": {"type": "Polygon", "coordinates": [[[2566650.404, 1122380.343], [2566655.154, 1122381.833], [2566655.0439999998, 1122382.313], [2566651.504, 1122393.843], [2566647.674, 1122406.273], [2566643.254, 1122420.543], [2566638.424, 1122419.133], [2566643.154, 1122403.863], [2566646.884, 1122391.923], [2566650.264, 1122380.833], [2566650.404, 1122380.343]]]}, "properties": {"EGRID": "CH927983834544", "NUMERO": "468", "NO_COM_FED": 5402, "GENRE_TXT": "parcelle priv\u00e9e", "SUPERFICIE_MO": 203, "SUPERFICIE_RF": 203}}, {"type": "Feature", "geometry": {"type": "Polygon", "coordinates": [[[2566676.723, 1122388.453], [2566683.924, 1122363.363], [2566711.283, 1122371.934], [2566704.003, 1122396.814], [2566686.673, 1122391.564], [2566676.723, 1122388.453]]]}, "properties": {"EGRID": "CH527768834578", "NUMERO": "477", "NO_COM_FED": 5402, "GENRE_TXT": "parcelle priv\u00e9e", "SUPERFICIE_MO": 745, "SUPERFICIE_RF": 745}}, {"type": "Feature", "geometry": {"type": "Polygon", "coordinates": [[[2566747.012, 1122382.464], [2566711.283, 1122371.934], [2566718.613, 1122346.774], [2566754.682, 1122357.284], [2566747.012, 1122382.464]]]}, "properties": {"EGRID": "CH244583783197", "NUMERO": "100", "NO_COM_FED": 5402, "GENRE_TXT": "parcelle priv\u00e9e", "SUPERFICIE_MO": 982, "SUPERFICIE_RF": 986}}, {"type": "Feature", "geometry": {"type": "Polygon", "coordinates": [[[2566729.613, 1122317.024], [2566763.763, 1122327.554], [2566755.652, 1122354.254], [2566720.333, 1122344.054], [2566729.613, 1122317.024]]]}, "properties": {"EGRID": "CH907945838325", "NUMERO": "103", "NO_COM_FED": 5402, "GENRE_TXT": "parcelle priv\u00e9e", "SUPERFICIE_MO": 1023, "SUPERFICIE_RF": 1023}}, {"type": "Feature", "geometry": {"type": "Polygon", "coordinates": [[[2566753.874, 1122246.343], [2566739.114, 1122244.713], [2566741.364, 1122234.523], [2566741.8140000002, 1122232.503], [2566743.684, 1122224.053], [2566744.154, 1122221.983], [2566749.334, 1122198.813], [2566766.604, 1122204.943], [2566753.874, 1122246.343]]]}, "properties": {"EGRID": "CH480383457917", "NUMERO": "474", "NO_COM_FED": 5402, "GENRE_TXT": "parcelle priv\u00e9e", "SUPERFICIE_MO": 744, "SUPERFICIE_RF": 744}}, {"type": "Feature", "geometry": {"type": "Polygon", "coordinates": [[[2566408.271, 1122147.583], [2566417.271, 1122112.139], [2566455.621, 1122122.7], [2566445.348, 1122158.265], [2566408.271, 1122147.583]]]}, "properties": {"EGRID": "CH538399451588", "NUMERO": "6450", "NO_COM_FED": 5402, "GENRE_TXT": "parcelle priv\u00e9e", "SUPERFICIE_MO": 1441, "SUPERFICIE_RF": 1442}}, {"type": "Feature", "geometry": {"type": "Polygon", "coordinates": [[[2566437.318, 1122310.86], [2566371.61, 1122290.05], [2566372.86, 1122284.7], [2566408.489, 1122295.64], [2566416.029, 1122270.69], [2566417.139, 1122267.16], [2566419.579, 1122267.86], [2566447.839, 1122277.1], [2566443.779, 1122290.23], [2566440.498, 1122300.75], [2566437.318, 1122310.86]]]}, "properties": {"EGRID": "CH614556837795", "NUMERO": "83", "NO_COM_FED": 5402, "GENRE_TXT": "parcelle priv\u00e9e", "SUPERFICIE_MO": 1352, "SUPERFICIE_RF": 1355}}, {"type": "Feature", "geometry": {"type": "Polygon", "coordinates": [[[2566551.365, 1122339.172], [2566567.696, 1122345.612], [2566575.056, 1122326.442], [2566585.491, 1122330.52], [2566586.506, 1122330.912], [2566604.385, 1122337.752], [2566575.825, 1122377.652], [2566579.765, 1122413.423], [2566520.62, 1122387.927], [2566511.236, 1122383.882], [2566530.627, 1122330.982], [2566537.546, 1122333.722], [2566551.365, 1122339.172]]]}, "properties": {"EGRID": "CH467783456736", "NUMERO": "464", "NO_COM_FED": 5402, "GENRE_TXT": "parcelle priv\u00e9e", "SUPERFICIE_MO": 4291, "SUPERFICIE_RF": 4290}}, {"type": "Feature", "geometry": {"type": "Polygon", "coordinates": [[[2566619.184, 1122438.713], [2566615.904, 1122448.513], [2566609.034, 1122469.073], [2566607.604, 1122473.183], [2566527.685, 1122438.552], [2566529.245, 1122434.852], [2566540.447, 1122408.901], [2566536.536, 1122407.212], [2566532.644, 1122405.531], [2566534.705, 1122400.757], [2566518.177, 1122393.619], [2566520.62, 1122387.927], [2566579.765, 1122413.423], [2566621.654, 1122431.503], [2566619.184, 1122438.713]]]}, "properties": {"EGRID": "CH144583783134", "NUMERO": "91", "NO_COM_FED": 5402, "GENRE_TXT": "parcelle priv\u00e9e", "SUPERFICIE_MO": 3943, "SUPERFICIE_RF": 3947}}, {"type": "Feature", "geometry": {"type": "Polygon", "coordinates": [[[2566644.422, 1122143.051], [2566632.525, 1122139.445], [2566639.951, 1122114.945], [2566640.024, 1122114.967], [2566651.848, 1122118.551], [2566644.422, 1122143.051]]]}, "properties": {"EGRID": "CH250983084520", "NUMERO": "6772", "NO_COM_FED": 5402, "GENRE_TXT": "parcelle priv\u00e9e", "SUPERFICIE_MO": 318, "SUPERFICIE_RF": 318}}, {"type": "Feature", "geometry": {"type": "Polygon", "coordinates": [[[2566661.976, 1122173.232], [2566656.846, 1122192.362], [2566651.716, 1122211.492], [2566627.246, 1122204.2719999999], [2566623.697, 1122203.2719999999], [2566612.593, 1122200.039], [2566628.573, 1122147.312], [2566639.153, 1122112.405], [2566651.687, 1122116.203], [2566657.467, 1122117.954], [2566663.344, 1122119.734], [2566663.73, 1122118.461], [2566668.958, 1122120.045], [2566675.305, 1122096.402], [2566673.546, 1122095.868], [2566675.887, 1122088.142], [2566684.977, 1122087.682], [2566661.976, 1122173.232]], [[2566657.633, 1122120.304], [2566651.848, 1122118.551], [2566640.024, 1122114.967], [2566639.951, 1122114.945], [2566632.525, 1122139.445], [2566644.422, 1122143.051], [2566650.208, 1122144.804], [2566656.084, 1122146.585], [2566656.47, 1122145.314], [2566661.746, 1122146.913], [2566668.042, 1122123.459], [2566657.633, 1122120.304]], [[2566650.402, 1122147.163], [2566644.622, 1122145.411], [2566631.964, 1122141.574], [2566624.251, 1122166.986], [2566636.9189999998, 1122170.825], [2566642.7, 1122172.577], [2566648.576, 1122174.358], [2566648.962, 1122173.086], [2566654.286, 1122174.699], [2566660.83, 1122150.324], [2566650.402, 1122147.163]], [[2566629.712, 1122197.484], [2566635.492, 1122199.236], [2566641.363, 1122201.015], [2566641.753, 1122199.748], [2566647.125, 1122201.376], [2566653.371, 1122178.11], [2566642.861, 1122174.925], [2566637.08, 1122173.173], [2566623.623, 1122169.094], [2566614.504, 1122199.179], [2566628.013, 1122203.088], [2566629.712, 1122197.484]]]}, "properties": {"EGRID": "CH574577538323", "NUMERO": "176", "NO_COM_FED": 5402, "GENRE_TXT": "parcelle priv\u00e9e", "SUPERFICIE_MO": 1429, "SUPERFICIE_RF": 1430}}, {"type": "Feature", "geometry": {"type": "Polygon", "coordinates": [[[2566617.465, 1122342.731], [2566622.905, 1122344.813], [2566647.774, 1122354.363], [2566639.914, 1122377.053], [2566626.954, 1122415.693], [2566621.654, 1122431.503], [2566579.765, 1122413.423], [2566575.825, 1122377.652], [2566604.385, 1122337.752], [2566606.995, 1122338.722], [2566617.465, 1122342.731]]]}, "properties": {"EGRID": "CH974579838370", "NUMERO": "465", "NO_COM_FED": 5402, "GENRE_TXT": "parcelle priv\u00e9e", "SUPERFICIE_MO": 4281, "SUPERFICIE_RF": 4284}}, {"type": "Feature", "geometry": {"type": "Polygon", "coordinates": [[[2566664.714, 1122384.803], [2566669.554, 1122386.283], [2566669.384, 1122386.753], [2566665.193, 1122400.093], [2566661.713, 1122411.6030000001], [2566657.633, 1122424.753], [2566652.883, 1122423.3530000001], [2566656.913, 1122410.163], [2566660.804, 1122397.713], [2566664.5439999998, 1122385.273], [2566664.714, 1122384.803]]]}, "properties": {"EGRID": "CH486883457710", "NUMERO": "471", "NO_COM_FED": 5402, "GENRE_TXT": "parcelle priv\u00e9e", "SUPERFICIE_MO": 200, "SUPERFICIE_RF": 201}}, {"type": "Feature", "geometry": {"type": "Polygon", "coordinates": [[[2566664.565, 1122305.933], [2566660.261, 1122318.527], [2566628.673, 1122308.663], [2566617.465, 1122342.731], [2566606.995, 1122338.722], [2566604.385, 1122337.752], [2566586.506, 1122330.912], [2566585.491, 1122330.52], [2566606.036, 1122263.019], [2566620.446, 1122267.73], [2566618.9, 1122272.648], [2566631.846, 1122276.884], [2566633.449, 1122271.985], [2566671.906, 1122284.57], [2566664.565, 1122305.933]]]}, "properties": {"EGRID": "CH884083459629", "NUMERO": "6701", "NO_COM_FED": 5402, "GENRE_TXT": "parcelle priv\u00e9e", "SUPERFICIE_MO": 3629, "SUPERFICIE_RF": 3629}}, {"type": "Feature", "geometry": {"type": "Polygon", "coordinates": [[[2566619.184, 1122438.713], [2566655.123, 1122454.354], [2566660.193, 1122456.594], [2566674.512, 1122467.134], [2566666.852, 1122494.054], [2566647.453, 1122485.664], [2566642.063, 1122483.314], [2566639.423, 1122482.184], [2566628.973, 1122477.673], [2566627.943, 1122477.233], [2566609.034, 1122469.073], [2566615.904, 1122448.513], [2566619.184, 1122438.713]]]}, "properties": {"EGRID": "CH667983452850", "NUMERO": "94", "NO_COM_FED": 5402, "GENRE_TXT": "parcelle priv\u00e9e", "SUPERFICIE_MO": 1946, "SUPERFICIE_RF": 1952}}, {"type": "Feature", "geometry": {"type": "Polygon", "coordinates": [[[2566681.7939999998, 1122527.124], [2566653.994, 1122536.273], [2566649.714, 1122537.663], [2566604.304, 1122552.483], [2566607.0439999998, 1122547.043], [2566608.8140000002, 1122543.623], [2566610.934, 1122539.613], [2566612.964, 1122535.623], [2566614.764, 1122532.063], [2566617.134, 1122527.383], [2566619.223, 1122523.313], [2566621.253, 1122519.433], [2566631.093, 1122500.474], [2566632.203, 1122500.974], [2566635.223, 1122502.284], [2566640.163, 1122504.454], [2566681.783, 1122522.354], [2566682.144762296, 1122522.5430094372], [2566682.47138718, 1122522.7877801703], [2566682.754357994, 1122523.0819298683], [2566682.9862963497, 1122523.4177886564], [2566683.161154517, 1122523.7865991062], [2566683.274373115, 1122524.1787445836], [2566683.323, 1122524.584], [2566683.323522449, 1122524.979108246], [2566683.2629650384, 1122525.369548509], [2566683.1427834257, 1122525.7459355157], [2566682.9658664973, 1122526.0992218012], [2566682.736466923, 1122526.4209151866], [2566682.460098934, 1122526.703282914], [2566682.143405771, 1122526.9395375217], [2566681.7939999998, 1122527.124]]]}, "properties": {"EGRID": "CH244583792996", "NUMERO": "48", "NO_COM_FED": 5402, "GENRE_TXT": "parcelle priv\u00e9e", "SUPERFICIE_MO": 1804, "SUPERFICIE_RF": 1807}}, {"type": "Feature", "geometry": {"type": "Polygon", "coordinates": [[[2566664.565, 1122305.933], [2566689.124, 1122313.003], [2566695.624, 1122311.613], [2566687.704, 1122334.553], [2566657.764, 1122325.833], [2566660.261, 1122318.527], [2566664.565, 1122305.933]]]}, "properties": {"EGRID": "CH867983458324", "NUMERO": "150", "NO_COM_FED": 5402, "GENRE_TXT": "parcelle priv\u00e9e", "SUPERFICIE_MO": 666, "SUPERFICIE_RF": 669}}, {"type": "Feature", "geometry": {"type": "Polygon", "coordinates": [[[2566681.7939999998, 1122527.124], [2566682.1434057713, 1122526.939537522], [2566682.460098934, 1122526.7032829141], [2566682.7364669233, 1122526.4209151869], [2566682.9658664977, 1122526.0992218014], [2566683.142783426, 1122525.745935516], [2566683.2629650384, 1122525.3695485091], [2566683.3235224495, 1122524.979108246], [2566683.323, 1122524.584], [2566683.274373115, 1122524.1787445836], [2566683.161154517, 1122523.7865991062], [2566682.9862963497, 1122523.4177886564], [2566682.754357994, 1122523.0819298683], [2566682.47138718, 1122522.7877801703], [2566682.144762296, 1122522.5430094372], [2566681.783, 1122522.354], [2566688.703, 1122503.454], [2566691.359682521, 1122504.4758908316], [2566694.083, 1122505.304], [2566699.633, 1122506.314], [2566702.4492717446, 1122506.472998071], [2566705.263, 1122506.274], [2566706.583809817, 1122505.9093507987], [2566707.8356415117, 1122505.3521928105], [2566708.99061311, 1122504.6149355823], [2566710.023, 1122503.714], [2566711.252225784, 1122502.362243838], [2566712.26958124, 1122500.844604676], [2566713.053, 1122499.194], [2566723.193, 1122502.904], [2566723.7273052386, 1122503.82982256], [2566724.392204943, 1122504.6668039714], [2566725.1731819897, 1122505.3966699548], [2566726.0531848725, 1122506.0034849404], [2566727.013, 1122506.474], [2566728.2856739545, 1122506.8860868905], [2566729.608375377, 1122507.0860257486], [2566730.94598808, 1122507.0685084304], [2566732.263, 1122506.834], [2566735.2286724225, 1122505.7361398286], [2566738.073, 1122504.354], [2566742.783, 1122517.884], [2566729.364, 1122528.134], [2566701.644, 1122529.964], [2566700.807664938, 1122529.691031902], [2566699.9413683433, 1122529.5377409076], [2566699.0621461887, 1122529.5071415287], [2566698.187288632, 1122529.5998355106], [2566697.334, 1122529.814], [2566692.194, 1122531.494], [2566681.7939999998, 1122527.124]]]}, "properties": {"EGRID": "CH707745608322", "NUMERO": "DP 1020", "NO_COM_FED": 5402, "GENRE_TXT": "DP communal", "SUPERFICIE_MO": 1334, "SUPERFICIE_RF": null}}, {"type": "Feature", "geometry": {"type": "Polygon", "coordinates": [[[2566739.292, 1122407.654], [2566704.003, 1122396.814], [2566711.283, 1122371.934], [2566747.012, 1122382.464], [2566739.292, 1122407.654]]]}, "properties": {"EGRID": "CH914583837939", "NUMERO": "99", "NO_COM_FED": 5402, "GENRE_TXT": "parcelle priv\u00e9e", "SUPERFICIE_MO": 969, "SUPERFICIE_RF": 970}}, {"type": "Feature", "geometry": {"type": "Polygon", "coordinates": [[[2566726.254, 1122531.794], [2566729.364, 1122528.134], [2566749.42, 1122570.422], [2566754.643, 1122581.434], [2566756.716, 1122585.804], [2566784.027, 1122643.653], [2566780.958, 1122645.003], [2566735.3140000002, 1122549.754], [2566727.454, 1122533.454], [2566726.254, 1122531.794]]]}, "properties": {"EGRID": "CH656883774524", "NUMERO": "DP 1018", "NO_COM_FED": 5402, "GENRE_TXT": "DP communal", "SUPERFICIE_MO": 469, "SUPERFICIE_RF": null}}, {"type": "Feature", "geometry": {"type": "Polygon", "coordinates": [[[2566726.254, 1122531.794], [2566727.454, 1122533.454], [2566735.3140000002, 1122549.754], [2566780.958, 1122645.003], [2566795.409, 1122674.963], [2566797.578, 1122673.963], [2566804.1689999998, 1122685.693], [2566809.529, 1122692.273], [2566809.769, 1122701.483], [2566792.18, 1122710.133], [2566778.859, 1122684.293], [2566761.058, 1122650.163], [2566748.017, 1122625.113], [2566710.884, 1122553.954], [2566717.124, 1122542.934], [2566726.254, 1122531.794]]]}, "properties": {"EGRID": "CH283183457809", "NUMERO": "65", "NO_COM_FED": 5402, "GENRE_TXT": "parcelle priv\u00e9e", "SUPERFICIE_MO": 3953, "SUPERFICIE_RF": 3962}}, {"type": "Feature", "geometry": {"type": "Polygon", "coordinates": [[[2566445.348, 1122158.265], [2566455.621, 1122122.7], [2566493.97, 1122133.26], [2566483.339, 1122165.79], [2566482.334, 1122168.92], [2566445.348, 1122158.265]]]}, "properties": {"EGRID": "CH529915834558", "NUMERO": "6449", "NO_COM_FED": 5402, "GENRE_TXT": "parcelle priv\u00e9e", "SUPERFICIE_MO": 1457, "SUPERFICIE_RF": 1458}}, {"type": "Feature", "geometry": {"type": "Polygon", "coordinates": [[[2566418.05, 1122240.02], [2566414.25, 1122251.4], [2566410.6, 1122250.15], [2566406.22, 1122263.47], [2566405.41, 1122263.21], [2566389.94, 1122258.28], [2566380.41, 1122255.3], [2566386.88, 1122230.32], [2566418.05, 1122240.02]]]}, "properties": {"EGRID": "CH153183784526", "NUMERO": "85", "NO_COM_FED": 5402, "GENRE_TXT": "parcelle priv\u00e9e", "SUPERFICIE_MO": 767, "SUPERFICIE_RF": 765}}, {"type": "Feature", "geometry": {"type": "Polygon", "coordinates": [[[2566437.318, 1122310.86], [2566440.498, 1122300.75], [2566491.227, 1122317.711], [2566530.627, 1122330.982], [2566511.236, 1122383.882], [2566507.266, 1122394.572], [2566497.516, 1122421.082], [2566496.146, 1122424.902], [2566413.098, 1122388.821], [2566414.306, 1122384.929], [2566423.738, 1122354.541], [2566430.818, 1122332.001], [2566437.318, 1122310.86]]]}, "properties": {"EGRID": "CH698377694552", "NUMERO": "546", "NO_COM_FED": 5402, "GENRE_TXT": "parcelle priv\u00e9e", "SUPERFICIE_MO": 8908, "SUPERFICIE_RF": 8902}}, {"type": "Feature", "geometry": {"type": "Polygon", "coordinates": [[[2566528.354, 1122520.803], [2566500.205, 1122508.532], [2566525.015, 1122459.762], [2566530.585, 1122457.2719999999], [2566555.5439999998, 1122467.953], [2566528.354, 1122520.803]]]}, "properties": {"EGRID": "CH667783452510", "NUMERO": "43", "NO_COM_FED": 5402, "GENRE_TXT": "parcelle priv\u00e9e", "SUPERFICIE_MO": 1818, "SUPERFICIE_RF": 1813}}, {"type": "Feature", "geometry": {"type": "Polygon", "coordinates": [[[2566575.244, 1122541.123], [2566551.244, 1122530.763], [2566578.524, 1122477.833], [2566602.443, 1122488.223], [2566597.273, 1122498.253], [2566596.723, 1122499.303], [2566594.063, 1122504.473], [2566592.703, 1122507.1030000001], [2566592.053, 1122508.393], [2566584.933, 1122522.333], [2566576.604, 1122538.453], [2566575.244, 1122541.123]]]}, "properties": {"EGRID": "CH767983458556", "NUMERO": "45", "NO_COM_FED": 5402, "GENRE_TXT": "parcelle priv\u00e9e", "SUPERFICIE_MO": 1550, "SUPERFICIE_RF": 1546}}, {"type": "Feature", "geometry": {"type": "Polygon", "coordinates": [[[2566575.244, 1122541.123], [2566576.604, 1122538.453], [2566584.933, 1122522.333], [2566592.053, 1122508.393], [2566592.703, 1122507.1030000001], [2566594.063, 1122504.473], [2566596.723, 1122499.303], [2566597.273, 1122498.253], [2566602.443, 1122488.223], [2566608.123, 1122490.573], [2566601.233, 1122504.013], [2566600.093, 1122506.233], [2566592.773, 1122520.533], [2566588.954, 1122527.983], [2566582.304, 1122540.813], [2566573.555, 1122557.883], [2566577.695, 1122562.903], [2566555.935, 1122569.903], [2566564.415, 1122562.363], [2566575.244, 1122541.123]]]}, "properties": {"EGRID": "CH874579858301", "NUMERO": "DP 1016", "NO_COM_FED": 5402, "GENRE_TXT": "DP communal", "SUPERFICIE_MO": 573, "SUPERFICIE_RF": null}}, {"type": "Feature", "geometry": {"type": "Polygon", "coordinates": [[[2566559.911, 1122738.471], [2566576.03, 1122722.552], [2566588.39, 1122712.0219999999], [2566611.809, 1122692.052], [2566626.339, 1122678.382], [2566637.768, 1122667.612], [2566656.858, 1122645.023], [2566670.227, 1122616.883], [2566672.887, 1122618.993], [2566679.386, 1122603.903], [2566689.405, 1122577.643], [2566692.745, 1122569.063], [2566697.315, 1122557.314], [2566698.8140000002, 1122554.174], [2566701.504, 1122548.754], [2566705.234, 1122540.924], [2566705.7789095123, 1122539.6076585467], [2566706.1378442897, 1122538.2289464578], [2566706.304, 1122536.814], [2566706.2192697246, 1122535.7226849347], [2566705.968093637, 1122534.6572937556], [2566705.55642045, 1122533.6430585862], [2566704.994, 1122532.704], [2566704.3190287147, 1122531.8392564899], [2566703.5236870083, 1122531.0837439862], [2566702.625436948, 1122530.4540500897], [2566701.644, 1122529.964], [2566729.364, 1122528.134], [2566726.254, 1122531.794], [2566717.124, 1122542.934], [2566710.884, 1122553.954], [2566706.395, 1122561.764], [2566696.616, 1122586.973], [2566688.656, 1122607.763], [2566683.237, 1122620.3530000001], [2566681.307, 1122624.883], [2566674.767, 1122637.403], [2566672.107, 1122641.903], [2566672.2364022504, 1122641.9579625155], [2566672.3548209197, 1122642.0337440383], [2566672.458936529, 1122642.1282202816], [2566672.545830536, 1122642.2387429127], [2566672.6130671534, 1122642.362213791], [2566672.658761621, 1122642.495171815], [2566672.681633045, 1122642.633889941], [2566672.6810402996, 1122642.7744796602], [2566672.657, 1122642.913], [2566672.562923044, 1122642.9928343364], [2566672.4574324167, 1122643.0568321678], [2566672.3431686186, 1122643.1033915856], [2566672.2229917496, 1122643.1313471764], [2566672.099909917, 1122643.1399991931], [2566671.977003942, 1122643.12913107], [2566671.857350242, 1122643.0990148436], [2566671.743943831, 1122643.0504043426], [2566671.6396233463, 1122642.9845163212], [2566671.547, 1122642.903], [2566669.2048294395, 1122646.7442633947], [2566666.658, 1122650.453], [2566661.748, 1122657.6030000001], [2566661.068, 1122658.523], [2566658.2833740576, 1122662.3585071997], [2566655.338, 1122666.072], [2566649.258, 1122673.282], [2566646.239, 1122676.632], [2566642.3519384423, 1122680.7100614805], [2566638.269, 1122684.592], [2566629.129, 1122692.902], [2566619.239, 1122701.372], [2566609.57, 1122709.372], [2566597.19, 1122719.532], [2566586.57, 1122728.672], [2566584.44, 1122730.632], [2566572.021, 1122741.761], [2566564.291, 1122749.001], [2566559.911, 1122738.471]]]}, "properties": {"EGRID": "CH956083774541", "NUMERO": "DP 1019", "NO_COM_FED": 5402, "GENRE_TXT": "DP communal", "SUPERFICIE_MO": 3155, "SUPERFICIE_RF": null}}, {"type": "Feature", "geometry": {"type": "Polygon", "coordinates": [[[2566644.622, 1122145.411], [2566636.9189999998, 1122170.825], [2566624.251, 1122166.986], [2566631.964, 1122141.574], [2566644.622, 1122145.411]]]}, "properties": {"EGRID": "CH298308094519", "NUMERO": "6775", "NO_COM_FED": 5402, "GENRE_TXT": "parcelle priv\u00e9e", "SUPERFICIE_MO": 351, "SUPERFICIE_RF": 352}}, {"type": "Feature", "geometry": {"type": "Polygon", "coordinates": [[[2566642.861, 1122174.925], [2566653.371, 1122178.11], [2566647.125, 1122201.376], [2566641.753, 1122199.748], [2566641.363, 1122201.015], [2566635.492, 1122199.236], [2566642.861, 1122174.925]]]}, "properties": {"EGRID": "CH220809834552", "NUMERO": "6780", "NO_COM_FED": 5402, "GENRE_TXT": "parcelle priv\u00e9e", "SUPERFICIE_MO": 282, "SUPERFICIE_RF": 282}}, {"type": "Feature", "geometry": {"type": "Polygon", "coordinates": [[[2566657.633, 1122120.304], [2566650.208, 1122144.804], [2566644.422, 1122143.051], [2566651.848, 1122118.551], [2566657.633, 1122120.304]]]}, "properties": {"EGRID": "CH274508098305", "NUMERO": "6773", "NO_COM_FED": 5402, "GENRE_TXT": "parcelle priv\u00e9e", "SUPERFICIE_MO": 155, "SUPERFICIE_RF": 155}}, {"type": "Feature", "geometry": {"type": "Polygon", "coordinates": [[[2566617.465, 1122342.731], [2566628.673, 1122308.663], [2566660.261, 1122318.527], [2566657.764, 1122325.833], [2566647.774, 1122354.363], [2566622.905, 1122344.813], [2566617.465, 1122342.731]]]}, "properties": {"EGRID": "CH798377604545", "NUMERO": "93", "NO_COM_FED": 5402, "GENRE_TXT": "parcelle priv\u00e9e", "SUPERFICIE_MO": 1210, "SUPERFICIE_RF": 1210}}, {"type": "Feature", "geometry": {"type": "Polygon", "coordinates": [[[2566704.558, 1122204.857], [2566730.613, 1122211.681], [2566727.045, 1122227.29], [2566723.474, 1122242.913], [2566694.585, 1122239.6030000001], [2566688.625, 1122238.883], [2566687.755, 1122238.813], [2566691.385, 1122223.143], [2566687.165, 1122221.839], [2566692.443, 1122201.684], [2566704.558, 1122204.857]]]}, "properties": {"EGRID": "CH414503837956", "NUMERO": "167", "NO_COM_FED": 5402, "GENRE_TXT": "parcelle priv\u00e9e", "SUPERFICIE_MO": 1320, "SUPERFICIE_RF": 1320}}, {"type": "Feature", "geometry": {"type": "Polygon", "coordinates": [[[2566696.616, 1122586.973], [2566706.395, 1122561.764], [2566710.884, 1122553.954], [2566748.017, 1122625.113], [2566730.867, 1122634.773], [2566725.987, 1122637.523], [2566696.616, 1122586.973]]]}, "properties": {"EGRID": "CH274578318385", "NUMERO": "64", "NO_COM_FED": 5402, "GENRE_TXT": "parcelle priv\u00e9e", "SUPERFICIE_MO": 1878, "SUPERFICIE_RF": 1883}}, {"type": "Feature", "geometry": {"type": "Polygon", "coordinates": [[[2566749.482, 1122414.944], [2566759.952, 1122380.094], [2566790.541, 1122388.905], [2566786.891, 1122401.175], [2566780.041, 1122424.065], [2566749.482, 1122414.944]]]}, "properties": {"EGRID": "CH227831834501", "NUMERO": "504", "NO_COM_FED": 5402, "GENRE_TXT": "parcelle priv\u00e9e", "SUPERFICIE_MO": 1165, "SUPERFICIE_RF": 1165}}, {"type": "Feature", "geometry": {"type": "Polygon", "coordinates": [[[2566446.23, 1122197.2], [2566436.949, 1122227.37], [2566431.729, 1122244.36], [2566418.05, 1122240.02], [2566386.88, 1122230.32], [2566390.92, 1122214.879], [2566399.241, 1122183.019], [2566435.075, 1122193.835], [2566446.23, 1122197.2]]]}, "properties": {"EGRID": "CH107745568344", "NUMERO": "87", "NO_COM_FED": 5402, "GENRE_TXT": "parcelle priv\u00e9e", "SUPERFICIE_MO": 2357, "SUPERFICIE_RF": 2354}}, {"type": "Feature", "geometry": {"type": "Polygon", "coordinates": [[[2566499.332, 1122116.863], [2566501.54, 1122110.11], [2566515.19, 1122068.37], [2566531.31, 1122073.18], [2566546.949, 1122077.18], [2566563.059, 1122079.95], [2566589.979, 1122083.251], [2566604.258, 1122084.691], [2566588.766, 1122135.247], [2566585.735, 1122145.139], [2566499.332, 1122116.863]]]}, "properties": {"EGRID": "CH284283450279", "NUMERO": "6895", "NO_COM_FED": 5402, "GENRE_TXT": "DDP superficie", "SUPERFICIE_MO": 5001, "SUPERFICIE_RF": 5001}}, {"type": "Feature", "geometry": {"type": "Polygon", "coordinates": [[[2566336.638, 1122482.07], [2566340.188, 1122459.01], [2566369.348, 1122463.881], [2566355.178, 1122497.391], [2566341.458, 1122491.471], [2566337.758, 1122487.831], [2566336.638, 1122482.07]]]}, "properties": {"EGRID": "CH638377452548", "NUMERO": "35", "NO_COM_FED": 5402, "GENRE_TXT": "parcelle priv\u00e9e", "SUPERFICIE_MO": 823, "SUPERFICIE_RF": 823}}, {"type": "Feature", "geometry": {"type": "Polygon", "coordinates": [[[2566418.05, 1122240.02], [2566431.729, 1122244.36], [2566455.769, 1122251.96], [2566452.089, 1122263.45], [2566447.839, 1122277.1], [2566419.579, 1122267.86], [2566417.139, 1122267.16], [2566406.22, 1122263.47], [2566410.6, 1122250.15], [2566414.25, 1122251.4], [2566418.05, 1122240.02]]]}, "properties": {"EGRID": "CH844583798530", "NUMERO": "86", "NO_COM_FED": 5402, "GENRE_TXT": "parcelle priv\u00e9e", "SUPERFICIE_MO": 1094, "SUPERFICIE_RF": 1093}}, {"type": "Feature", "geometry": {"type": "Polygon", "coordinates": [[[2566482.625, 1122552.442], [2566471.675, 1122547.642], [2566476.525, 1122546.412], [2566505.045, 1122490.162], [2566521.375, 1122458.012], [2566520.075, 1122452.762], [2566530.585, 1122457.2719999999], [2566525.015, 1122459.762], [2566500.205, 1122508.532], [2566480.135, 1122548.182], [2566482.625, 1122552.442]]]}, "properties": {"EGRID": "CH614525837783", "NUMERO": "DP 1015", "NO_COM_FED": 5402, "GENRE_TXT": "DP communal", "SUPERFICIE_MO": 456, "SUPERFICIE_RF": null}}, {"type": "Feature", "geometry": {"type": "Polygon", "coordinates": [[[2566602.443, 1122488.223], [2566578.524, 1122477.833], [2566578.004, 1122477.653], [2566576.504, 1122476.993], [2566555.5439999998, 1122467.953], [2566530.585, 1122457.2719999999], [2566520.075, 1122452.762], [2566496.6859999998, 1122442.632], [2566443.867, 1122420.351], [2566420.277, 1122410.391], [2566396.308, 1122400.251], [2566365.989, 1122387.45], [2566349.969, 1122398.43], [2566367.365, 1122362.148], [2566370.5811571153, 1122364.5681089594], [2566373.975, 1122366.732], [2566378.6595251723, 1122369.2992636343], [2566383.517, 1122371.5219999999], [2566384.042, 1122371.748], [2566386.599, 1122372.851], [2566408.276, 1122382.303], [2566414.306, 1122384.929], [2566413.098, 1122388.821], [2566496.146, 1122424.902], [2566497.516, 1122421.082], [2566525.205, 1122433.122], [2566529.245, 1122434.852], [2566527.685, 1122438.552], [2566607.604, 1122473.183], [2566609.034, 1122469.073], [2566627.943, 1122477.233], [2566628.973, 1122477.673], [2566639.423, 1122482.184], [2566642.063, 1122483.314], [2566647.453, 1122485.664], [2566666.852, 1122494.054], [2566688.703, 1122503.454], [2566681.783, 1122522.354], [2566640.163, 1122504.454], [2566635.223, 1122502.284], [2566632.203, 1122500.974], [2566631.093, 1122500.474], [2566608.123, 1122490.573], [2566602.443, 1122488.223]]]}, "properties": {"EGRID": "CH174577568353", "NUMERO": "DP 1017", "NO_COM_FED": 5402, "GENRE_TXT": "DP communal", "SUPERFICIE_MO": 6558, "SUPERFICIE_RF": null}}, {"type": "Feature", "geometry": {"type": "Polygon", "coordinates": [[[2566657.633, 1122120.304], [2566668.042, 1122123.459], [2566661.746, 1122146.913], [2566656.47, 1122145.314], [2566656.084, 1122146.585], [2566650.208, 1122144.804], [2566657.633, 1122120.304]]]}, "properties": {"EGRID": "CH280983450891", "NUMERO": "6774", "NO_COM_FED": 5402, "GENRE_TXT": "parcelle priv\u00e9e", "SUPERFICIE_MO": 282, "SUPERFICIE_RF": 282}}, {"type": "Feature", "geometry": {"type": "Polygon", "coordinates": [[[2566730.055, 1122167.203], [2566725.025, 1122190.283], [2566709.773, 1122184.943], [2566700.546, 1122181.712], [2566705.716, 1122158.702], [2566714.426, 1122161.732], [2566730.055, 1122167.203]]]}, "properties": {"EGRID": "CH407945038347", "NUMERO": "5223", "NO_COM_FED": 5402, "GENRE_TXT": "parcelle priv\u00e9e", "SUPERFICIE_MO": 606, "SUPERFICIE_RF": 606}}, {"type": "Feature", "geometry": {"type": "Polygon", "coordinates": [[[2566709.773, 1122184.943], [2566725.025, 1122190.283], [2566734.725, 1122193.693], [2566730.613, 1122211.681], [2566704.558, 1122204.857], [2566709.773, 1122184.943]]]}, "properties": {"EGRID": "CH660783456616", "NUMERO": "6757", "NO_COM_FED": 5402, "GENRE_TXT": "parcelle priv\u00e9e", "SUPERFICIE_MO": 520, "SUPERFICIE_RF": 520}}, {"type": "Feature", "geometry": {"type": "Polygon", "coordinates": [[[2566758.325, 1122129.863], [2566770.076, 1122082.693], [2566832.065, 1122079.003], [2566810.174, 1122169.703], [2566752.335, 1122155.523], [2566751.845, 1122155.413], [2566758.325, 1122129.863]]]}, "properties": {"EGRID": "CH356883774529", "NUMERO": "500", "NO_COM_FED": 5402, "GENRE_TXT": "parcelle priv\u00e9e", "SUPERFICIE_MO": 5019, "SUPERFICIE_RF": 5020}}, {"type": "Feature", "geometry": {"type": "Polygon", "coordinates": [[[2566608.123, 1122490.573], [2566631.093, 1122500.474], [2566621.253, 1122519.433], [2566619.223, 1122523.313], [2566617.134, 1122527.383], [2566614.764, 1122532.063], [2566599.693, 1122524.163], [2566594.023, 1122521.183], [2566592.773, 1122520.533], [2566600.093, 1122506.233], [2566601.233, 1122504.013], [2566608.123, 1122490.573]]]}, "properties": {"EGRID": "CH407845398363", "NUMERO": "47", "NO_COM_FED": 5402, "GENRE_TXT": "parcelle priv\u00e9e", "SUPERFICIE_MO": 861, "SUPERFICIE_RF": 860}}, {"type": "Feature", "geometry": {"type": "Polygon", "coordinates": [[[2566646.446, 1122599.193], [2566640.736, 1122606.3530000001], [2566628.677, 1122621.623], [2566618.136, 1122612.843], [2566568.855, 1122572.053], [2566597.585, 1122562.693], [2566646.446, 1122599.193]]]}, "properties": {"EGRID": "CH198377564567", "NUMERO": "56", "NO_COM_FED": 5402, "GENRE_TXT": "parcelle priv\u00e9e", "SUPERFICIE_MO": 1863, "SUPERFICIE_RF": 1862}}, {"type": "Feature", "geometry": {"type": "Polygon", "coordinates": [[[2566648.033, 1122421.923], [2566643.254, 1122420.543], [2566647.674, 1122406.273], [2566651.504, 1122393.843], [2566655.0439999998, 1122382.313], [2566655.154, 1122381.833], [2566659.964, 1122383.343], [2566659.824, 1122383.813], [2566655.984, 1122396.233], [2566652.444, 1122407.743], [2566648.033, 1122421.923]]]}, "properties": {"EGRID": "CH567783456997", "NUMERO": "469", "NO_COM_FED": 5402, "GENRE_TXT": "parcelle priv\u00e9e", "SUPERFICIE_MO": 202, "SUPERFICIE_RF": 202}}, {"type": "Feature", "geometry": {"type": "Polygon", "coordinates": [[[2566655.624, 1122543.653], [2566661.284, 1122547.573], [2566653.715, 1122558.513], [2566654.905, 1122559.323], [2566657.075, 1122560.773], [2566664.135, 1122565.653], [2566659.195, 1122572.913], [2566660.835, 1122574.053], [2566656.175, 1122580.943], [2566657.785, 1122582.043], [2566653.136, 1122588.863], [2566652.636, 1122589.613], [2566646.646, 1122598.873], [2566646.446, 1122599.193], [2566597.585, 1122562.693], [2566631.154, 1122551.803], [2566655.624, 1122543.653]]]}, "properties": {"EGRID": "CH185683457748", "NUMERO": "58", "NO_COM_FED": 5402, "GENRE_TXT": "parcelle priv\u00e9e", "SUPERFICIE_MO": 1840, "SUPERFICIE_RF": 1842}}, {"type": "Feature", "geometry": {"type": "Polygon", "coordinates": [[[2566662.453, 1122426.203], [2566666.473, 1122413.033], [2566670.343, 1122400.613], [2566674.143, 1122388.183], [2566674.303, 1122387.723], [2566676.723, 1122388.453], [2566686.673, 1122391.564], [2566675.763, 1122430.034], [2566667.013, 1122427.494], [2566662.453, 1122426.203]]]}, "properties": {"EGRID": "CH274578308388", "NUMERO": "95", "NO_COM_FED": 5402, "GENRE_TXT": "parcelle priv\u00e9e", "SUPERFICIE_MO": 538, "SUPERFICIE_RF": 538}}, {"type": "Feature", "geometry": {"type": "Polygon", "coordinates": [[[2566671.906, 1122284.57], [2566633.449, 1122271.985], [2566631.846, 1122276.884], [2566618.9, 1122272.648], [2566620.446, 1122267.73], [2566606.036, 1122263.019], [2566621.346, 1122212.715], [2566648.643, 1122221.059], [2566651.716, 1122211.492], [2566682.705, 1122220.462], [2566687.165, 1122221.839], [2566691.385, 1122223.143], [2566687.755, 1122238.813], [2566672.695, 1122282.273], [2566671.906, 1122284.57]]]}, "properties": {"EGRID": "CH544583776957", "NUMERO": "92", "NO_COM_FED": 5402, "GENRE_TXT": "parcelle priv\u00e9e", "SUPERFICIE_MO": 4246, "SUPERFICIE_RF": 4246}}, {"type": "Feature", "geometry": {"type": "Polygon", "coordinates": [[[2566728.412, 1122445.334], [2566713.053, 1122499.194], [2566712.26958124, 1122500.844604676], [2566711.252225784, 1122502.362243838], [2566710.023, 1122503.714], [2566708.99061311, 1122504.6149355823], [2566707.8356415117, 1122505.3521928105], [2566706.583809817, 1122505.9093507987], [2566705.263, 1122506.274], [2566702.4492717446, 1122506.472998071], [2566699.633, 1122506.314], [2566694.083, 1122505.304], [2566691.359682521, 1122504.4758908316], [2566688.703, 1122503.454], [2566666.852, 1122494.054], [2566674.512, 1122467.134], [2566684.413, 1122432.654], [2566728.412, 1122445.334]]]}, "properties": {"EGRID": "CH182883457926", "NUMERO": "96", "NO_COM_FED": 5402, "GENRE_TXT": "parcelle priv\u00e9e", "SUPERFICIE_MO": 2999, "SUPERFICIE_RF": 3002}}, {"type": "Feature", "geometry": {"type": "Polygon", "coordinates": [[[2566261.563, 1122065.943], [2566259.334, 1122075.077], [2566245.474, 1122131.557], [2566232.923, 1122182.618], [2566225.263, 1122222.778], [2566196.153, 1122305.718], [2566050.886, 1122245.746], [2566038.106, 1122240.386], [2566039.636, 1122236.706], [2566061.022, 1122245.579], [2566095.205, 1122259.747], [2566099.557, 1122261.541], [2566115.736, 1122268.209], [2566157.529, 1122285.434], [2566186.703, 1122297.458], [2566190.233, 1122297.368], [2566193.123, 1122296.188], [2566195.443, 1122293.748], [2566220.303, 1122221.198], [2566229.244, 1122181.658], [2566242.134, 1122130.677], [2566250.274, 1122093.547], [2566253.994, 1122078.207], [2566260.335, 1122052.127], [2566264.785, 1122034.527], [2566275.235, 1121992.547], [2566279.695, 1121993.547], [2566263.484, 1122058.067], [2566261.563, 1122065.943]]]}, "properties": {"EGRID": "CH398377264589", "NUMERO": "DP 29", "NO_COM_FED": 5402, "GENRE_TXT": "DP communal", "SUPERFICIE_MO": 2099, "SUPERFICIE_RF": null}}, {"type": "Feature", "geometry": {"type": "Polygon", "coordinates": [[[2566261.563, 1122065.943], [2566264.027, 1122066.528], [2566273.623, 1122052.766], [2566286.576, 1122024.94], [2566295.635, 1121996.7280000001], [2566297.605, 1121997.107], [2566291.733, 1122024.938], [2566278.738, 1122079.122], [2566270.202, 1122077.061], [2566261.0640000002, 1122087.242], [2566259.011, 1122095.711], [2566225.263, 1122222.778], [2566232.923, 1122182.618], [2566245.474, 1122131.557], [2566259.334, 1122075.077], [2566261.563, 1122065.943]]]}, "properties": {"EGRID": "CH744583003560", "NUMERO": "6852", "NO_COM_FED": 5402, "GENRE_TXT": "parcelle priv\u00e9e", "SUPERFICIE_MO": 1276, "SUPERFICIE_RF": 1276}}, {"type": "Feature", "geometry": {"type": "Polygon", "coordinates": [[[2566042.593, 1122799.588], [2566037.133, 1122796.538], [2566022.962, 1122789.318], [2566024.402, 1122786.288], [2566036.631, 1122761.199], [2566056.3, 1122712.339], [2566081.06, 1122650.869], [2566106.241, 1122588.469], [2566111.771, 1122557.439], [2566115.351, 1122537.299], [2566116.541, 1122533.939], [2566120.461, 1122522.738], [2566126.791, 1122504.568], [2566140.922, 1122464.138], [2566149.862, 1122438.598], [2566173.382, 1122371.328], [2566193.855, 1122312.341], [2566196.153, 1122305.718], [2566225.263, 1122222.778], [2566259.011, 1122095.711], [2566261.0640000002, 1122087.242], [2566270.202, 1122077.061], [2566278.738, 1122079.122], [2566291.733, 1122024.938], [2566297.605, 1121997.107], [2566314.905, 1121924.457], [2566322.106, 1121887.867], [2566322.945, 1121881.638], [2566326.996, 1121851.577], [2566330.666, 1121851.987], [2566332.9359999998, 1121816.787], [2566332.566, 1121805.526], [2566331.147, 1121761.766], [2566331.107, 1121757.636], [2566335.317, 1121759.066], [2566335.687, 1121758.626], [2566345.437, 1121761.686], [2566346.037, 1121767.696], [2566350.566, 1121771.896], [2566352.836, 1121842.217], [2566348.885, 1121912.8969999999], [2566365.224, 1121920.247], [2566364.864, 1121922.407], [2566359.034, 1121953.878], [2566356.274, 1121964.758], [2566354.354, 1121975.378], [2566353.0439999998, 1121982.7280000001], [2566351.994, 1121988.848], [2566351.8670025496, 1121990.9467857445], [2566351.944, 1121993.048], [2566352.265017989, 1121995.3620925741], [2566352.834, 1121997.628], [2566353.974, 1122001.668], [2566355.414, 1122005.378], [2566357.163, 1122009.138], [2566358.1979776653, 1122011.0189644415], [2566359.443, 1122012.768], [2566361.1811493197, 1122014.6521408919], [2566363.163, 1122016.278], [2566363.28657682, 1122016.352382455], [2566363.419699984, 1122016.4079000484], [2566363.5595090715, 1122016.443359872], [2566363.703, 1122016.458], [2566363.8616219833, 1122016.4464310622], [2566364.016304148, 1122016.409441849], [2566364.163, 1122016.348], [2566364.623, 1122015.998], [2566363.409, 1122022.849], [2566355.013, 1122023.39], [2566344.525, 1122029.344], [2566317.926, 1122127.876], [2566317.9560000002, 1122135.028], [2566303.757, 1122188.001], [2566316.381, 1122192.809], [2566311.812, 1122209.629], [2566309.092, 1122219.279], [2566293.391, 1122263.619], [2566282.191, 1122295.109], [2566272.0609999998, 1122323.449], [2566264.341, 1122344.679], [2566255.571, 1122370.409], [2566253.631, 1122369.659], [2566223.84, 1122454.479], [2566218.83, 1122468.679], [2566193.84, 1122539.559], [2566163.819, 1122625.02], [2566157.1689999998, 1122625.479], [2566148.799, 1122622.389], [2566126.91, 1122614.449], [2566123.96, 1122613.339], [2566118.57, 1122628.119], [2566090.5, 1122700.749], [2566062.512, 1122773.269], [2566048.153, 1122795.758], [2566042.593, 1122799.588]]]}, "properties": {"EGRID": "CH552583774555", "NUMERO": "2", "NO_COM_FED": 5402, "GENRE_TXT": "parcelle priv\u00e9e", "SUPERFICIE_MO": 59342, "SUPERFICIE_RF": 59048}}, {"type": "Feature", "geometry": {"type": "Polygon", "coordinates": [[[2566515.19, 1122068.37], [2566531.31, 1122073.18], [2566546.949, 1122077.18], [2566563.059, 1122079.95], [2566589.979, 1122083.251], [2566604.258, 1122084.691], [2566588.766, 1122135.247], [2566585.735, 1122145.139], [2566572.488, 1122188.371], [2566570.096, 1122196.177], [2566482.334, 1122168.92], [2566483.339, 1122165.79], [2566493.97, 1122133.26], [2566499.332, 1122116.863], [2566501.54, 1122110.11], [2566515.19, 1122068.37]]]}, "properties": {"EGRID": "CH774591098358", "NUMERO": "6551", "NO_COM_FED": 5402, "GENRE_TXT": "parcelle priv\u00e9e", "SUPERFICIE_MO": 9943, "SUPERFICIE_RF": 9937}}, {"type": "Feature", "geometry": {"type": "Polygon", "coordinates": [[[2566379.327, 1122507.791], [2566355.178, 1122497.391], [2566369.348, 1122463.881], [2566340.188, 1122459.01], [2566349.969, 1122398.43], [2566365.989, 1122387.45], [2566396.308, 1122400.251], [2566420.277, 1122410.391], [2566379.327, 1122507.791]]]}, "properties": {"EGRID": "CH698379724525", "NUMERO": "36", "NO_COM_FED": 5402, "GENRE_TXT": "parcelle priv\u00e9e", "SUPERFICIE_MO": 5437, "SUPERFICIE_RF": 5434}}, {"type": "Feature", "geometry": {"type": "Polygon", "coordinates": [[[2566319.467, 1122587.301], [2566325.277, 1122550.811], [2566396.896, 1122581.972], [2566447.586, 1122604.032], [2566395.097, 1122620.961], [2566319.467, 1122587.301]]]}, "properties": {"EGRID": "CH407845388366", "NUMERO": "505", "NO_COM_FED": 5402, "GENRE_TXT": "parcelle priv\u00e9e", "SUPERFICIE_MO": 3910, "SUPERFICIE_RF": 3905}}, {"type": "Feature", "geometry": {"type": "Polygon", "coordinates": [[[2566551.097, 1122632.142], [2566503.366, 1122598.0219999999], [2566507.6859999998, 1122592.552], [2566537.625, 1122582.642], [2566569.926, 1122610.082], [2566557.207, 1122625.092], [2566551.097, 1122632.142]]]}, "properties": {"EGRID": "CH687283457926", "NUMERO": "53", "NO_COM_FED": 5402, "GENRE_TXT": "parcelle priv\u00e9e", "SUPERFICIE_MO": 1628, "SUPERFICIE_RF": 1631}}, {"type": "Feature", "geometry": {"type": "Polygon", "coordinates": [[[2566604.258, 1122084.691], [2566613.968, 1122085.611], [2566623.118, 1122086.451], [2566631.328, 1122087.271], [2566646.308, 1122088.801], [2566639.153, 1122112.405], [2566628.573, 1122147.312], [2566588.766, 1122135.247], [2566604.258, 1122084.691]]]}, "properties": {"EGRID": "CH144583934176", "NUMERO": "6611", "NO_COM_FED": 5402, "GENRE_TXT": "parcelle priv\u00e9e", "SUPERFICIE_MO": 2368, "SUPERFICIE_RF": 2368}}, {"type": "Feature", "geometry": {"type": "Polygon", "coordinates": [[[2566734.725, 1122193.693], [2566749.334, 1122198.813], [2566744.154, 1122221.983], [2566743.684, 1122224.053], [2566741.8140000002, 1122232.503], [2566741.364, 1122234.523], [2566739.114, 1122244.713], [2566728.484, 1122243.513], [2566723.474, 1122242.913], [2566727.045, 1122227.29], [2566730.613, 1122211.681], [2566734.725, 1122193.693]]]}, "properties": {"EGRID": "CH998379184585", "NUMERO": "166", "NO_COM_FED": 5402, "GENRE_TXT": "parcelle priv\u00e9e", "SUPERFICIE_MO": 756, "SUPERFICIE_RF": 752}}, {"type": "Feature", "geometry": {"type": "Polygon", "coordinates": [[[2566734.725, 1122193.693], [2566725.025, 1122190.283], [2566730.055, 1122167.203], [2566747.385, 1122173.203], [2566754.405, 1122175.823], [2566749.334, 1122198.813], [2566734.725, 1122193.693]]]}, "properties": {"EGRID": "CH474579038392", "NUMERO": "5222", "NO_COM_FED": 5402, "GENRE_TXT": "parcelle priv\u00e9e", "SUPERFICIE_MO": 605, "SUPERFICIE_RF": 606}}, {"type": "Feature", "geometry": {"type": "Polygon", "coordinates": [[[2566646.446, 1122599.193], [2566646.646, 1122598.873], [2566652.636, 1122589.613], [2566653.136, 1122588.863], [2566657.785, 1122582.043], [2566656.175, 1122580.943], [2566660.835, 1122574.053], [2566659.195, 1122572.913], [2566664.135, 1122565.653], [2566657.075, 1122560.773], [2566654.905, 1122559.323], [2566653.715, 1122558.513], [2566661.284, 1122547.573], [2566692.745, 1122569.063], [2566689.405, 1122577.643], [2566679.386, 1122603.903], [2566672.887, 1122618.993], [2566670.227, 1122616.883], [2566656.858, 1122645.023], [2566628.677, 1122621.623], [2566640.736, 1122606.3530000001], [2566646.446, 1122599.193]]]}, "properties": {"EGRID": "CH667783456963", "NUMERO": "478", "NO_COM_FED": 5402, "GENRE_TXT": "parcelle priv\u00e9e", "SUPERFICIE_MO": 2672, "SUPERFICIE_RF": 2675}}, {"type": "Feature", "geometry": {"type": "Polygon", "coordinates": [[[2566664.565, 1122305.933], [2566671.906, 1122284.57], [2566672.695, 1122282.273], [2566687.755, 1122238.813], [2566688.625, 1122238.883], [2566694.585, 1122239.6030000001], [2566723.474, 1122242.913], [2566728.484, 1122243.513], [2566710.5640000002, 1122295.463], [2566702.114, 1122292.463], [2566695.624, 1122311.613], [2566689.124, 1122313.003], [2566664.565, 1122305.933]]]}, "properties": {"EGRID": "CH638377456904", "NUMERO": "104", "NO_COM_FED": 5402, "GENRE_TXT": "parcelle priv\u00e9e", "SUPERFICIE_MO": 2767, "SUPERFICIE_RF": 2762}}, {"type": "Feature", "geometry": {"type": "Polygon", "coordinates": [[[2566763.763, 1122327.554], [2566729.613, 1122317.024], [2566734.233, 1122303.663], [2566737.073, 1122304.664], [2566742.083, 1122289.983], [2566772.413, 1122299.294], [2566763.763, 1122327.554]]]}, "properties": {"EGRID": "CH914531837823", "NUMERO": "507", "NO_COM_FED": 5402, "GENRE_TXT": "parcelle priv\u00e9e", "SUPERFICIE_MO": 994, "SUPERFICIE_RF": 994}}, {"type": "Feature", "geometry": {"type": "Polygon", "coordinates": [[[2566772.413, 1122299.294], [2566742.083, 1122289.983], [2566749.488, 1122268.356], [2566779.788, 1122275.309], [2566772.413, 1122299.294]]]}, "properties": {"EGRID": "CH256383784501", "NUMERO": "106", "NO_COM_FED": 5402, "GENRE_TXT": "parcelle priv\u00e9e", "SUPERFICIE_MO": 751, "SUPERFICIE_RF": 752}}, {"type": "Feature", "geometry": {"type": "Polygon", "coordinates": [[[2566319.882, 1122179.919], [2566342.652, 1122186.199], [2566335.621, 1122212.509], [2566369.771, 1122222.729], [2566366.351, 1122236.339], [2566354.44, 1122280.849], [2566353.74, 1122283.409], [2566293.391, 1122263.619], [2566309.092, 1122219.279], [2566311.812, 1122209.629], [2566316.381, 1122192.809], [2566319.882, 1122179.919]]]}, "properties": {"EGRID": "CH198377694528", "NUMERO": "7", "NO_COM_FED": 5402, "GENRE_TXT": "parcelle priv\u00e9e", "SUPERFICIE_MO": 4424, "SUPERFICIE_RF": 4426}}, {"type": "Feature", "geometry": {"type": "Polygon", "coordinates": [[[2566384.421, 1122164.459], [2566369.771, 1122222.729], [2566335.621, 1122212.509], [2566342.652, 1122186.199], [2566350.762, 1122155.859], [2566384.421, 1122164.459]]]}, "properties": {"EGRID": "CH827982834587", "NUMERO": "73", "NO_COM_FED": 5402, "GENRE_TXT": "parcelle priv\u00e9e", "SUPERFICIE_MO": 2088, "SUPERFICIE_RF": 2092}}, {"type": "Feature", "geometry": {"type": "Polygon", "coordinates": [[[2566440.498, 1122300.75], [2566443.779, 1122290.23], [2566447.839, 1122277.1], [2566452.089, 1122263.45], [2566455.769, 1122251.96], [2566470.909, 1122204.65], [2566482.334, 1122168.92], [2566570.096, 1122196.177], [2566572.488, 1122188.371], [2566590.247, 1122193.531], [2566612.593, 1122200.039], [2566623.697, 1122203.2719999999], [2566627.246, 1122204.2719999999], [2566651.716, 1122211.492], [2566648.643, 1122221.059], [2566621.346, 1122212.715], [2566606.036, 1122263.019], [2566585.491, 1122330.52], [2566575.056, 1122326.442], [2566567.696, 1122345.612], [2566551.365, 1122339.172], [2566572.29, 1122270.122], [2566513.849, 1122251.702], [2566497.638, 1122298.911], [2566491.227, 1122317.711], [2566440.498, 1122300.75]]]}, "properties": {"EGRID": "CH585183457747", "NUMERO": "520", "NO_COM_FED": 5402, "GENRE_TXT": "parcelle priv\u00e9e", "SUPERFICIE_MO": 16689, "SUPERFICIE_RF": 16680}}, {"type": "Feature", "geometry": {"type": "Polygon", "coordinates": [[[2566042.593, 1122799.588], [2566048.153, 1122795.758], [2566062.512, 1122773.269], [2566090.5, 1122700.749], [2566118.57, 1122628.119], [2566123.96, 1122613.339], [2566126.91, 1122614.449], [2566148.799, 1122622.389], [2566157.1689999998, 1122625.479], [2566163.819, 1122625.02], [2566193.84, 1122539.559], [2566218.83, 1122468.679], [2566223.84, 1122454.479], [2566253.631, 1122369.659], [2566255.571, 1122370.409], [2566267.89, 1122375.269], [2566282.1, 1122380.839], [2566296.36, 1122386.349], [2566303.83, 1122368.309], [2566306.27, 1122362.369], [2566328.16, 1122371.5], [2566330.639, 1122379], [2566329.829, 1122399.21], [2566324.859, 1122427.59], [2566313.158, 1122501.61], [2566305.878, 1122547.411], [2566287.738, 1122660.571], [2566276.65, 1122729.26], [2566262.973, 1122800.679], [2566253.234, 1122844.389], [2566241.586, 1122891.599], [2566239.046, 1122892.649], [2566237.076, 1122899.258], [2566238.766, 1122902.648], [2566235.997, 1122912.758], [2566227.907, 1122918.568], [2566216.727, 1122916.598], [2566140.275, 1122869.628], [2566110.764, 1122850.038], [2566042.593, 1122799.588]]]}, "properties": {"EGRID": "CH414569837746", "NUMERO": "3", "NO_COM_FED": 5402, "GENRE_TXT": "parcelle priv\u00e9e", "SUPERFICIE_MO": 74897, "SUPERFICIE_RF": 74913}}, {"type": "Feature", "geometry": {"type": "Polygon", "coordinates": [[[2566430.818, 1122332.001], [2566396.714, 1122321.47], [2566366.21, 1122312.05], [2566371.61, 1122290.05], [2566437.318, 1122310.86], [2566430.818, 1122332.001]]]}, "properties": {"EGRID": "CH598377604516", "NUMERO": "82", "NO_COM_FED": 5402, "GENRE_TXT": "parcelle priv\u00e9e", "SUPERFICIE_MO": 1527, "SUPERFICIE_RF": 1526}}, {"type": "Feature", "geometry": {"type": "Polygon", "coordinates": [[[2566480.566, 1122479.602], [2566505.045, 1122490.162], [2566476.525, 1122546.412], [2566471.675, 1122547.642], [2566434.676, 1122531.722], [2566460.856, 1122471.072], [2566480.566, 1122479.602]]]}, "properties": {"EGRID": "CH614572837946", "NUMERO": "509", "NO_COM_FED": 5402, "GENRE_TXT": "parcelle priv\u00e9e", "SUPERFICIE_MO": 3037, "SUPERFICIE_RF": 3038}}, {"type": "Feature", "geometry": {"type": "Polygon", "coordinates": [[[2566480.566, 1122479.602], [2566496.6859999998, 1122442.632], [2566520.075, 1122452.762], [2566521.375, 1122458.012], [2566505.045, 1122490.162], [2566480.566, 1122479.602]]]}, "properties": {"EGRID": "CH238379458707", "NUMERO": "40", "NO_COM_FED": 5402, "GENRE_TXT": "parcelle priv\u00e9e", "SUPERFICIE_MO": 1115, "SUPERFICIE_RF": 1115}}, {"type": "Feature", "geometry": {"type": "Polygon", "coordinates": [[[2566511.236, 1122383.882], [2566520.62, 1122387.927], [2566518.177, 1122393.619], [2566534.705, 1122400.757], [2566532.644, 1122405.531], [2566536.536, 1122407.212], [2566540.447, 1122408.901], [2566529.245, 1122434.852], [2566525.205, 1122433.122], [2566497.516, 1122421.082], [2566507.266, 1122394.572], [2566511.236, 1122383.882]]]}, "properties": {"EGRID": "CH444583776991", "NUMERO": "90", "NO_COM_FED": 5402, "GENRE_TXT": "parcelle priv\u00e9e", "SUPERFICIE_MO": 1206, "SUPERFICIE_RF": 1207}}, {"type": "Feature", "geometry": {"type": "Polygon", "coordinates": [[[2566482.625, 1122552.442], [2566480.135, 1122548.182], [2566500.205, 1122508.532], [2566528.354, 1122520.803], [2566545.104, 1122528.013], [2566523.605, 1122569.983], [2566482.625, 1122552.442]]]}, "properties": {"EGRID": "CH567983457240", "NUMERO": "41", "NO_COM_FED": 5402, "GENRE_TXT": "parcelle priv\u00e9e", "SUPERFICIE_MO": 2296, "SUPERFICIE_RF": 2294}}, {"type": "Feature", "geometry": {"type": "Polygon", "coordinates": [[[2566680.714, 1122198.613], [2566656.846, 1122192.362], [2566661.976, 1122173.232], [2566662.916, 1122173.402], [2566685.982, 1122178.496], [2566680.714, 1122198.613]]]}, "properties": {"EGRID": "CH644583076642", "NUMERO": "6755", "NO_COM_FED": 5402, "GENRE_TXT": "parcelle priv\u00e9e", "SUPERFICIE_MO": 500, "SUPERFICIE_RF": 500}}, {"type": "Feature", "geometry": {"type": "Polygon", "coordinates": [[[2566766.242, 1122359.034], [2566759.952, 1122380.094], [2566749.482, 1122414.944], [2566739.942, 1122447.084], [2566723.193, 1122502.904], [2566713.053, 1122499.194], [2566728.412, 1122445.334], [2566739.292, 1122407.654], [2566747.012, 1122382.464], [2566754.682, 1122357.284], [2566755.652, 1122354.254], [2566763.763, 1122327.554], [2566772.413, 1122299.294], [2566779.788, 1122275.309], [2566787.523, 1122250.154], [2566800.113, 1122246.354], [2566797.063, 1122256.124], [2566788.353, 1122285.244], [2566781.593, 1122308.154], [2566775.012, 1122329.994], [2566766.242, 1122359.034]]]}, "properties": {"EGRID": "CH556783774585", "NUMERO": "DP 1024", "NO_COM_FED": 5402, "GENRE_TXT": "DP communal", "SUPERFICIE_MO": 3007, "SUPERFICIE_RF": null}}, {"type": "Feature", "geometry": {"type": "Polygon", "coordinates": [[[2566814.062, 1122467.225], [2566795.132, 1122480.715], [2566774.423, 1122495.524], [2566758.143, 1122507.014], [2566750.423, 1122512.504], [2566742.783, 1122517.884], [2566738.073, 1122504.354], [2566743.483, 1122501.384], [2566747.613, 1122498.614], [2566762.022, 1122488.674], [2566792.972, 1122467.045], [2566834.741, 1122437.865], [2566843.9, 1122431.785], [2566852.66, 1122426.415], [2566864.27, 1122419.865], [2566872.98, 1122415.476], [2566876.26, 1122411.476], [2566883.78, 1122406.066], [2566894.29, 1122401.536], [2566917.139, 1122392.636], [2566935.359, 1122387.576], [2566945.249, 1122384.186], [2566949.569, 1122382.926], [2566955.6689999998, 1122381.116], [2566955.839, 1122381.496], [2566982.408, 1122369.956], [2567048.748, 1122341.197], [2567056.368, 1122337.857], [2567062.667, 1122346.497], [2567045.028, 1122354.167], [2567028.498, 1122361.267], [2566993.668, 1122376.276], [2566994.119, 1122377.446], [2566978.489, 1122384.336], [2566974.549, 1122386.036], [2566970.839, 1122387.546], [2566970.429, 1122387.336], [2566969.899, 1122387.356], [2566957.6890000002, 1122392.416], [2566945.739, 1122397.576], [2566942.529, 1122398.946], [2566940.769, 1122399.726], [2566937.889, 1122400.906], [2566934.279, 1122402.446], [2566920.57, 1122408.116], [2566912.42, 1122411.596], [2566904.29, 1122415.026], [2566901.4, 1122416.286], [2566895.7, 1122418.786], [2566882.33, 1122424.416], [2566877.49, 1122426.745], [2566873.62, 1122428.755], [2566868.24, 1122431.905], [2566862.88, 1122435.085], [2566857.491, 1122438.245], [2566854.981, 1122439.735], [2566832.301, 1122454.455], [2566815.442, 1122466.255], [2566814.062, 1122467.225]]]}, "properties": {"EGRID": "CH256883774563", "NUMERO": "DP 1023", "NO_COM_FED": 5402, "GENRE_TXT": "DP communal", "SUPERFICIE_MO": 4534, "SUPERFICIE_RF": null}}, {"type": "Feature", "geometry": {"type": "Polygon", "coordinates": [[[2566470.909, 1122204.65], [2566446.23, 1122197.2], [2566435.075, 1122193.835], [2566445.348, 1122158.265], [2566482.334, 1122168.92], [2566470.909, 1122204.65]]]}, "properties": {"EGRID": "CH514515839988", "NUMERO": "6448", "NO_COM_FED": 5402, "GENRE_TXT": "parcelle priv\u00e9e", "SUPERFICIE_MO": 1414, "SUPERFICIE_RF": 1415}}, {"type": "Feature", "geometry": {"type": "Polygon", "coordinates": [[[2566295.431, 1122333.439], [2566294.221, 1122337.279], [2566312.24, 1122345.069], [2566319.84, 1122348.35], [2566331.77, 1122347.8], [2566338.81, 1122344.44], [2566328.16, 1122371.5], [2566306.27, 1122362.369], [2566307.17, 1122360.309], [2566270.531, 1122344.049], [2566264.341, 1122344.679], [2566272.0609999998, 1122323.449], [2566295.431, 1122333.439]]]}, "properties": {"EGRID": "CH207845318358", "NUMERO": "DP 1003", "NO_COM_FED": 5402, "GENRE_TXT": "DP communal", "SUPERFICIE_MO": 1334, "SUPERFICIE_RF": null}}, {"type": "Feature", "geometry": {"type": "Polygon", "coordinates": [[[2566367.365, 1122362.148], [2566365.319083954, 1122360.393455876], [2566363.557934668, 1122358.3532228644], [2566362.121, 1122356.073], [2566360.425034488, 1122352.420093216], [2566359.335, 1122348.543], [2566359.0250019026, 1122344.3876560235], [2566359.381, 1122340.236], [2566360.304, 1122336.312], [2566360.839, 1122333.87], [2566366.21, 1122312.05], [2566396.714, 1122321.47], [2566384.042, 1122371.748], [2566383.517, 1122371.5219999999], [2566378.6595251723, 1122369.2992636343], [2566373.975, 1122366.732], [2566370.5811571153, 1122364.5681089594], [2566367.365, 1122362.148]]]}, "properties": {"EGRID": "CH467783455647", "NUMERO": "81", "NO_COM_FED": 5402, "GENRE_TXT": "parcelle priv\u00e9e", "SUPERFICIE_MO": 1487, "SUPERFICIE_RF": 1487}}, {"type": "Feature", "geometry": {"type": "Polygon", "coordinates": [[[2566333.818, 1122498.841], [2566341.168, 1122495.681], [2566419.6859999998, 1122529.582], [2566396.896, 1122581.972], [2566325.277, 1122550.811], [2566333.818, 1122498.841]]]}, "properties": {"EGRID": "CH267983458730", "NUMERO": "34", "NO_COM_FED": 5402, "GENRE_TXT": "parcelle priv\u00e9e", "SUPERFICIE_MO": 4842, "SUPERFICIE_RF": 4844}}, {"type": "Feature", "geometry": {"type": "Polygon", "coordinates": [[[2566480.566, 1122479.602], [2566460.856, 1122471.072], [2566428.477, 1122457.111], [2566443.867, 1122420.351], [2566496.6859999998, 1122442.632], [2566480.566, 1122479.602]]]}, "properties": {"EGRID": "CH557283794541", "NUMERO": "39", "NO_COM_FED": 5402, "GENRE_TXT": "parcelle priv\u00e9e", "SUPERFICIE_MO": 2286, "SUPERFICIE_RF": 2284}}, {"type": "Feature", "geometry": {"type": "Polygon", "coordinates": [[[2566551.244, 1122530.763], [2566545.104, 1122528.013], [2566528.354, 1122520.803], [2566555.5439999998, 1122467.953], [2566576.504, 1122476.993], [2566578.004, 1122477.653], [2566578.524, 1122477.833], [2566551.244, 1122530.763]]]}, "properties": {"EGRID": "CH967783455671", "NUMERO": "44", "NO_COM_FED": 5402, "GENRE_TXT": "parcelle priv\u00e9e", "SUPERFICIE_MO": 1482, "SUPERFICIE_RF": 1479}}, {"type": "Feature", "geometry": {"type": "Polygon", "coordinates": [[[2566749.334, 1122198.813], [2566754.405, 1122175.823], [2566779.364, 1122184.833], [2566773.234, 1122207.253], [2566766.604, 1122204.943], [2566749.334, 1122198.813]]]}, "properties": {"EGRID": "CH367983450380", "NUMERO": "5221", "NO_COM_FED": 5402, "GENRE_TXT": "parcelle priv\u00e9e", "SUPERFICIE_MO": 604, "SUPERFICIE_RF": 605}}, {"type": "Feature", "geometry": {"type": "Polygon", "coordinates": [[[2566648.033, 1122421.923], [2566652.444, 1122407.743], [2566655.984, 1122396.233], [2566659.824, 1122383.813], [2566659.964, 1122383.343], [2566664.714, 1122384.803], [2566664.5439999998, 1122385.273], [2566660.804, 1122397.713], [2566656.913, 1122410.163], [2566652.883, 1122423.3530000001], [2566648.033, 1122421.923]]]}, "properties": {"EGRID": "CH556883774558", "NUMERO": "470", "NO_COM_FED": 5402, "GENRE_TXT": "parcelle priv\u00e9e", "SUPERFICIE_MO": 202, "SUPERFICIE_RF": 202}}, {"type": "Feature", "geometry": {"type": "Polygon", "coordinates": [[[2566684.413, 1122432.654], [2566674.512, 1122467.134], [2566660.193, 1122456.594], [2566655.123, 1122454.354], [2566619.184, 1122438.713], [2566621.654, 1122431.503], [2566626.954, 1122415.693], [2566638.424, 1122419.133], [2566643.254, 1122420.543], [2566648.033, 1122421.923], [2566652.883, 1122423.3530000001], [2566657.633, 1122424.753], [2566662.453, 1122426.203], [2566667.013, 1122427.494], [2566675.763, 1122430.034], [2566684.413, 1122432.654]]]}, "properties": {"EGRID": "CH267883456381", "NUMERO": "497", "NO_COM_FED": 5402, "GENRE_TXT": "parcelle priv\u00e9e", "SUPERFICIE_MO": 1733, "SUPERFICIE_RF": 1732}}, {"type": "Feature", "geometry": {"type": "Polygon", "coordinates": [[[2566754.643, 1122581.434], [2566749.42, 1122570.422], [2566729.364, 1122528.134], [2566742.783, 1122517.884], [2566758.614, 1122550.084], [2566764.63, 1122562.431], [2566769.804, 1122573.053], [2566760.249, 1122576.933], [2566754.643, 1122581.434]]]}, "properties": {"EGRID": "CH198377584561", "NUMERO": "68", "NO_COM_FED": 5402, "GENRE_TXT": "parcelle priv\u00e9e", "SUPERFICIE_MO": 1010, "SUPERFICIE_RF": 1008}}, {"type": "Feature", "geometry": {"type": "Polygon", "coordinates": [[[2566749.482, 1122414.944], [2566780.041, 1122424.065], [2566774.961, 1122441.025], [2566792.972, 1122467.045], [2566762.022, 1122488.674], [2566747.613, 1122498.614], [2566743.483, 1122501.384], [2566738.073, 1122504.354], [2566735.2286724225, 1122505.7361398286], [2566732.263, 1122506.834], [2566730.94598808, 1122507.0685084304], [2566729.608375377, 1122507.0860257486], [2566728.2856739545, 1122506.8860868905], [2566727.013, 1122506.474], [2566726.0531848725, 1122506.0034849404], [2566725.1731819897, 1122505.3966699548], [2566724.392204943, 1122504.6668039714], [2566723.7273052386, 1122503.82982256], [2566723.193, 1122502.904], [2566739.942, 1122447.084], [2566749.482, 1122414.944]]]}, "properties": {"EGRID": "CH127831834535", "NUMERO": "107", "NO_COM_FED": 5402, "GENRE_TXT": "parcelle priv\u00e9e", "SUPERFICIE_MO": 3350, "SUPERFICIE_RF": 3359}}, {"type": "Feature", "geometry": {"type": "Polygon", "coordinates": [[[2566753.874, 1122246.343], [2566766.604, 1122204.943], [2566773.234, 1122207.253], [2566797.773, 1122215.904], [2566787.523, 1122250.154], [2566756.894, 1122246.723], [2566753.874, 1122246.343]]]}, "properties": {"EGRID": "CH998379834584", "NUMERO": "165", "NO_COM_FED": 5402, "GENRE_TXT": "parcelle priv\u00e9e", "SUPERFICIE_MO": 1312, "SUPERFICIE_RF": 1309}}, {"type": "Feature", "geometry": {"type": "Polygon", "coordinates": [[[2566797.604, 1122542.364], [2566798.679, 1122544.543], [2566781.022, 1122553.819], [2566764.63, 1122562.431], [2566758.614, 1122550.084], [2566742.783, 1122517.884], [2566750.423, 1122512.504], [2566758.143, 1122507.014], [2566774.423, 1122495.524], [2566797.604, 1122542.364]]]}, "properties": {"EGRID": "CH574594888356", "NUMERO": "69", "NO_COM_FED": 5402, "GENRE_TXT": "parcelle priv\u00e9e", "SUPERFICIE_MO": 2000, "SUPERFICIE_RF": 2001}}, {"type": "Feature", "geometry": {"type": "Polygon", "coordinates": [[[2566319.882, 1122179.919], [2566316.381, 1122192.809], [2566303.757, 1122188.001], [2566317.9560000002, 1122135.028], [2566331.116, 1122138.48], [2566328.722, 1122147.398], [2566328.002, 1122150.048], [2566319.882, 1122179.919]]]}, "properties": {"EGRID": "CH509045858352", "NUMERO": "6497", "NO_COM_FED": 5402, "GENRE_TXT": "parcelle priv\u00e9e", "SUPERFICIE_MO": 752, "SUPERFICIE_RF": 752}}, {"type": "Feature", "geometry": {"type": "Polygon", "coordinates": [[[2566341.033, 1122101.538], [2566331.116, 1122138.48], [2566317.9560000002, 1122135.028], [2566317.926, 1122127.876], [2566344.525, 1122029.344], [2566355.013, 1122023.39], [2566363.409, 1122022.849], [2566362.513, 1122027.908], [2566359.943, 1122031.598], [2566352.483, 1122059.008], [2566347.153, 1122078.758], [2566341.033, 1122101.538]]]}, "properties": {"EGRID": "CH514585839049", "NUMERO": "6498", "NO_COM_FED": 5402, "GENRE_TXT": "parcelle priv\u00e9e", "SUPERFICIE_MO": 1788, "SUPERFICIE_RF": 1788}}, {"type": "Feature", "geometry": {"type": "Polygon", "coordinates": [[[2566408.271, 1122147.583], [2566445.348, 1122158.265], [2566435.075, 1122193.835], [2566399.241, 1122183.019], [2566408.271, 1122147.583]]]}, "properties": {"EGRID": "CH844583775665", "NUMERO": "6317", "NO_COM_FED": 5402, "GENRE_TXT": "parcelle priv\u00e9e", "SUPERFICIE_MO": 1398, "SUPERFICIE_RF": 1398}}, {"type": "Feature", "geometry": {"type": "Polygon", "coordinates": [[[2566470.909, 1122204.65], [2566455.769, 1122251.96], [2566431.729, 1122244.36], [2566436.949, 1122227.37], [2566446.23, 1122197.2], [2566470.909, 1122204.65]]]}, "properties": {"EGRID": "CH207845828302", "NUMERO": "6305", "NO_COM_FED": 5402, "GENRE_TXT": "parcelle priv\u00e9e", "SUPERFICIE_MO": 1262, "SUPERFICIE_RF": 1261}}, {"type": "Feature", "geometry": {"type": "Polygon", "coordinates": [[[2566261.236, 1122893.129], [2566254.247, 1122919.208], [2566255.727, 1122922.068], [2566250.407, 1122939.358], [2566245.508, 1122949.278], [2566245.2939999998, 1122950.004], [2566243.176, 1122957.175], [2566227.398, 1122942.508], [2566235.997, 1122912.758], [2566238.766, 1122902.648], [2566237.076, 1122899.258], [2566239.046, 1122892.649], [2566241.586, 1122891.599], [2566253.234, 1122844.389], [2566262.973, 1122800.679], [2566276.65, 1122729.26], [2566287.738, 1122660.571], [2566305.878, 1122547.411], [2566313.158, 1122501.61], [2566333.818, 1122498.841], [2566325.277, 1122550.811], [2566319.467, 1122587.301], [2566306.838, 1122666.381], [2566304.6890000002, 1122680.481], [2566301.289, 1122700.94], [2566296.11, 1122732.43], [2566290.571, 1122761.64], [2566278.313, 1122820.369], [2566271.904, 1122848.779], [2566261.236, 1122893.129]]]}, "properties": {"EGRID": "CH674579728311", "NUMERO": "DP 1002", "NO_COM_FED": 5402, "GENRE_TXT": "DP communal", "SUPERFICIE_MO": 9048, "SUPERFICIE_RF": null}}, {"type": "Feature", "geometry": {"type": "Polygon", "coordinates": [[[2566419.6859999998, 1122529.582], [2566508.275, 1122567.832], [2566510.175, 1122573.042], [2566501.9359999998, 1122586.962], [2566473.556, 1122595.832], [2566447.586, 1122604.032], [2566396.896, 1122581.972], [2566419.6859999998, 1122529.582]]]}, "properties": {"EGRID": "CH114551837719", "NUMERO": "6368", "NO_COM_FED": 5402, "GENRE_TXT": "parcelle priv\u00e9e", "SUPERFICIE_MO": 4843, "SUPERFICIE_RF": 4844}}, {"type": "Feature", "geometry": {"type": "Polygon", "coordinates": [[[2566596.977, 1122635.602], [2566589.077, 1122641.902], [2566583.578, 1122646.712], [2566557.207, 1122625.092], [2566569.926, 1122610.082], [2566537.625, 1122582.642], [2566568.855, 1122572.053], [2566618.136, 1122612.843], [2566596.977, 1122635.602]]]}, "properties": {"EGRID": "CH144583786302", "NUMERO": "54", "NO_COM_FED": 5402, "GENRE_TXT": "parcelle priv\u00e9e", "SUPERFICIE_MO": 2747, "SUPERFICIE_RF": 2742}}, {"type": "Feature", "geometry": {"type": "Polygon", "coordinates": [[[2566555.935, 1122569.903], [2566577.695, 1122562.903], [2566598.645, 1122555.983], [2566604.304, 1122552.483], [2566649.714, 1122537.663], [2566653.994, 1122536.273], [2566681.7939999998, 1122527.124], [2566692.194, 1122531.494], [2566661.384, 1122541.663], [2566655.624, 1122543.653], [2566631.154, 1122551.803], [2566597.585, 1122562.693], [2566568.855, 1122572.053], [2566537.625, 1122582.642], [2566507.6859999998, 1122592.552], [2566492.116, 1122597.792], [2566426.637, 1122619.082], [2566400.817, 1122627.381], [2566395.097, 1122620.961], [2566447.586, 1122604.032], [2566473.556, 1122595.832], [2566501.9359999998, 1122586.962], [2566540.005, 1122575.023], [2566555.935, 1122569.903]]]}, "properties": {"EGRID": "CH374579878368", "NUMERO": "DP 1013", "NO_COM_FED": 5402, "GENRE_TXT": "DP communal", "SUPERFICIE_MO": 2191, "SUPERFICIE_RF": null}}, {"type": "Feature", "geometry": {"type": "Polygon", "coordinates": [[[2566588.766, 1122135.247], [2566628.573, 1122147.312], [2566612.593, 1122200.039], [2566590.247, 1122193.531], [2566572.488, 1122188.371], [2566585.735, 1122145.139], [2566588.766, 1122135.247]]]}, "properties": {"EGRID": "CH138393454158", "NUMERO": "6610", "NO_COM_FED": 5402, "GENRE_TXT": "parcelle priv\u00e9e", "SUPERFICIE_MO": 2306, "SUPERFICIE_RF": 2308}}, {"type": "Feature", "geometry": {"type": "Polygon", "coordinates": [[[2566650.402, 1122147.163], [2566642.7, 1122172.577], [2566636.9189999998, 1122170.825], [2566644.622, 1122145.411], [2566650.402, 1122147.163]]]}, "properties": {"EGRID": "CH200845098374", "NUMERO": "6776", "NO_COM_FED": 5402, "GENRE_TXT": "parcelle priv\u00e9e", "SUPERFICIE_MO": 160, "SUPERFICIE_RF": 160}}, {"type": "Feature", "geometry": {"type": "Polygon", "coordinates": [[[2566680.714, 1122198.613], [2566692.443, 1122201.684], [2566687.165, 1122221.839], [2566682.705, 1122220.462], [2566651.716, 1122211.492], [2566656.846, 1122192.362], [2566680.714, 1122198.613]]]}, "properties": {"EGRID": "CH620766834512", "NUMERO": "6753", "NO_COM_FED": 5402, "GENRE_TXT": "parcelle priv\u00e9e", "SUPERFICIE_MO": 748, "SUPERFICIE_RF": 747}}, {"type": "Feature", "geometry": {"type": "Polygon", "coordinates": [[[2566704.558, 1122204.857], [2566692.443, 1122201.684], [2566680.714, 1122198.613], [2566685.982, 1122178.496], [2566700.546, 1122181.712], [2566709.773, 1122184.943], [2566704.558, 1122204.857]]]}, "properties": {"EGRID": "CH656683074594", "NUMERO": "6756", "NO_COM_FED": 5402, "GENRE_TXT": "parcelle priv\u00e9e", "SUPERFICIE_MO": 519, "SUPERFICIE_RF": 519}}, {"type": "Feature", "geometry": {"type": "Polygon", "coordinates": [[[2566705.716, 1122158.702], [2566721.226, 1122085.672], [2566751.126, 1122083.872], [2566741.086, 1122125.833], [2566723.626, 1122121.732], [2566714.426, 1122161.732], [2566705.716, 1122158.702]]]}, "properties": {"EGRID": "CH498379034509", "NUMERO": "172", "NO_COM_FED": 5402, "GENRE_TXT": "parcelle priv\u00e9e", "SUPERFICIE_MO": 1484, "SUPERFICIE_RF": 1479}}, {"type": "Feature", "geometry": {"type": "Polygon", "coordinates": [[[2566604.304, 1122552.483], [2566598.645, 1122555.983], [2566577.695, 1122562.903], [2566573.555, 1122557.883], [2566582.304, 1122540.813], [2566588.954, 1122527.983], [2566592.773, 1122520.533], [2566594.023, 1122521.183], [2566599.693, 1122524.163], [2566614.764, 1122532.063], [2566612.964, 1122535.623], [2566610.934, 1122539.613], [2566608.8140000002, 1122543.623], [2566607.0439999998, 1122547.043], [2566604.304, 1122552.483]]]}, "properties": {"EGRID": "CH955683774552", "NUMERO": "46", "NO_COM_FED": 5402, "GENRE_TXT": "parcelle priv\u00e9e", "SUPERFICIE_MO": 913, "SUPERFICIE_RF": 912}}, {"type": "Feature", "geometry": {"type": "Polygon", "coordinates": [[[2566650.404, 1122380.343], [2566650.264, 1122380.833], [2566646.884, 1122391.923], [2566643.154, 1122403.863], [2566638.424, 1122419.133], [2566626.954, 1122415.693], [2566639.914, 1122377.053], [2566650.404, 1122380.343]]]}, "properties": {"EGRID": "CH283083457836", "NUMERO": "467", "NO_COM_FED": 5402, "GENRE_TXT": "parcelle priv\u00e9e", "SUPERFICIE_MO": 468, "SUPERFICIE_RF": 469}}, {"type": "Feature", "geometry": {"type": "Polygon", "coordinates": [[[2566662.453, 1122426.203], [2566657.633, 1122424.753], [2566661.713, 1122411.6030000001], [2566665.193, 1122400.093], [2566669.384, 1122386.753], [2566669.554, 1122386.283], [2566674.303, 1122387.723], [2566674.143, 1122388.183], [2566670.343, 1122400.613], [2566666.473, 1122413.033], [2566662.453, 1122426.203]]]}, "properties": {"EGRID": "CH858383794530", "NUMERO": "472", "NO_COM_FED": 5402, "GENRE_TXT": "parcelle priv\u00e9e", "SUPERFICIE_MO": 202, "SUPERFICIE_RF": 201}}, {"type": "Feature", "geometry": {"type": "Polygon", "coordinates": [[[2566655.624, 1122543.653], [2566661.384, 1122541.663], [2566692.194, 1122531.494], [2566697.334, 1122529.814], [2566698.187288632, 1122529.5998355106], [2566699.0621461887, 1122529.5071415287], [2566699.9413683433, 1122529.5377409076], [2566700.807664938, 1122529.691031902], [2566701.644, 1122529.964], [2566702.625436948, 1122530.4540500897], [2566703.5236870083, 1122531.0837439862], [2566704.3190287147, 1122531.8392564899], [2566704.994, 1122532.704], [2566705.55642045, 1122533.6430585862], [2566705.968093637, 1122534.6572937556], [2566706.2192697246, 1122535.7226849347], [2566706.304, 1122536.814], [2566706.1378442897, 1122538.2289464578], [2566705.7789095123, 1122539.6076585467], [2566705.234, 1122540.924], [2566701.504, 1122548.754], [2566698.8140000002, 1122554.174], [2566697.315, 1122557.314], [2566692.745, 1122569.063], [2566661.284, 1122547.573], [2566655.624, 1122543.653]]]}, "properties": {"EGRID": "CH114583837920", "NUMERO": "59", "NO_COM_FED": 5402, "GENRE_TXT": "parcelle priv\u00e9e", "SUPERFICIE_MO": 1007, "SUPERFICIE_RF": 1005}}, {"type": "Feature", "geometry": {"type": "Polygon", "coordinates": [[[2566683.924, 1122363.363], [2566690.964, 1122338.803], [2566718.613, 1122346.774], [2566711.283, 1122371.934], [2566683.924, 1122363.363]]]}, "properties": {"EGRID": "CH214563837870", "NUMERO": "5463", "NO_COM_FED": 5402, "GENRE_TXT": "parcelle priv\u00e9e", "SUPERFICIE_MO": 743, "SUPERFICIE_RF": 744}}, {"type": "Feature", "geometry": {"type": "Polygon", "coordinates": [[[2566729.613, 1122317.024], [2566720.333, 1122344.054], [2566687.704, 1122334.553], [2566695.624, 1122311.613], [2566702.114, 1122292.463], [2566710.5640000002, 1122295.463], [2566734.233, 1122303.663], [2566729.613, 1122317.024]]]}, "properties": {"EGRID": "CH538377456938", "NUMERO": "102", "NO_COM_FED": 5402, "GENRE_TXT": "parcelle priv\u00e9e", "SUPERFICIE_MO": 1479, "SUPERFICIE_RF": 1480}}, {"type": "Feature", "geometry": {"type": "Polygon", "coordinates": [[[2566728.412, 1122445.334], [2566684.413, 1122432.654], [2566675.763, 1122430.034], [2566686.673, 1122391.564], [2566704.003, 1122396.814], [2566739.292, 1122407.654], [2566728.412, 1122445.334]]]}, "properties": {"EGRID": "CH556983774531", "NUMERO": "97", "NO_COM_FED": 5402, "GENRE_TXT": "parcelle priv\u00e9e", "SUPERFICIE_MO": 2179, "SUPERFICIE_RF": 2182}}, {"type": "Feature", "geometry": {"type": "Polygon", "coordinates": [[[2566669.554, 1122386.283], [2566664.714, 1122384.803], [2566659.964, 1122383.343], [2566655.154, 1122381.833], [2566650.404, 1122380.343], [2566639.914, 1122377.053], [2566647.774, 1122354.363], [2566657.764, 1122325.833], [2566687.704, 1122334.553], [2566720.333, 1122344.054], [2566755.652, 1122354.254], [2566754.682, 1122357.284], [2566718.613, 1122346.774], [2566690.964, 1122338.803], [2566683.924, 1122363.363], [2566676.723, 1122388.453], [2566674.303, 1122387.723], [2566669.554, 1122386.283]]]}, "properties": {"EGRID": "CH674577588371", "NUMERO": "98", "NO_COM_FED": 5402, "GENRE_TXT": "parcelle priv\u00e9e", "SUPERFICIE_MO": 2228, "SUPERFICIE_RF": 2226}}, {"type": "Feature", "geometry": {"type": "Polygon", "coordinates": [[[2566753.874, 1122246.343], [2566756.894, 1122246.723], [2566749.488, 1122268.356], [2566742.083, 1122289.983], [2566737.073, 1122304.664], [2566734.233, 1122303.663], [2566710.5640000002, 1122295.463], [2566728.484, 1122243.513], [2566739.114, 1122244.713], [2566753.874, 1122246.343]]]}, "properties": {"EGRID": "CH544583776858", "NUMERO": "105", "NO_COM_FED": 5402, "GENRE_TXT": "parcelle priv\u00e9e", "SUPERFICIE_MO": 1626, "SUPERFICIE_RF": 1626}}, {"type": "Feature", "geometry": {"type": "Polygon", "coordinates": [[[2566749.488, 1122268.356], [2566756.894, 1122246.723], [2566787.523, 1122250.154], [2566779.788, 1122275.309], [2566749.488, 1122268.356]]]}, "properties": {"EGRID": "CH653183074569", "NUMERO": "6738", "NO_COM_FED": 5402, "GENRE_TXT": "parcelle priv\u00e9e", "SUPERFICIE_MO": 752, "SUPERFICIE_RF": 752}}]}