{"type": "FeatureCollection", "coordinate_system": "EPSG:2056", "features": [{"type": "Feature", "properties": {"egrid": "CH974588878374", "numero": "703", "kind": "parcelle priv\u00e9e", "overlap_m2": 1814.2341409140283, "parcel_area_m2": 2172.8761000069258, "overlap_fraction": 0.834945969035347, "boundary_within10m": true, "drawing_index": 5558}, "geometry": {"type": "Polygon", "coordinates": [[[2527357.189146026, 1151394.2688380205], [2527379.216747287, 1151413.6047837092], [2527395.724704256, 1151427.3812754645], [2527404.2355774315, 1151433.6038107486], [2527405.9710502285, 1151432.7645929342], [2527409.184530782, 1151429.564619845], [2527418.217661409, 1151418.5340960864], [2527386.882, 1151391.513], [2527380.552, 1151385.953], [2527371.118, 1151377.867], [2527373.122, 1151375.283], [2527357.222, 1151362.872], [2527342.8874752424, 1151381.2044732596], [2527357.189146026, 1151394.2688380205]]]}}, {"type": "Feature", "properties": {"egrid": "CH258283884540", "numero": "704", "kind": "parcelle priv\u00e9e", "overlap_m2": 6627.10423148314, "parcel_area_m2": 6783.511140477275, "overlap_fraction": 0.9769430747948723, "boundary_within10m": true, "drawing_index": 5558}, "geometry": {"type": "Polygon", "coordinates": [[[2527419.155309635, 1151417.3891164039], [2527447.0406996794, 1151379.0828404028], [2527453.9630444758, 1151368.8088825445], [2527466.491, 1151349.386], [2527475.0854679067, 1151337.2488609217], [2527482.0221999516, 1151325.9365104593], [2527484.7352999267, 1151319.8248913877], [2527479.7327531227, 1151316.8001262033], [2527467.6770700947, 1151311.2235009284], [2527434.409790314, 1151297.0630452076], [2527408.921, 1151329.104], [2527390.412, 1151352.993], [2527373.122, 1151375.283], [2527371.118, 1151377.867], [2527380.552, 1151385.953], [2527386.882, 1151391.513], [2527418.217661409, 1151418.5340960864], [2527419.155309635, 1151417.3891164039]]]}}, {"type": "Feature", "properties": {"egrid": "CH628883834597", "numero": "1348", "kind": "parcelle priv\u00e9e", "overlap_m2": 1024.8002487220242, "parcel_area_m2": 1195.4236099929615, "overlap_fraction": 0.8572695404000412, "boundary_within10m": true, "drawing_index": 5558}, "geometry": {"type": "Polygon", "coordinates": [[[2527332.119339973, 1151371.367940936], [2527342.8874752424, 1151381.2044732596], [2527357.222, 1151362.872], [2527357.752, 1151362.212], [2527332.352, 1151337.2820000001], [2527328.142, 1151333.071], [2527327.982, 1151332.931], [2527312.4521024833, 1151352.4048478222], [2527332.119339973, 1151371.367940936]]]}}, {"type": "Feature", "properties": {"egrid": "CH538388458322", "numero": "DP 1063", "kind": "DP communal", "overlap_m2": 9.511653175839442, "parcel_area_m2": 1275.608780017667, "overlap_fraction": 0.007456559820564818, "boundary_within10m": true, "drawing_index": 5558}, "geometry": {"type": "Polygon", "coordinates": [[[2527473.6484592236, 1151339.5923197346], [2527475.0854679067, 1151337.2488609217], [2527466.491, 1151349.386], [2527453.9630444758, 1151368.8088825445], [2527473.6484592236, 1151339.5923197346]]]}}, {"type": "Feature", "properties": {"egrid": "CH157683884542", "numero": "711", "kind": "parcelle priv\u00e9e", "overlap_m2": 1195.0938688413767, "parcel_area_m2": 1217.8600070456075, "overlap_fraction": 0.9813064407464541, "boundary_within10m": true, "drawing_index": 5558}, "geometry": {"type": "Polygon", "coordinates": [[[2527376.3301916267, 1151272.666981874], [2527375.222, 1151274.073], [2527374.282, 1151275.293], [2527371.402, 1151278.833], [2527358.612, 1151294.832], [2527387.942, 1151316.8530000001], [2527409.431, 1151288.774], [2527409.6210133047, 1151288.4668973223], [2527409.7594332867, 1151288.1333451986], [2527409.8426922313, 1151287.7819407894], [2527409.8686441756, 1151287.4217413901], [2527409.8366202195, 1151287.0620309832], [2527409.747445767, 1151286.7120809474], [2527409.737821122, 1151286.689950355], [2527376.3301916267, 1151272.666981874]]]}}, {"type": "Feature", "properties": {"egrid": "CH544583888310", "numero": "DP 1064", "kind": "DP communal", "overlap_m2": 16.34220518329644, "parcel_area_m2": 1334.7533081614183, "overlap_fraction": 0.01224361466899627, "boundary_within10m": true, "drawing_index": 5558}, "geometry": {"type": "Polygon", "coordinates": [[[2527368.706347887, 1151267.6799449946], [2527360.5487487237, 1151260.9051280764], [2527353.916539743, 1151254.7377058382], [2527354.902, 1151256.352], [2527355.802, 1151257.332], [2527362.592, 1151264.483], [2527370.1765579395, 1151268.7092213396], [2527368.706347887, 1151267.6799449946]]]}}, {"type": "Feature", "properties": {"egrid": "CH568883458377", "numero": "713", "kind": "parcelle priv\u00e9e", "overlap_m2": 1034.88590550039, "parcel_area_m2": 1034.88590550039, "overlap_fraction": 1.0, "boundary_within10m": false, "drawing_index": 5558}, "geometry": {"type": "Polygon", "coordinates": [[[2527306.783, 1151315.431], [2527327.982, 1151332.931], [2527338.102, 1151320.382], [2527349.832, 1151305.842], [2527351.852, 1151303.372], [2527331.632, 1151286.012], [2527306.783, 1151315.431]]]}}, {"type": "Feature", "properties": {"egrid": "CH558383884508", "numero": "716", "kind": "parcelle priv\u00e9e", "overlap_m2": 1083.1552716979356, "parcel_area_m2": 1108.350660005451, "overlap_fraction": 0.9772676741967282, "boundary_within10m": true, "drawing_index": 5558}, "geometry": {"type": "Polygon", "coordinates": [[[2527352.955305858, 1151253.8438354465], [2527348.2735963115, 1151248.5219227797], [2527340.603384622, 1151234.5088015702], [2527339.112, 1151236.352], [2527311.013, 1151268.501], [2527331.632, 1151286.012], [2527355.802, 1151257.332], [2527354.902, 1151256.352], [2527353.916539743, 1151254.7377058382], [2527352.955305858, 1151253.8438354465]]]}}, {"type": "Feature", "properties": {"egrid": "CH788383458874", "numero": "707", "kind": "parcelle priv\u00e9e", "overlap_m2": 608.9565105034723, "parcel_area_m2": 608.9565105034723, "overlap_fraction": 1.0, "boundary_within10m": false, "drawing_index": 5558}, "geometry": {"type": "Polygon", "coordinates": [[[2527392.822, 1151316.804], [2527380.622, 1151332.743], [2527374.462, 1151340.693], [2527390.412, 1151352.993], [2527408.921, 1151329.104], [2527392.822, 1151316.804]]]}}, {"type": "Feature", "properties": {"egrid": "CH250083884523", "numero": "718", "kind": "parcelle priv\u00e9e", "overlap_m2": 259.0386257239059, "parcel_area_m2": 2032.1571554950906, "overlap_fraction": 0.12746978009227677, "boundary_within10m": true, "drawing_index": 5558}, "geometry": {"type": "Polygon", "coordinates": [[[2527338.974162729, 1151231.5322886936], [2527297.92338525, 1151275.3602198844], [2527301.453, 1151279.52], [2527311.013, 1151268.501], [2527339.112, 1151236.352], [2527340.603384622, 1151234.5088015702], [2527338.974162729, 1151231.5322886936]]]}}, {"type": "Feature", "properties": {"egrid": "CH338388458489", "numero": "708", "kind": "parcelle priv\u00e9e", "overlap_m2": 789.2912236824645, "parcel_area_m2": 807.8020550016554, "overlap_fraction": 0.9770849415341573, "boundary_within10m": true, "drawing_index": 5558}, "geometry": {"type": "Polygon", "coordinates": [[[2527431.5386821604, 1151295.8409374745], [2527414.2943446063, 1151288.602566909], [2527392.822, 1151316.804], [2527408.921, 1151329.104], [2527434.409790314, 1151297.0630452076], [2527431.5386821604, 1151295.8409374745]]]}}, {"type": "Feature", "properties": {"egrid": "CH168883457626", "numero": "710", "kind": "parcelle priv\u00e9e", "overlap_m2": 1211.8748850015993, "parcel_area_m2": 1211.874885001599, "overlap_fraction": 1.0000000000000002, "boundary_within10m": false, "drawing_index": 5558}, "geometry": {"type": "Polygon", "coordinates": [[[2527351.852, 1151303.372], [2527349.832, 1151305.842], [2527338.102, 1151320.382], [2527368.082, 1151342.833], [2527387.942, 1151316.8530000001], [2527358.612, 1151294.832], [2527351.852, 1151303.372]]]}}, {"type": "Feature", "properties": {"egrid": "CH438388452616", "numero": "712", "kind": "parcelle priv\u00e9e", "overlap_m2": 1316.3507003368172, "parcel_area_m2": 1517.5951649891147, "overlap_fraction": 0.8673925238462783, "boundary_within10m": true, "drawing_index": 5558}, "geometry": {"type": "Polygon", "coordinates": [[[2527294.9090750967, 1151335.4899119039], [2527312.4521024833, 1151352.4048478222], [2527327.982, 1151332.931], [2527306.783, 1151315.431], [2527305.353, 1151314.271], [2527285.383, 1151297.76], [2527282.853, 1151295.84], [2527270.11023499, 1151310.2979341408], [2527294.9090750967, 1151335.4899119039]]]}}, {"type": "Feature", "properties": {"egrid": "CH228985834591", "numero": "715", "kind": "parcelle priv\u00e9e", "overlap_m2": 1059.2580650010307, "parcel_area_m2": 1059.2580650010307, "overlap_fraction": 1.0, "boundary_within10m": true, "drawing_index": 5558}, "geometry": {"type": "Polygon", "coordinates": [[[2527305.353, 1151314.271], [2527306.783, 1151315.431], [2527331.632, 1151286.012], [2527311.013, 1151268.501], [2527301.453, 1151279.52], [2527285.383, 1151297.76], [2527305.353, 1151314.271]]]}}, {"type": "Feature", "properties": {"egrid": "CH728883834563", "numero": "709", "kind": "parcelle priv\u00e9e", "overlap_m2": 1052.3761656142533, "parcel_area_m2": 1056.7649224564352, "overlap_fraction": 0.9958469885317727, "boundary_within10m": true, "drawing_index": 5558}, "geometry": {"type": "Polygon", "coordinates": [[[2527409.737821122, 1151286.689950355], [2527409.747445767, 1151286.7120809474], [2527409.8366202195, 1151287.0620309832], [2527409.8686441756, 1151287.4217413901], [2527409.8426922313, 1151287.7819407894], [2527409.7594332867, 1151288.1333451986], [2527409.6210133047, 1151288.4668973223], [2527409.431, 1151288.774], [2527387.942, 1151316.8530000001], [2527368.082, 1151342.833], [2527338.102, 1151320.382], [2527327.982, 1151332.931], [2527328.142, 1151333.071], [2527332.352, 1151337.2820000001], [2527357.752, 1151362.212], [2527374.462, 1151340.693], [2527380.622, 1151332.743], [2527392.822, 1151316.804], [2527414.2943446063, 1151288.602566909], [2527409.737821122, 1151286.689950355]]]}}, {"type": "Feature", "properties": {"egrid": "CH344583888477", "numero": "714", "kind": "parcelle priv\u00e9e", "overlap_m2": 981.817006775276, "parcel_area_m2": 985.1140399956671, "overlap_fraction": 0.9966531456394575, "boundary_within10m": true, "drawing_index": 5558}, "geometry": {"type": "Polygon", "coordinates": [[[2527375.080526328, 1151272.1424305257], [2527370.1765579395, 1151268.7092213396], [2527362.592, 1151264.483], [2527355.802, 1151257.332], [2527331.632, 1151286.012], [2527351.852, 1151303.372], [2527358.612, 1151294.832], [2527371.402, 1151278.833], [2527374.282, 1151275.293], [2527375.222, 1151274.073], [2527376.3301916267, 1151272.666981874], [2527375.080526328, 1151272.1424305257]]]}}, {"type": "Feature", "properties": {"egrid": "CH638388458286", "numero": "706", "kind": "parcelle priv\u00e9e", "overlap_m2": 567.213885002658, "parcel_area_m2": 567.213885002658, "overlap_fraction": 1.0, "boundary_within10m": false, "drawing_index": 5558}, "geometry": {"type": "Polygon", "coordinates": [[[2527390.412, 1151352.993], [2527374.462, 1151340.693], [2527357.752, 1151362.212], [2527357.222, 1151362.872], [2527373.122, 1151375.283], [2527390.412, 1151352.993]]]}}, {"type": "Feature", "properties": {"egrid": "CH153983884571", "numero": "717", "kind": "parcelle priv\u00e9e", "overlap_m2": 207.0379163467707, "parcel_area_m2": 3293.9198255121746, "overlap_fraction": 0.06285457063745568, "boundary_within10m": true, "drawing_index": 5558}, "geometry": {"type": "Polygon", "coordinates": [[[2527270.11023499, 1151310.2979341408], [2527282.853, 1151295.84], [2527285.383, 1151297.76], [2527301.453, 1151279.52], [2527297.92338525, 1151275.3602198844], [2527267.593822237, 1151307.7416285302], [2527270.11023499, 1151310.2979341408]]]}}, {"type": "Feature", "properties": {"egrid": "CH153783884528", "numero": "140", "kind": "parcelle priv\u00e9e", "overlap_m2": 913.6638722098203, "parcel_area_m2": 1054.7534449893528, "overlap_fraction": 0.8662345466139181, "boundary_within10m": true, "drawing_index": 5761}, "geometry": {"type": "Polygon", "coordinates": [[[2527338.9641743745, 1151131.7107685767], [2527322.7772786194, 1151120.0585698793], [2527315.20087763, 1151113.6831950154], [2527315.5763846003, 1151111.7298975727], [2527317.1100560273, 1151108.4535037847], [2527322.13671199, 1151099.750135486], [2527327.250484996, 1151091.2105067447], [2527329.4210145255, 1151086.472034186], [2527326.4612896093, 1151084.3237146558], [2527324.0920367073, 1151083.078865843], [2527310.793, 1151107.321], [2527298.833, 1151129.231], [2527321.933, 1151140.721], [2527323.473, 1151141.471], [2527327.573, 1151143.431], [2527331.893, 1151145.462], [2527332.643, 1151145.802], [2527332.853, 1151145.452], [2527341.4919341793, 1151133.5472049261], [2527338.9641743745, 1151131.7107685767]]]}}, {"type": "Feature", "properties": {"egrid": "CH928890834529", "numero": "780", "kind": "parcelle priv\u00e9e", "overlap_m2": 1544.1471059749888, "parcel_area_m2": 1544.3473355008766, "overlap_fraction": 0.9998703468311273, "boundary_within10m": true, "drawing_index": 5761}, "geometry": {"type": "Polygon", "coordinates": [[[2527243.5753992363, 1151085.547879355], [2527232.464, 1151105.168], [2527246.0640000002, 1151123.369], [2527260.733, 1151142.819], [2527261.853, 1151140.459], [2527280.583, 1151107.08], [2527282.973, 1151102.76], [2527245.4988099835, 1151082.3705853727], [2527243.5753992363, 1151085.547879355]]]}}, {"type": "Feature", "properties": {"egrid": "CH914590838864", "numero": "779", "kind": "parcelle priv\u00e9e", "overlap_m2": 861.9160350041439, "parcel_area_m2": 861.9160350041436, "overlap_fraction": 1.0000000000000002, "boundary_within10m": false, "drawing_index": 5761}, "geometry": {"type": "Polygon", "coordinates": [[[2527254.253, 1151165.439], [2527268.853, 1151153.579], [2527260.733, 1151142.819], [2527246.0640000002, 1151123.369], [2527231.014, 1151145.668], [2527249.164, 1151169.579], [2527254.253, 1151165.439]]]}}, {"type": "Feature", "properties": {"egrid": "CH714557838841", "numero": "3334", "kind": "parcelle priv\u00e9e", "overlap_m2": 1399.8806728015675, "parcel_area_m2": 1435.6152949998313, "overlap_fraction": 0.9751084971560796, "boundary_within10m": true, "drawing_index": 5761}, "geometry": {"type": "Polygon", "coordinates": [[[2527273.4439636045, 1151060.0652215793], [2527265.5394953443, 1151057.1273394157], [2527261.9822718054, 1151056.3664612486], [2527252.2972918996, 1151071.140131499], [2527245.4988099835, 1151082.3705853727], [2527282.973, 1151102.76], [2527298.313, 1151074.531], [2527299.833, 1151071.611], [2527293.583, 1151068.8], [2527284.4868448554, 1151064.7674243492], [2527273.4439636045, 1151060.0652215793]]]}}, {"type": "Feature", "properties": {"egrid": "CH844583889194", "numero": "778", "kind": "parcelle priv\u00e9e", "overlap_m2": 597.4343547702508, "parcel_area_m2": 622.7756249928458, "overlap_fraction": 0.9593091489043328, "boundary_within10m": true, "drawing_index": 5761}, "geometry": {"type": "Polygon", "coordinates": [[[2527224.3930473314, 1151174.2413506678], [2527225.601773805, 1151177.2698453995], [2527227.304, 1151179.148], [2527231.104, 1151183.788], [2527231.364, 1151184.018], [2527249.164, 1151169.579], [2527231.014, 1151145.668], [2527218.4589683474, 1151164.461448765], [2527224.3930473314, 1151174.2413506678]]]}}, {"type": "Feature", "properties": {"egrid": "CH283783458831", "numero": "134", "kind": "parcelle priv\u00e9e", "overlap_m2": 745.2444561624188, "parcel_area_m2": 877.6004399946112, "overlap_fraction": 0.8491842325956388, "boundary_within10m": true, "drawing_index": 5761}, "geometry": {"type": "Polygon", "coordinates": [[[2527322.9234809084, 1151205.355417526], [2527330.9378589643, 1151197.0243885946], [2527338.791026134, 1151187.8756300495], [2527320.513, 1151172.911], [2527318.093, 1151170.931], [2527299.693, 1151193.441], [2527302.213, 1151196.771], [2527308.090254031, 1151202.2212740376], [2527322.9234809084, 1151205.355417526]]]}}, {"type": "Feature", "properties": {"egrid": "CH974588908365", "numero": "DP 1073", "kind": "DP communal", "overlap_m2": 16.695600098755595, "parcel_area_m2": 1184.3012715020334, "overlap_fraction": 0.014097426474583438, "boundary_within10m": true, "drawing_index": 5761}, "geometry": {"type": "Polygon", "coordinates": [[[2527226.6503575575, 1151179.897098495], [2527227.559902481, 1151185.2058478575], [2527229.428148953, 1151185.6005935566], [2527231.364, 1151184.018], [2527231.104, 1151183.788], [2527227.304, 1151179.148], [2527225.601773805, 1151177.2698453995], [2527226.6503575575, 1151179.897098495]]]}}, {"type": "Feature", "properties": {"egrid": "CH908845908352", "numero": "781", "kind": "parcelle priv\u00e9e", "overlap_m2": 2052.7360601997057, "parcel_area_m2": 2060.962149994797, "overlap_fraction": 0.9960086167545036, "boundary_within10m": true, "drawing_index": 5761}, "geometry": {"type": "Polygon", "coordinates": [[[2527318.9836060796, 1151080.3948029475], [2527307.393464701, 1151074.9784018367], [2527299.833, 1151071.611], [2527298.313, 1151074.531], [2527282.973, 1151102.76], [2527280.583, 1151107.08], [2527261.853, 1151140.459], [2527260.733, 1151142.819], [2527268.853, 1151153.579], [2527282.023, 1151142.87], [2527284.413, 1151140.95], [2527298.833, 1151129.231], [2527310.793, 1151107.321], [2527324.0920367073, 1151083.078865843], [2527318.9836060796, 1151080.3948029475]]]}}, {"type": "Feature", "properties": {"egrid": "CH868883453226", "numero": "137", "kind": "parcelle priv\u00e9e", "overlap_m2": 506.013755498676, "parcel_area_m2": 506.01375549867623, "overlap_fraction": 0.9999999999999996, "boundary_within10m": false, "drawing_index": 5761}, "geometry": {"type": "Polygon", "coordinates": [[[2527306.793, 1151159.071], [2527321.783, 1151171.341], [2527339.932, 1151149.192], [2527332.643, 1151145.802], [2527331.893, 1151145.462], [2527327.573, 1151143.431], [2527323.473, 1151141.471], [2527321.933, 1151140.721], [2527306.793, 1151159.071]]]}}, {"type": "Feature", "properties": {"egrid": "CH989083458811", "numero": "135", "kind": "parcelle priv\u00e9e", "overlap_m2": 1155.7098399963652, "parcel_area_m2": 1155.709839996365, "overlap_fraction": 1.0000000000000002, "boundary_within10m": true, "drawing_index": 5761}, "geometry": {"type": "Polygon", "coordinates": [[[2527301.303, 1151154.621], [2527293.973, 1151152.6], [2527282.023, 1151142.87], [2527268.853, 1151153.579], [2527282.353, 1151170.94], [2527285.673, 1151175.27], [2527299.693, 1151193.441], [2527318.093, 1151170.931], [2527320.513, 1151172.911], [2527321.783, 1151171.341], [2527306.793, 1151159.071], [2527301.303, 1151154.621]]]}}, {"type": "Feature", "properties": {"egrid": "CH451083894570", "numero": "DP 1074", "kind": "DP communal", "overlap_m2": 10.177009864711286, "parcel_area_m2": 581.5957250143198, "overlap_fraction": 0.017498426186782427, "boundary_within10m": true, "drawing_index": 5761}, "geometry": {"type": "Polygon", "coordinates": [[[2527233.3811393003, 1151102.3878397173], [2527227.1984215216, 1151112.999110875], [2527232.464, 1151105.168], [2527243.5753992363, 1151085.547879355], [2527233.3811393003, 1151102.3878397173]]]}}, {"type": "Feature", "properties": {"egrid": "CH468983451159", "numero": "741", "kind": "parcelle priv\u00e9e", "overlap_m2": 2.56797641176139, "parcel_area_m2": 2993.4830399976167, "overlap_fraction": 0.000857855674292858, "boundary_within10m": true, "drawing_index": 5761}, "geometry": {"type": "Polygon", "coordinates": [[[2527296.384498734, 1151069.8336004454], [2527284.4868448554, 1151064.7674243492], [2527293.583, 1151068.8], [2527299.833, 1151071.611], [2527307.393464701, 1151074.9784018367], [2527296.384498734, 1151069.8336004454]]]}}, {"type": "Feature", "properties": {"egrid": "CH938388459073", "numero": "133", "kind": "parcelle priv\u00e9e", "overlap_m2": 1553.3484230017461, "parcel_area_m2": 3876.945875500369, "overlap_fraction": 0.400662911705278, "boundary_within10m": true, "drawing_index": 5761}, "geometry": {"type": "Polygon", "coordinates": [[[2527308.090254031, 1151202.2212740376], [2527302.213, 1151196.771], [2527299.693, 1151193.441], [2527285.673, 1151175.27], [2527282.353, 1151170.94], [2527268.853, 1151153.579], [2527254.253, 1151165.439], [2527249.164, 1151169.579], [2527231.364, 1151184.018], [2527229.428148953, 1151185.6005935566], [2527308.090254031, 1151202.2212740376]]]}}, {"type": "Feature", "properties": {"egrid": "CH189083458889", "numero": "777", "kind": "parcelle priv\u00e9e", "overlap_m2": 999.5176989256502, "parcel_area_m2": 1138.0497599969467, "overlap_fraction": 0.8782724043000825, "boundary_within10m": true, "drawing_index": 5761}, "geometry": {"type": "Polygon", "coordinates": [[[2527215.0699211373, 1151133.8150062333], [2527209.214945947, 1151144.5038302056], [2527207.199744539, 1151149.1270513763], [2527217.5961045357, 1151163.0393707212], [2527218.4589683474, 1151164.461448765], [2527231.014, 1151145.668], [2527246.0640000002, 1151123.369], [2527232.464, 1151105.168], [2527227.1984215216, 1151112.999110875], [2527215.0699211373, 1151133.8150062333]]]}}, {"type": "Feature", "properties": {"egrid": "CH608845098309", "numero": "136", "kind": "parcelle priv\u00e9e", "overlap_m2": 716.8114905398846, "parcel_area_m2": 788.6658650046292, "overlap_fraction": 0.9088912330897917, "boundary_within10m": true, "drawing_index": 5761}, "geometry": {"type": "Polygon", "coordinates": [[[2527345.645713717, 1151179.8900771837], [2527357.835775983, 1151164.7015432357], [2527353.412, 1151161.722], [2527353.122, 1151161.482], [2527351.652, 1151160.082], [2527351.772, 1151159.922], [2527340.772, 1151149.602], [2527339.932, 1151149.192], [2527321.783, 1151171.341], [2527320.513, 1151172.911], [2527338.791026134, 1151187.8756300495], [2527345.645713717, 1151179.8900771837]]]}}, {"type": "Feature", "properties": {"egrid": "CH628809834584", "numero": "139", "kind": "parcelle priv\u00e9e", "overlap_m2": 457.3976568075993, "parcel_area_m2": 567.3563900028088, "overlap_fraction": 0.8061910729609212, "boundary_within10m": true, "drawing_index": 5761}, "geometry": {"type": "Polygon", "coordinates": [[[2527359.7325006756, 1151162.3382684009], [2527364.2571985787, 1151156.0263603409], [2527365.883675349, 1151152.754747353], [2527363.4360617264, 1151149.960061311], [2527357.2584716883, 1151145.001712008], [2527341.4919341793, 1151133.5472049261], [2527332.853, 1151145.452], [2527332.643, 1151145.802], [2527339.932, 1151149.192], [2527340.772, 1151149.602], [2527351.772, 1151159.922], [2527351.652, 1151160.082], [2527353.122, 1151161.482], [2527353.412, 1151161.722], [2527357.835775983, 1151164.7015432357], [2527359.7325006756, 1151162.3382684009]]]}}, {"type": "Feature", "properties": {"egrid": "CH444583891017", "numero": "138", "kind": "parcelle priv\u00e9e", "overlap_m2": 616.7926850051131, "parcel_area_m2": 616.7926850051131, "overlap_fraction": 1.0, "boundary_within10m": false, "drawing_index": 5761}, "geometry": {"type": "Polygon", "coordinates": [[[2527298.833, 1151129.231], [2527284.413, 1151140.95], [2527282.023, 1151142.87], [2527293.973, 1151152.6], [2527301.303, 1151154.621], [2527306.793, 1151159.071], [2527321.933, 1151140.721], [2527298.833, 1151129.231]]]}}, {"type": "Feature", "properties": {"egrid": "CH798388424597", "numero": "3085", "kind": "parcelle priv\u00e9e", "overlap_m2": 5615.651320611551, "parcel_area_m2": 64348.79518652109, "overlap_fraction": 0.08726894271033439, "boundary_within10m": true, "drawing_index": 7935}, "geometry": {"type": "Polygon", "coordinates": [[[2526661.565097587, 1151347.182190963], [2526664.2553400556, 1151348.9809847155], [2526666.5717010493, 1151349.2851042862], [2526668.9121523444, 1151348.0323600434], [2526671.674665717, 1151345.1605623555], [2526697.77794406, 1151313.4326021797], [2526699.2191825886, 1151311.1298418033], [2526699.6385966735, 1151309.4058650564], [2526698.889060949, 1151307.787732815], [2526696.8234500517, 1151305.8025059544], [2526624.957963711, 1151246.7187773162], [2526603.49, 1151274.632], [2526587.34, 1151279.112], [2526554.72, 1151256.982], [2526534.945860435, 1151243.5655410846], [2526661.565097587, 1151347.182190963]]]}}, {"type": "Feature", "properties": {"egrid": "CH608845338334", "numero": "3469", "kind": "parcelle priv\u00e9e", "overlap_m2": 4023.2951874435216, "parcel_area_m2": 7604.074099994502, "overlap_fraction": 0.5290973147468974, "boundary_within10m": true, "drawing_index": 7935}, "geometry": {"type": "Polygon", "coordinates": [[[2526569.439807317, 1151201.4773126657], [2526566.032189234, 1151200.2675845185], [2526562.6570800534, 1151200.6630528416], [2526559.1799365804, 1151202.9421671617], [2526545.7528827083, 1151218.802877324], [2526533.3643436083, 1151234.3520449828], [2526531.5000535874, 1151236.9077535896], [2526531.006573568, 1151238.8878281605], [2526531.9541388717, 1151240.7943677958], [2526534.412984819, 1151243.1294715952], [2526534.945860435, 1151243.5655410846], [2526554.72, 1151256.982], [2526587.34, 1151279.112], [2526603.49, 1151274.632], [2526624.957963711, 1151246.7187773162], [2526573.014477497, 1151204.013787755], [2526569.439807317, 1151201.4773126657]]]}}, {"type": "Feature", "properties": {"egrid": "CH798388424597", "numero": "3085", "kind": "parcelle priv\u00e9e", "overlap_m2": 25911.770945609984, "parcel_area_m2": 64348.79518652109, "overlap_fraction": 0.4026768624105899, "boundary_within10m": true, "drawing_index": 8039}, "geometry": {"type": "Polygon", "coordinates": [[[2526478.2230663844, 1151300.070895047], [2526472.724165974, 1151310.1969076807], [2526464.7194594448, 1151327.831384523], [2526452.5646190178, 1151356.336840691], [2526451.298114346, 1151360.2963895348], [2526451.411194867, 1151363.1975035542], [2526452.92935131, 1151365.5955939493], [2526455.878074404, 1151368.04607192], [2526571.1148377857, 1151456.862990804], [2526576.1102842917, 1151460.3692436467], [2526581.9483718136, 1151463.7749629177], [2526587.3237682083, 1151465.6117164104], [2526589.4300409383, 1151465.4828459257], [2526590.9311413327, 1151464.411071919], [2526659.5771572124, 1151368.8897275724], [2526662.2145389966, 1151365.376708393], [2526664.668903408, 1151361.4381436345], [2526665.632563769, 1151357.2201746306], [2526665.146727843, 1151355.0520827032], [2526663.797833401, 1151352.868942714], [2526528.800805823, 1151241.0505290022], [2526478.2230663844, 1151300.070895047]]]}}, {"type": "Feature", "properties": {"egrid": "CH284583458809", "numero": "1482", "kind": "parcelle priv\u00e9e", "overlap_m2": 6895.258456599211, "parcel_area_m2": 7355.398549027342, "overlap_fraction": 0.9374418545288782, "boundary_within10m": true, "drawing_index": 8192}, "geometry": {"type": "Polygon", "coordinates": [[[2526356.4410769492, 1151295.4429839891], [2526415.67, 1151229.483], [2526437.41, 1151199.112], [2526463.551, 1151161.191], [2526493.431, 1151115.09], [2526469.9582225513, 1151099.7301071386], [2526336.398352695, 1151280.5832854435], [2526356.4410769492, 1151295.4429839891]]]}}, {"type": "Feature", "properties": {"egrid": "CH744583882894", "numero": "1480", "kind": "parcelle priv\u00e9e", "overlap_m2": 1881.655922222201, "parcel_area_m2": 2294.7635289967, "overlap_fraction": 0.8199781365031913, "boundary_within10m": true, "drawing_index": 8192}, "geometry": {"type": "Polygon", "coordinates": [[[2526428.712997887, 1151349.025468327], [2526430.6713347826, 1151350.076787594], [2526432.3126731007, 1151350.1826559315], [2526433.6960940612, 1151349.4960972609], [2526434.8806788833, 1151348.1701355043], [2526436.8896649885, 1151344.2120984206], [2526438.8122811723, 1151339.5327360544], [2526449.402772498, 1151314.4363632945], [2526458.076338008, 1151291.974482306], [2526458.015460728, 1151288.284022514], [2526457.881950606, 1151287.7342916667], [2526447.32, 1151277.983], [2526401.4448473523, 1151328.8088305236], [2526428.712997887, 1151349.025468327]]]}}, {"type": "Feature", "properties": {"egrid": "CH768883453557", "numero": "1495", "kind": "parcelle priv\u00e9e", "overlap_m2": 3.7555447376392714, "parcel_area_m2": 6622.272394012308, "overlap_fraction": 0.0005671081638132162, "boundary_within10m": true, "drawing_index": 8192}, "geometry": {"type": "Polygon", "coordinates": [[[2526497.6615213105, 1151192.313283819], [2526505.273300942, 1151176.3217053702], [2526502.94, 1151180.281], [2526497.590979169, 1151192.4105808742], [2526497.6615213105, 1151192.313283819]]]}}, {"type": "Feature", "properties": {"egrid": "CH444583897153", "numero": "1481", "kind": "parcelle priv\u00e9e", "overlap_m2": 15052.093963034946, "parcel_area_m2": 24515.42476999045, "overlap_fraction": 0.613984628219061, "boundary_within10m": true, "drawing_index": 8192}, "geometry": {"type": "Polygon", "coordinates": [[[2526401.4448473523, 1151328.8088305236], [2526447.32, 1151277.983], [2526457.881950606, 1151287.7342916667], [2526457.373606004, 1151285.6411716475], [2526455.9541106643, 1151282.7752037493], [2526450.3995216493, 1151276.7054708654], [2526445.2171404962, 1151272.3778973024], [2526442.366116112, 1151269.9352529976], [2526440.6279792553, 1151267.7347783335], [2526440.459853577, 1151265.274120252], [2526442.3188627283, 1151262.0509256958], [2526470.705077652, 1151227.2387483055], [2526488.687534038, 1151204.690885619], [2526497.590979169, 1151192.4105808742], [2526502.94, 1151180.281], [2526505.273300942, 1151176.3217053702], [2526508.4663125477, 1151169.613511222], [2526523.106018183, 1151142.4718657313], [2526536.6705639884, 1151119.0104091463], [2526544.2498757364, 1151107.3512032663], [2526546.643328815, 1151104.160521522], [2526547.9159926674, 1151100.7136753933], [2526548.051954134, 1151097.0944656], [2526547.0353000523, 1151093.3866928623], [2526535.7211406226, 1151062.9378672559], [2526524.757651605, 1151031.5916164177], [2526524.0602722657, 1151026.4706194329], [2526469.9582225513, 1151099.7301071386], [2526493.431, 1151115.09], [2526463.551, 1151161.191], [2526437.41, 1151199.112], [2526415.67, 1151229.483], [2526356.4410769492, 1151295.4429839891], [2526401.4448473523, 1151328.8088305236]]]}}, {"type": "Feature", "properties": {"egrid": "CH200845488354", "numero": "4182", "kind": "parcelle priv\u00e9e", "overlap_m2": 687.8913650071615, "parcel_area_m2": 687.8913650071614, "overlap_fraction": 1.0000000000000002, "boundary_within10m": true, "drawing_index": 8238}, "geometry": {"type": "Polygon", "coordinates": [[[2526669.657, 1151690.601], [2526658.06, 1151679.004], [2526645.127, 1151691.937], [2526626.621, 1151703.308], [2526635.207, 1151717.281], [2526652.754, 1151706.502], [2526655.358, 1151704.899], [2526662.576, 1151697.684], [2526669.657, 1151690.601]]]}}, {"type": "Feature", "properties": {"egrid": "CH900945208367", "numero": "4193", "kind": "DDP superficie", "overlap_m2": 807.3567365111979, "parcel_area_m2": 807.3567365111978, "overlap_fraction": 1.0000000000000002, "boundary_within10m": true, "drawing_index": 8238}, "geometry": {"type": "Polygon", "coordinates": [[[2526675.752, 1151679.206], [2526708.562, 1151712.016], [2526720.22, 1151700.357], [2526720.865, 1151699.712], [2526703.137, 1151681.984], [2526688.056, 1151666.902], [2526675.752, 1151679.206]]]}}, {"type": "Feature", "properties": {"egrid": "CH160883454880", "numero": "4176", "kind": "parcelle priv\u00e9e", "overlap_m2": 361.2084035009908, "parcel_area_m2": 361.20840350099087, "overlap_fraction": 0.9999999999999999, "boundary_within10m": true, "drawing_index": 8238}, "geometry": {"type": "Polygon", "coordinates": [[[2526829.618, 1151718.0], [2526826.948, 1151720.67], [2526814.415, 1151733.202], [2526826.295, 1151745.082], [2526841.498, 1151729.879], [2526829.618, 1151718.0]]]}}, {"type": "Feature", "properties": {"egrid": "CH298308484596", "numero": "4181", "kind": "parcelle priv\u00e9e", "overlap_m2": 813.4233125003976, "parcel_area_m2": 813.4233125003977, "overlap_fraction": 0.9999999999999999, "boundary_within10m": false, "drawing_index": 8238}, "geometry": {"type": "Polygon", "coordinates": [[[2526731.77, 1151711.912], [2526729.508, 1151709.649], [2526718.222, 1151720.935], [2526731.657, 1151734.37], [2526765.775, 1151700.252], [2526754.603, 1151689.08], [2526731.77, 1151711.912]]]}}, {"type": "Feature", "properties": {"egrid": "CH274508488382", "numero": "4177", "kind": "parcelle priv\u00e9e", "overlap_m2": 467.20496300441687, "parcel_area_m2": 467.2049630044169, "overlap_fraction": 0.9999999999999999, "boundary_within10m": true, "drawing_index": 8238}, "geometry": {"type": "Polygon", "coordinates": [[[2526841.498, 1151729.879], [2526861.162, 1151710.214], [2526849.283, 1151698.335], [2526829.618, 1151718.0], [2526841.498, 1151729.879]]]}}, {"type": "Feature", "properties": {"egrid": "CH154883084568", "numero": "4175", "kind": "parcelle priv\u00e9e", "overlap_m2": 517.3511259988055, "parcel_area_m2": 517.3511259988056, "overlap_fraction": 0.9999999999999998, "boundary_within10m": false, "drawing_index": 8238}, "geometry": {"type": "Polygon", "coordinates": [[[2526797.9, 1151691.622], [2526793.304, 1151696.727], [2526787.105, 1151702.926], [2526785.44, 1151704.591], [2526790.292, 1151708.96], [2526801.676, 1151720.345], [2526805.962, 1151725.105], [2526807.71, 1151723.5320000001], [2526818.76, 1151712.482], [2526809.485, 1151703.207], [2526797.9, 1151691.622]]]}}, {"type": "Feature", "properties": {"egrid": "CH300845488320", "numero": "4186", "kind": "parcelle priv\u00e9e", "overlap_m2": 1122.448463501321, "parcel_area_m2": 1122.4484635013207, "overlap_fraction": 1.0000000000000002, "boundary_within10m": false, "drawing_index": 8238}, "geometry": {"type": "Polygon", "coordinates": [[[2526818.76, 1151712.482], [2526826.948, 1151720.67], [2526829.618, 1151718.0], [2526849.283, 1151698.335], [2526859.086, 1151688.5320000001], [2526841.624, 1151671.069], [2526817.511, 1151695.181], [2526809.485, 1151703.207], [2526818.76, 1151712.482]]]}}, {"type": "Feature", "properties": {"egrid": "CH238308454806", "numero": "4187", "kind": "parcelle priv\u00e9e", "overlap_m2": 1375.4122334959975, "parcel_area_m2": 1375.4122334959977, "overlap_fraction": 0.9999999999999999, "boundary_within10m": false, "drawing_index": 8238}, "geometry": {"type": "Polygon", "coordinates": [[[2526703.137, 1151681.984], [2526720.865, 1151699.712], [2526720.22, 1151700.357], [2526729.508, 1151709.649], [2526731.77, 1151711.912], [2526754.603, 1151689.08], [2526762.448, 1151681.235], [2526745.985, 1151664.7719999999], [2526736.855, 1151669.056], [2526713.026, 1151678.192], [2526703.137, 1151681.984]]]}}, {"type": "Feature", "properties": {"egrid": "CH244583084896", "numero": "4188", "kind": "parcelle priv\u00e9e", "overlap_m2": 1059.8176815578724, "parcel_area_m2": 1059.8176815578727, "overlap_fraction": 0.9999999999999998, "boundary_within10m": false, "drawing_index": 8238}, "geometry": {"type": "Polygon", "coordinates": [[[2526682.944, 1151732.892], [2526683.6517238338, 1151733.7113012127], [2526684.2334707077, 1151734.6243718977], [2526684.677, 1151735.612], [2526685.79, 1151738.671], [2526686.179803745, 1151739.5393602129], [2526686.6914088265, 1151740.3420162161], [2526687.3140000002, 1151741.062], [2526691.05, 1151744.798], [2526692.949, 1151742.899], [2526708.038, 1151757.989], [2526706.466, 1151759.561], [2526711.998, 1151765.094], [2526712.7180397823, 1151765.7149277849], [2526713.5211264915, 1151766.2239074889], [2526714.39, 1151766.61], [2526717.448, 1151767.73], [2526718.5254534977, 1151768.2242766507], [2526719.512813586, 1151768.8802762732], [2526720.386, 1151769.682], [2526726.728, 1151763.341], [2526727.961, 1151762.109], [2526722.82, 1151756.9679999999], [2526722.0502020735, 1151756.3029347975], [2526721.1921659447, 1151755.756423523], [2526720.264, 1151755.34], [2526717.2060000002, 1151754.226], [2526716.2778340555, 1151753.809576477], [2526715.4197979267, 1151753.2630652024], [2526714.65, 1151752.598], [2526705.465, 1151743.41], [2526706.676, 1151742.198], [2526692.961, 1151728.484], [2526695.068, 1151726.375], [2526684.065, 1151715.373], [2526683.2402160745, 1151714.6405291967], [2526682.3076714175, 1151714.0513412275], [2526681.292, 1151713.621], [2526678.312, 1151712.536], [2526677.434047905, 1151712.1453842393], [2526676.622577615, 1151711.6307032483], [2526675.895, 1151711.003], [2526662.576, 1151697.684], [2526655.358, 1151704.899], [2526652.754, 1151706.502], [2526656.36, 1151710.109], [2526657.08173479, 1151710.7335418852], [2526657.886404774, 1151711.246825325], [2526658.757, 1151711.638], [2526661.816, 1151712.751], [2526662.8036281024, 1151713.1945292922], [2526663.7166987876, 1151713.776276166], [2526664.536, 1151714.484], [2526666.2060000002, 1151716.153], [2526681.451, 1151731.398], [2526682.944, 1151732.892]]]}}, {"type": "Feature", "properties": {"egrid": "CH214548830881", "numero": "4183", "kind": "parcelle priv\u00e9e", "overlap_m2": 447.5929174980266, "parcel_area_m2": 447.5929174980266, "overlap_fraction": 1.0, "boundary_within10m": true, "drawing_index": 8238}, "geometry": {"type": "Polygon", "coordinates": [[[2526666.2060000002, 1151716.153], [2526651.526, 1151730.833], [2526666.772, 1151746.078], [2526681.451, 1151731.398], [2526666.2060000002, 1151716.153]]]}}, {"type": "Feature", "properties": {"egrid": "CH328821834578", "numero": "DP 26", "kind": "DP communal", "overlap_m2": 1.1205718870435668, "parcel_area_m2": 1553.606780863116, "overlap_fraction": 0.0007212712385440453, "boundary_within10m": true, "drawing_index": 8238}, "geometry": {"type": "Polygon", "coordinates": [[[2526890.263854379, 1151686.1145579503], [2526889.6148081785, 1151683.4782168115], [2526889.578375976, 1151683.839915791], [2526889.687124965, 1151686.238455396], [2526889.852438317, 1151687.093401814], [2526890.263854379, 1151686.1145579503]]]}}, {"type": "Feature", "properties": {"egrid": "CH254883084534", "numero": "4189", "kind": "parcelle priv\u00e9e", "overlap_m2": 154.96165123463976, "parcel_area_m2": 160.77068349826234, "overlap_fraction": 0.9638675899285745, "boundary_within10m": true, "drawing_index": 8238}, "geometry": {"type": "Polygon", "coordinates": [[[2526819.7916161907, 1151625.1797591988], [2526800.381, 1151644.574], [2526804.329, 1151648.528], [2526824.156438906, 1151628.716956972], [2526819.7916161907, 1151625.1797591988]]]}}, {"type": "Feature", "properties": {"egrid": "CH680083450804", "numero": "4165", "kind": "parcelle priv\u00e9e", "overlap_m2": 807.3567365111979, "parcel_area_m2": 807.356736511198, "overlap_fraction": 0.9999999999999999, "boundary_within10m": true, "drawing_index": 8238}, "geometry": {"type": "Polygon", "coordinates": [[[2526720.865, 1151699.712], [2526703.137, 1151681.984], [2526688.056, 1151666.902], [2526675.752, 1151679.206], [2526708.562, 1151712.016], [2526720.22, 1151700.357], [2526720.865, 1151699.712]]]}}, {"type": "Feature", "properties": {"egrid": "CH384883450871", "numero": "4174", "kind": "parcelle priv\u00e9e", "overlap_m2": 1347.4334430060758, "parcel_area_m2": 1347.4334430060755, "overlap_fraction": 1.0000000000000002, "boundary_within10m": true, "drawing_index": 8238}, "geometry": {"type": "Polygon", "coordinates": [[[2526868.437, 1151697.883], [2526879.751, 1151686.569], [2526852.386, 1151659.204], [2526849.558, 1151662.033], [2526838.795, 1151651.27], [2526806.198, 1151683.868], [2526817.511, 1151695.181], [2526841.624, 1151671.069], [2526859.086, 1151688.5320000001], [2526868.437, 1151697.883]]]}}, {"type": "Feature", "properties": {"egrid": "CH284883450808", "numero": "4179", "kind": "parcelle priv\u00e9e", "overlap_m2": 675.3196920027541, "parcel_area_m2": 675.3196920027541, "overlap_fraction": 1.0, "boundary_within10m": false, "drawing_index": 8238}, "geometry": {"type": "Polygon", "coordinates": [[[2526762.448, 1151681.235], [2526773.619, 1151692.406], [2526785.838, 1151680.187], [2526758.204, 1151652.553], [2526745.985, 1151664.7719999999], [2526762.448, 1151681.235]]]}}, {"type": "Feature", "properties": {"egrid": "CH220848834589", "numero": "4184", "kind": "parcelle priv\u00e9e", "overlap_m2": 458.8106075063338, "parcel_area_m2": 458.8106075063337, "overlap_fraction": 1.0000000000000002, "boundary_within10m": true, "drawing_index": 8238}, "geometry": {"type": "Polygon", "coordinates": [[[2526708.038, 1151757.989], [2526692.949, 1151742.899], [2526691.05, 1151744.798], [2526677.746, 1151758.102], [2526692.836, 1151773.192], [2526706.466, 1151759.561], [2526708.038, 1151757.989]]]}}, {"type": "Feature", "properties": {"egrid": "CH374508488348", "numero": "4185", "kind": "parcelle priv\u00e9e", "overlap_m2": 549.0282580019182, "parcel_area_m2": 549.0282580019183, "overlap_fraction": 0.9999999999999998, "boundary_within10m": false, "drawing_index": 8238}, "geometry": {"type": "Polygon", "coordinates": [[[2526720.0609999998, 1151770.007], [2526722.246, 1151772.192], [2526713.066, 1151781.37], [2526718.617, 1151786.921], [2526720.774, 1151784.764], [2526732.334, 1151796.327], [2526737.9560000002, 1151790.706], [2526736.683, 1151789.433], [2526747.114, 1151779.004], [2526736.954, 1151768.842], [2526734.59, 1151771.205], [2526726.728, 1151763.341], [2526720.386, 1151769.682], [2526720.0609999998, 1151770.007]]]}}, {"type": "Feature", "properties": {"egrid": "CH398308484562", "numero": "4180", "kind": "parcelle priv\u00e9e", "overlap_m2": 445.8351920034998, "parcel_area_m2": 445.83519200349974, "overlap_fraction": 1.0000000000000002, "boundary_within10m": true, "drawing_index": 8238}, "geometry": {"type": "Polygon", "coordinates": [[[2526736.855, 1151669.056], [2526730.601, 1151652.744], [2526706.772, 1151661.88], [2526713.026, 1151678.192], [2526736.855, 1151669.056]]]}}, {"type": "Feature", "properties": {"egrid": "CH260883454846", "numero": "4178", "kind": "parcelle priv\u00e9e", "overlap_m2": 584.333236999341, "parcel_area_m2": 584.3332369993411, "overlap_fraction": 0.9999999999999998, "boundary_within10m": true, "drawing_index": 8238}, "geometry": {"type": "Polygon", "coordinates": [[[2526782.599, 1151638.14], [2526784.268, 1151630.34], [2526787.525, 1151627.083], [2526769.174, 1151615.166], [2526753.335, 1151631.005], [2526769.174, 1151646.844], [2526782.599, 1151638.14]]]}}, {"type": "Feature", "properties": {"egrid": "CH608945938321", "numero": "2486", "kind": "parcelle priv\u00e9e", "overlap_m2": 20560.546782164074, "parcel_area_m2": 28893.822958452747, "overlap_fraction": 0.7115896990069009, "boundary_within10m": true, "drawing_index": 8238}, "geometry": {"type": "Polygon", "coordinates": [[[2526786.9227146627, 1151598.543212224], [2526783.076955616, 1151595.795830558], [2526779.919127772, 1151594.2017737245], [2526777.007832181, 1151594.5418676734], [2526773.9016698943, 1151597.5969383542], [2526748.50229933, 1151631.545700674], [2526743.75353821, 1151636.6153489752], [2526737.278020621, 1151641.6025736167], [2526729.829856875, 1151646.205420524], [2526722.1631572847, 1151650.1219356237], [2526707.9744551973, 1151655.2942576015], [2526685.946736602, 1151662.5234405561], [2526664.3141619028, 1151669.796214925], [2526651.3108915035, 1151675.0993111448], [2526643.8147402233, 1151680.7861848841], [2526634.7195619657, 1151689.0222725219], [2526626.313637056, 1151697.5374984334], [2526620.885245817, 1151704.061786994], [2526619.415235443, 1151707.5653081615], [2526619.547177274, 1151711.477622994], [2526621.444381492, 1151715.863873662], [2526625.270158283, 1151720.7892023353], [2526681.492621665, 1151773.1434655653], [2526738.2923804764, 1151824.8302941294], [2526743.4992562034, 1151828.3955423199], [2526748.482115607, 1151829.8300936818], [2526753.48882788, 1151828.8385310743], [2526758.767262219, 1151825.1254373575], [2526785.481194614, 1151796.0209409078], [2526815.8896785756, 1151762.533780494], [2526852.09421482, 1151726.2344042428], [2526884.624487777, 1151694.3347147985], [2526888.732353865, 1151689.7583142826], [2526889.852438317, 1151687.093401814], [2526889.687124965, 1151686.238455396], [2526889.578375976, 1151683.839915791], [2526889.6148081785, 1151683.4782168115], [2526889.4936567256, 1151682.9861153874], [2526886.696428315, 1151679.9556561802], [2526837.1234165262, 1151639.225233563], [2526824.156438906, 1151628.716956972], [2526804.329, 1151648.528], [2526800.381, 1151644.574], [2526819.7916161907, 1151625.1797591988], [2526786.9227146627, 1151598.543212224]], [[2526753.335, 1151631.005], [2526769.174, 1151615.166], [2526787.525, 1151627.083], [2526784.268, 1151630.34], [2526782.599, 1151638.14], [2526769.174, 1151646.844], [2526753.335, 1151631.005]], [[2526675.895, 1151711.003], [2526676.622577615, 1151711.6307032483], [2526677.434047905, 1151712.1453842393], [2526678.312, 1151712.536], [2526681.292, 1151713.621], [2526682.3076714175, 1151714.0513412275], [2526683.2402160745, 1151714.6405291967], [2526684.065, 1151715.373], [2526695.068, 1151726.375], [2526692.961, 1151728.484], [2526706.676, 1151742.198], [2526705.465, 1151743.41], [2526714.65, 1151752.598], [2526715.4197979267, 1151753.2630652024], [2526716.2778340555, 1151753.809576477], [2526717.2060000002, 1151754.226], [2526720.264, 1151755.34], [2526721.1921659447, 1151755.756423523], [2526722.0502020735, 1151756.3029347975], [2526722.82, 1151756.9679999999], [2526727.961, 1151762.109], [2526726.728, 1151763.341], [2526734.59, 1151771.205], [2526736.954, 1151768.842], [2526747.114, 1151779.004], [2526736.683, 1151789.433], [2526737.9560000002, 1151790.706], [2526732.334, 1151796.327], [2526720.774, 1151784.764], [2526718.617, 1151786.921], [2526713.066, 1151781.37], [2526722.246, 1151772.192], [2526720.0609999998, 1151770.007], [2526720.386, 1151769.682], [2526719.512813586, 1151768.8802762732], [2526718.5254534977, 1151768.2242766507], [2526717.448, 1151767.73], [2526714.39, 1151766.61], [2526713.5211264915, 1151766.2239074889], [2526712.7180397823, 1151765.7149277849], [2526711.998, 1151765.094], [2526706.466, 1151759.561], [2526692.836, 1151773.192], [2526677.746, 1151758.102], [2526691.05, 1151744.798], [2526687.3140000002, 1151741.062], [2526686.6914088265, 1151740.3420162161], [2526686.179803745, 1151739.5393602129], [2526685.79, 1151738.671], [2526684.677, 1151735.612], [2526684.2334707077, 1151734.6243718977], [2526683.6517238338, 1151733.7113012127], [2526682.944, 1151732.892], [2526681.451, 1151731.398], [2526666.772, 1151746.078], [2526651.526, 1151730.833], [2526666.2060000002, 1151716.153], [2526664.536, 1151714.484], [2526663.7166987876, 1151713.776276166], [2526662.8036281024, 1151713.1945292922], [2526661.816, 1151712.751], [2526658.757, 1151711.638], [2526657.886404774, 1151711.246825325], [2526657.08173479, 1151710.7335418852], [2526656.36, 1151710.109], [2526652.754, 1151706.502], [2526635.207, 1151717.281], [2526626.621, 1151703.308], [2526645.127, 1151691.937], [2526658.06, 1151679.004], [2526669.657, 1151690.601], [2526662.576, 1151697.684], [2526675.895, 1151711.003]], [[2526817.511, 1151695.181], [2526806.198, 1151683.868], [2526838.795, 1151651.27], [2526849.558, 1151662.033], [2526852.386, 1151659.204], [2526879.751, 1151686.569], [2526868.437, 1151697.883], [2526859.086, 1151688.5320000001], [2526849.283, 1151698.335], [2526861.162, 1151710.214], [2526841.498, 1151729.879], [2526826.295, 1151745.082], [2526814.415, 1151733.202], [2526826.948, 1151720.67], [2526818.76, 1151712.482], [2526807.71, 1151723.5320000001], [2526805.962, 1151725.105], [2526801.676, 1151720.345], [2526790.292, 1151708.96], [2526785.44, 1151704.591], [2526787.105, 1151702.926], [2526793.304, 1151696.727], [2526797.9, 1151691.622], [2526809.485, 1151703.207], [2526817.511, 1151695.181]], [[2526706.772, 1151661.88], [2526730.601, 1151652.744], [2526736.855, 1151669.056], [2526745.985, 1151664.7719999999], [2526758.204, 1151652.553], [2526785.838, 1151680.187], [2526773.619, 1151692.406], [2526762.448, 1151681.235], [2526754.603, 1151689.08], [2526765.775, 1151700.252], [2526731.657, 1151734.37], [2526718.222, 1151720.935], [2526729.508, 1151709.649], [2526720.22, 1151700.357], [2526708.562, 1151712.016], [2526675.752, 1151679.206], [2526688.056, 1151666.902], [2526703.137, 1151681.984], [2526713.026, 1151678.192], [2526706.772, 1151661.88]]]}}]}