{"type": "FeatureCollection", "features": [{"type": "Feature", "geometry": {"type": "Polygon", "coordinates": [[[2508251.1186056742, 1139118.8607953554], [2508241.4941394585, 1139104.9632833484], [2508116.22090112, 1139185.3761114744], [2508055.165149615, 1139105.174360095], [2508058.6154844845, 1139092.1403109385], [2508211.8192470144, 1139032.9616464174], [2508250.0976321534, 1139075.4789903855], [2508285.3455532184, 1139116.4147646339], [2508287.810719046, 1139117.3164047846], [2508314.5522364103, 1139147.08765706], [2508353.8111343146, 1139196.3299106834], [2508460.07808289, 1139315.0081913238], [2508472.504104564, 1139330.1102311632], [2508630.741428606, 1139506.5700329586], [2508614.6378384572, 1139507.261191553], [2508562.821192638, 1139510.7665264292], [2508519.405531032, 1139518.4613086344], [2508462.6869469862, 1139548.5717959476], [2508425.5818214766, 1139569.5740933584], [2508412.9717898895, 1139572.3769227627], [2508402.4737583622, 1139560.4655510888], [2508287.643474266, 1139407.8190467928], [2508203.627004576, 1139296.4849175203], [2508131.5081600533, 1139205.4583637663], [2508251.1186056742, 1139118.8607953554]]]}, "properties": {"drawing_index": 1608, "label": "Densification à étudier des zones de faible densité", "area_m2": 109729.75328869751}}, {"type": "Feature", "geometry": {"type": "Polygon", "coordinates": [[[2508391.3802406983, 1138634.6018627705], [2508395.6061398033, 1138641.3639020598], [2508401.9451474403, 1138646.0130377803], [2508414.6235160735, 1138650.2415993891], [2508433.785606963, 1138651.440042157], [2508448.0101579153, 1138653.2016420828], [2508471.678371347, 1138620.6592724214], [2508424.3476838577, 1138567.4070747246], [2508400.258078632, 1138575.0131580813], [2508388.846452777, 1138594.8737867614], [2508387.9998769606, 1138623.1910362127], [2508391.3802406983, 1138634.6018627705]]]}, "properties": {"drawing_index": 1609, "label": "Densification à étudier des zones de faible densité", "area_m2": 4877.968392698934}}, {"type": "Feature", "geometry": {"type": "Polygon", "coordinates": [[[2508114.3413033998, 1139203.7767992923], [2508076.9257718315, 1139160.7470448394], [2508050.3040622324, 1139131.58519534], [2507969.6868730295, 1139186.7681455729], [2508011.3013327983, 1139282.9740613562], [2508114.3413033998, 1139203.7767992923]]]}, "properties": {"drawing_index": 1610, "label": "Densification à étudier des zones de faible densité", "area_m2": 11308.436811833699}}, {"type": "Feature", "geometry": {"type": "Polygon", "coordinates": [[[2508052.267118309, 1139282.6656534222], [2508045.222975761, 1139293.0248452316], [2508044.352707225, 1139300.1651728249], [2508048.55923197, 1139342.9695486457], [2508043.108020287, 1139368.6750884468], [2508031.6888078754, 1139398.7015759023], [2508020.1556683723, 1139453.1254319209], [2508019.8595182365, 1139460.80123986], [2508027.0414580153, 1139514.476026136], [2508028.9122035233, 1139536.7690830946], [2508027.884344179, 1139562.2336581014], [2508151.486817058, 1139548.8989107576], [2508156.0873548193, 1139598.3348773888], [2508076.0923855025, 1139641.7550991662], [2508141.14156108, 1139728.7472525984], [2508181.6208354672, 1139701.0393877153], [2508254.8998874472, 1139654.9054652967], [2508264.4314159416, 1139659.315296166], [2508297.927990048, 1139757.917349716], [2508301.950018857, 1139755.5190787055], [2508416.3791199895, 1139903.1100407143], [2508479.6524914554, 1139787.5110425933], [2508474.1596290986, 1139763.4216473366], [2508469.935246958, 1139725.382174539], [2508467.099418161, 1139703.986937131], [2508459.2290095934, 1139687.333789176], [2508442.699302685, 1139689.5975366968], [2508431.9021544177, 1139673.400166005], [2508414.151761812, 1139681.4289430715], [2508412.0388122653, 1139678.0478159494], [2508429.9987462936, 1139670.8343727454], [2508442.8678081194, 1139663.400353924], [2508397.3238255377, 1139587.9818850555], [2508354.697460787, 1139514.0409422924], [2508262.2429473363, 1139398.1016412375], [2508125.323104976, 1139224.259733541], [2508052.267118309, 1139282.6656534222]]]}, "properties": {"drawing_index": 1611, "label": "Densification à étudier des zones de faible densité", "area_m2": 136267.2457782628}}, {"type": "Feature", "geometry": {"type": "Polygon", "coordinates": [[[2507958.858205901, 1138590.5512559996], [2507907.5065197563, 1138409.8723457146], [2507882.7072397717, 1138308.9216875185], [2508024.4086459544, 1138216.8223466778], [2508040.3548775814, 1138227.450057345], [2508058.059095179, 1138227.4547851915], [2508109.4173122384, 1138308.9326830192], [2508109.4161955668, 1138331.9567105952], [2508258.2018992053, 1138454.1745651725], [2508114.7241289625, 1138574.6136806274], [2508090.715300662, 1138549.9298970343], [2507979.3437907095, 1138644.5839424464], [2507958.858205901, 1138590.5512559996]]]}, "properties": {"drawing_index": 1612, "label": "Densification à étudier des zones de faible densité", "area_m2": 83997.17502460897}}, {"type": "Feature", "geometry": {"type": "Polygon", "coordinates": [[[2508395.187140607, 1138573.744033732], [2508392.3821329414, 1138570.5900803085], [2508383.777318403, 1138556.4161858335], [2508377.4472022797, 1138547.935265606], [2508364.7604903905, 1138534.018259144], [2508271.3655303232, 1138458.3631687167], [2508202.89173572, 1138401.540620492], [2508296.7304051113, 1138299.0372936951], [2508281.5520661813, 1138284.6674714999], [2508301.0886711245, 1138262.412425036], [2508312.792294117, 1138249.5917964103], [2508263.188251452, 1138196.191384572], [2508224.4697218128, 1138151.9625488382], [2508199.114034623, 1138124.070498968], [2508220.2457338474, 1138108.0118180206], [2508334.377945859, 1138023.6733742137], [2508342.7134186057, 1138035.7009315703], [2508403.662239023, 1138104.638184444], [2508404.50758983, 1138103.7947426604], [2508422.256522256, 1138123.6565706804], [2508421.9656394417, 1138131.3132478944], [2508426.9047150956, 1138136.7582934822], [2508433.6666773856, 1138136.336020228], [2508572.2779201907, 1138291.866222282], [2508572.369629673, 1138292.170465424], [2508572.6171419127, 1138293.0409600441], [2508572.979032595, 1138294.4143539332], [2508573.413877407, 1138296.2272948823], [2508573.8802520353, 1138298.4164306817], [2508574.3367321664, 1138300.9184091229], [2508574.7418934866, 1138303.6698779962], [2508575.0543116825, 1138306.6074850927], [2508575.232562441, 1138309.6678782033], [2508575.235221448, 1138312.7877051188], [2508574.93117412, 1138316.7266253533], [2508574.325386531, 1138320.514577199], [2508573.4964680984, 1138324.0894601466], [2508572.523028238, 1138327.3891736865], [2508571.4836763674, 1138330.35161731], [2508570.457021903, 1138332.9146905073], [2508569.5216742605, 1138335.0162927697], [2508568.7562428573, 1138336.5943235874], [2508568.23933711, 1138337.5866824517], [2508568.0495664347, 1138337.9312688527], [2508551.566095995, 1138364.1345389003], [2508541.4221302755, 1138386.9538674494], [2508526.917544848, 1138424.0150322395], [2508521.0451816786, 1138453.0697629421], [2508521.3382085897, 1138476.5497239952], [2508400.2585085104, 1138575.0138029668], [2508395.187140607, 1138573.744033732]]]}, "properties": {"drawing_index": 1613, "label": "Densification à étudier des zones de faible densité", "area_m2": 115257.15412392929}}, {"type": "Feature", "geometry": {"type": "Polygon", "coordinates": [[[2508812.722116202, 1138825.646643572], [2508853.545237722, 1138790.7367335255], [2508933.009068853, 1138733.7066204336], [2509021.108106596, 1138826.5230183462], [2508959.367741846, 1138887.7769937743], [2508959.327653265, 1138887.8243713155], [2508959.1932725254, 1138887.9529662589], [2508958.9434271306, 1138888.1424720832], [2508958.556944583, 1138888.3725822684], [2508958.012652387, 1138888.6229902937], [2508957.2893780456, 1138888.8733896383], [2508956.365949062, 1138889.1034737814], [2508955.2211929406, 1138889.2929362024], [2508953.8339371844, 1138889.4214703809], [2508952.183009296, 1138889.468769796], [2508949.4768896378, 1138889.0899216572], [2508946.467311461, 1138888.0618298443], [2508943.292844409, 1138886.5468083168], [2508940.092058124, 1138884.7071710345], [2508937.003522248, 1138882.7052319576], [2508934.1658064243, 1138880.7033050454], [2508931.717480295, 1138878.8637042579], [2508929.797113502, 1138877.3487435547], [2508928.543275689, 1138876.3207368955], [2508928.094536497, 1138875.9419982403], [2508908.2324036662, 1138855.6553169698], [2508892.5959033845, 1138847.6266402686], [2508871.886069605, 1138843.3994087703], [2508840.6125977836, 1138837.0586588772], [2508821.5968640693, 1138831.9863071209], [2508812.722116202, 1138825.646643572]]]}, "properties": {"drawing_index": 1614, "label": "Densification à étudier des zones de faible densité", "area_m2": 15840.509553964606}}, {"type": "Feature", "geometry": {"type": "Polygon", "coordinates": [[[2508570.9737756867, 1139032.2942193975], [2508573.6257744627, 1139030.2129403257], [2508562.256590815, 1139010.4197773635], [2508593.7972785356, 1138989.610884385], [2508626.33666834, 1139034.8307921407], [2508682.964269301, 1139101.188162426], [2508730.7174400915, 1139159.0874892513], [2508743.480918926, 1139185.7218725046], [2508802.1321525946, 1139317.5728556872], [2508802.047198789, 1139327.398652157], [2508792.7422067462, 1139334.6039169347], [2508746.9399252925, 1139355.1058075782], [2508730.7077655373, 1139358.5617090603], [2508719.297384761, 1139350.534742011], [2508710.437229929, 1139335.8236630121], [2508688.565164697, 1139295.5349066937], [2508660.5246723304, 1139254.743716704], [2508632.557779296, 1139221.0686101886], [2508589.561581732, 1139184.8621114425], [2508567.1633907845, 1139173.8712440876], [2508538.849013801, 1139151.4711468255], [2508543.2217559633, 1139071.2125963464], [2508579.627910058, 1139046.721762973], [2508570.9737756867, 1139032.2942193975]]]}, "properties": {"drawing_index": 1615, "label": "Densification à étudier des zones de faible densité", "area_m2": 40836.69569659455}}, {"type": "Feature", "geometry": {"type": "Polygon", "coordinates": [[[2508356.457271511, 1138630.3561006796], [2508381.661606176, 1138621.0772928398], [2508383.3491837652, 1138643.9146065637], [2508386.7050561924, 1138652.8302361765], [2508414.4251194587, 1138656.751497029], [2508420.5408284017, 1138656.1565836968], [2508420.116031049, 1138663.765319487], [2508411.242024037, 1138679.8226603426], [2508398.1383710215, 1138695.4606341252], [2508376.697876427, 1138725.078221354], [2508358.4111773088, 1138752.931397279], [2508326.5364200105, 1138727.8175374654], [2508317.841017225, 1138728.8420204027], [2508310.7401505867, 1138747.570691025], [2508300.807972379, 1138760.3507791017], [2508254.4705757797, 1138813.7852296247], [2508283.6033396223, 1138843.9402922615], [2508255.2866945476, 1138868.3046946242], [2508237.956814643, 1138883.9390241562], [2508289.068110684, 1138939.7605454347], [2508245.6116749584, 1138990.3880404583], [2508224.0044316747, 1139007.7654462717], [2508142.721761869, 1138916.2876877747], [2508116.244590367, 1138883.086199019], [2508215.1405932596, 1138778.7059169058], [2508356.457271511, 1138630.3561006796]]]}, "properties": {"drawing_index": 1616, "label": "Densification à étudier des zones de faible densité", "area_m2": 34430.52645191538}}, {"type": "Feature", "geometry": {"type": "Polygon", "coordinates": [[[2508598.449524773, 1138318.5973406455], [2508580.6366946655, 1138344.2124297824], [2508567.271871461, 1138370.9317426959], [2508566.8398353076, 1138371.9984082552], [2508565.6345361695, 1138374.9959605718], [2508563.792188029, 1138379.6207331046], [2508561.4490048676, 1138385.5690593119], [2508558.7412006687, 1138392.5372726517], [2508555.804989414, 1138400.221706583], [2508552.776585086, 1138408.3186945638], [2508549.792201667, 1138416.524570053], [2508546.9880531393, 1138424.5356665084], [2508544.500353485, 1138432.0483173889], [2508542.447545859, 1138439.121742478], [2508540.7535263556, 1138446.161583658], [2508539.3846830856, 1138453.0003770129], [2508538.307404159, 1138459.4706586264], [2508537.4880776866, 1138465.404964582], [2508536.8930917797, 1138470.6358309642], [2508536.4888345483, 1138474.9957938562], [2508536.241694103, 1138478.317389342], [2508536.118058555, 1138480.4331535052], [2508536.084316014, 1138481.17562243], [2508591.304424798, 1138595.6234805803], [2508648.8941524546, 1138540.3300014967], [2508670.24629209, 1138517.5361513083], [2508607.7683764086, 1138462.184184976], [2508584.743682146, 1138440.4728446105], [2508620.8747144677, 1138391.1848078065], [2508640.3761365116, 1138367.4927865455], [2508598.449524773, 1138318.5973406455]]]}, "properties": {"drawing_index": 1617, "label": "Densification à étudier des zones de faible densité", "area_m2": 17181.796821818472}}, {"type": "Feature", "geometry": {"type": "Polygon", "coordinates": [[[2508032.760659003, 1139082.2476951566], [2508032.91063335, 1139082.3511464368], [2508033.3305587266, 1139082.6319433919], [2508033.9754386377, 1139083.0457506941], [2508034.8002765877, 1139083.5482330152], [2508035.7600760814, 1139084.0950550279], [2508036.8098406233, 1139084.6418814035], [2508037.904573717, 1139085.1443768148], [2508038.9992788685, 1139085.5582059335], [2508040.0489595816, 1139085.839033432], [2508041.008619361, 1139085.9425239821], [2508041.9656213066, 1139085.9002647053], [2508043.00903539, 1139085.785485577], [2508044.0947810174, 1139085.6163154698], [2508045.178777597, 1139085.4108832567], [2508046.216944535, 1139085.1873178098], [2508047.1652012384, 1139084.9637480024], [2508047.979467114, 1139084.7583027072], [2508048.615661569, 1139084.5891107966], [2508049.02970401, 1139084.4743011435], [2508049.177513845, 1139084.432002621], [2508154.27058779, 1139043.6861764712], [2508154.3656808753, 1139043.6248033089], [2508154.6256100964, 1139043.4491707287], [2508155.0123503995, 1139043.1720090916], [2508155.4878767314, 1139042.806048758], [2508156.0141640385, 1139042.3640200892], [2508156.5531872674, 1139041.8586534455], [2508157.0669213645, 1139041.3026791876], [2508157.517341276, 1139040.7088276765], [2508157.8664219496, 1139040.0898292728], [2508158.0761383306, 1139039.4584143371], [2508158.167030506, 1139038.7797586024], [2508158.1945358254, 1139038.032535219], [2508158.1713307253, 1139037.2497205934], [2508158.1100916434, 1139036.4642911323], [2508158.023495016, 1139035.7092232418], [2508157.9242172805, 1139035.017493329], [2508157.8249348737, 1139034.4220778001], [2508157.738324233, 1139033.9559530618], [2508157.6770617943, 1139033.6520955206], [2508157.6538239955, 1139033.5434815832], [2508131.5373091213, 1139005.54907631], [2508017.564782684, 1139066.0447372545], [2508032.760659003, 1139082.2476951566]]]}, "properties": {"drawing_index": 1618, "label": "Densification à étudier des zones de faible densité", "area_m2": 4808.27422247127}}, {"type": "Feature", "geometry": {"type": "Polygon", "coordinates": [[[2508750.194843386, 1139506.5276765984], [2508730.785726604, 1139477.4031491438], [2508725.9757858017, 1139459.7549087233], [2508718.434006207, 1139419.4879130018], [2508713.1463169213, 1139377.6976416688], [2508733.439491771, 1139367.9891158706], [2508785.4964695177, 1139346.499596147], [2508804.5922656045, 1139336.2310549233], [2508831.37406365, 1139408.5880868402], [2508809.397411996, 1139419.492324752], [2508824.3211905593, 1139452.7003466748], [2508831.3714960488, 1139461.528023985], [2508789.0222383863, 1139484.467025097], [2508750.194843386, 1139506.5276765984]]]}, "properties": {"drawing_index": 1619, "label": "Densification à étudier des zones de faible densité", "area_m2": 13208.119132891288}}, {"type": "Feature", "geometry": {"type": "Polygon", "coordinates": [[[2508762.5631419923, 1139209.3299981025], [2508864.91800596, 1139133.2882398297], [2508823.457379779, 1139096.22608035], [2508739.627973616, 1139158.8682375704], [2508762.5631419923, 1139209.3299981025]]]}, "properties": {"drawing_index": 1620, "label": "Densification à étudier des zones de faible densité", "area_m2": 6306.559524211605}}, {"type": "Feature", "geometry": {"type": "Polygon", "coordinates": [[[2508696.9107436882, 1139105.8355175622], [2508799.188814447, 1139015.4018843104], [2508781.9434415004, 1138994.9674410252], [2508778.4817662374, 1138989.1968105126], [2508838.9207235044, 1138933.836618663], [2508819.90174541, 1138920.3137472116], [2508809.8367318143, 1138910.7954887482], [2508802.5752814123, 1138898.7576656498], [2508743.5709256902, 1138932.1028974564], [2508737.068571613, 1138918.1930694922], [2508671.983560886, 1138956.2291807653], [2508660.573836178, 1138934.6751058057], [2508655.924905514, 1138936.786166748], [2508647.9664534763, 1138920.5343352049], [2508614.3376491712, 1138935.6289824564], [2508665.1694514444, 1139014.6926969697], [2508635.273444539, 1139036.4526299182], [2508676.8339124783, 1139084.6930906696], [2508696.9107436882, 1139105.8355175622]]]}, "properties": {"drawing_index": 1621, "label": "Densification à étudier des zones de faible densité", "area_m2": 22614.08564874466}}, {"type": "Feature", "geometry": {"type": "Polygon", "coordinates": [[[2508878.650273372, 1138617.2640231624], [2508953.933425906, 1138529.6624003667], [2508996.638589978, 1138465.83148295], [2508961.6764967577, 1138450.552087138], [2508950.5142594525, 1138447.4084761282], [2508857.0908900276, 1138374.6976207364], [2508780.053745241, 1138319.6654459406], [2508749.527683841, 1138297.555860352], [2508721.2136143227, 1138268.8163150288], [2508702.1965249274, 1138254.0237054422], [2508705.577770036, 1138247.2620351012], [2508679.376445092, 1138226.129843956], [2508671.3465356976, 1138229.510264192], [2508667.8003001665, 1138225.4513149515], [2508608.8053305196, 1138317.8962303144], [2508723.698496595, 1138446.00800743], [2508853.558629259, 1138589.9687007281], [2508878.650273372, 1138617.2640231624]]]}, "properties": {"drawing_index": 1622, "label": "Densification à étudier des zones de faible densité", "area_m2": 58117.14250436466}}], "crs": {"type": "name", "properties": {"name": "urn:ogc:def:crs:EPSG::2056"}}}
