{"type": "FeatureCollection", "features": [{"type": "Feature", "properties": {"source_sha256": "3b37f3c821d16573023f225211c80c0b3f87ee45df726724c6ca3edf2778e1e9", "source_page": 1, "path_index": 10327, "category": "ZAL", "status": "private_indicative_outline_review_required", "coordinate_space": "EPSG2056", "source_area_points2": 4.940721346996725, "site_identity": "source_code_visually_reviewed", "commune_attribution": "source_map_and_current_geometry_consistent", "plan_status": "consultation_2026_not_verified_approved", "availability": "not_inferred", "vocation": "not_inferred_from_category", "boundary_role": "regional_activity_zone_outline_not_parcel_or_reserve_boundary", "provisional_area_m2": 1825.5577961330307, "provisional_commune_intersections": [{"bfs": 5552, "intersection_m2": 1825.55779613303, "fraction": 0.9999999999999997, "contains_entire_32m_envelope": true}], "commune_stable_within_tested_32m_envelope": [5552], "alignment_status": "independent_complete_cadastral_shape_holdout_passed", "site_code": "47", "bfs": 5552, "page": 1}, "geometry": {"type": "Polygon", "coordinates": [[[2532681.8490167498, 1186956.1588110775], [2532676.403130168, 1186965.0657707897], [2532673.6086230944, 1186969.6697238833], [2532673.7517506606, 1186969.7336676763], [2532673.703650413, 1186969.8445426933], [2532673.6086230944, 1186970.1302365207], [2532674.2280604304, 1186970.6382670226], [2532692.835817232, 1186980.3712162806], [2532692.9155932525, 1186980.4187341451], [2532693.1689994354, 1186980.5454484504], [2532712.3328420273, 1186990.8022674986], [2532716.221923031, 1186992.8660680826], [2532717.064263954, 1186993.1359226217], [2532717.3024188387, 1186993.0092083164], [2532718.2550383788, 1186992.2307366352], [2532722.445625813, 1186988.3571507179], [2532724.272262049, 1186986.1977277647], [2532729.8284272472, 1186978.3866121375], [2532729.971554814, 1186978.2276326155], [2532730.5428919024, 1186977.40222971], [2532733.7984574484, 1186973.1150623795], [2532737.3707807227, 1186969.0191397879], [2532738.100496676, 1186968.3204511877], [2532741.784271744, 1186964.8117555387], [2532742.6254394907, 1186963.795694535], [2532742.54566347, 1186963.7640159584], [2532743.149849508, 1186963.1920416637], [2532740.846903502, 1186962.366638758], [2532715.2857279656, 1186953.1264673541], [2532689.469973069, 1186943.7273164282], [2532681.8490167498, 1186956.1588110775]]]}}, {"type": "Feature", "properties": {"source_sha256": "3b37f3c821d16573023f225211c80c0b3f87ee45df726724c6ca3edf2778e1e9", "source_page": 1, "path_index": 10485, "category": "ZAL", "status": "private_indicative_outline_review_required", "coordinate_space": "EPSG2056", "source_area_points2": 10.518470875918865, "site_identity": "source_code_visually_reviewed", "commune_attribution": "source_map_and_current_geometry_consistent", "plan_status": "consultation_2026_not_verified_approved", "availability": "not_inferred", "vocation": "not_inferred_from_category", "boundary_role": "regional_activity_zone_outline_not_parcel_or_reserve_boundary", "provisional_area_m2": 3886.492510367056, "provisional_commune_intersections": [{"bfs": 5903, "intersection_m2": 3886.492510367057, "fraction": 1.0000000000000002, "contains_entire_32m_envelope": true}], "commune_stable_within_tested_32m_envelope": [5903], "alignment_status": "independent_complete_cadastral_shape_holdout_passed", "site_code": "85", "bfs": 5903, "page": 1}, "geometry": {"type": "Polygon", "coordinates": [[[2544451.130250216, 1174212.714661111], [2544445.937769817, 1174219.1278128973], [2544442.3337707696, 1174223.0348373116], [2544437.0005091582, 1174227.401787723], [2544430.0764198424, 1174231.0999681896], [2544428.680339482, 1174231.5434682583], [2544419.360623195, 1174233.6717992756], [2544419.6468783277, 1174234.1645771298], [2544419.423974741, 1174234.2279342823], [2544419.360623195, 1174234.258439578], [2544419.5201752363, 1174234.593997831], [2544419.8205084903, 1174235.4176408157], [2544446.747261791, 1174280.795441491], [2544447.4793240973, 1174281.6824416285], [2544448.2723915963, 1174281.6050051085], [2544448.382670213, 1174281.5721532516], [2544500.7462423122, 1174265.2987512616], [2544501.539309811, 1174264.86933056], [2544501.5698124073, 1174264.6159019496], [2544501.96869251, 1174264.489187644], [2544496.0769987544, 1174227.06622947], [2544488.3457638184, 1174219.7332256893], [2544471.5317943036, 1174209.8096183331], [2544465.2764157485, 1174208.7302001766], [2544451.130250216, 1174212.714661111]]]}}, {"type": "Feature", "properties": {"source_sha256": "3b37f3c821d16573023f225211c80c0b3f87ee45df726724c6ca3edf2778e1e9", "source_page": 1, "path_index": 10505, "category": "ZAL", "status": "private_indicative_outline_review_required", "coordinate_space": "EPSG2056", "source_area_points2": 46.8238576836884, "site_identity": "source_code_visually_reviewed", "commune_attribution": "source_map_and_current_geometry_consistent", "plan_status": "consultation_2026_not_verified_approved", "availability": "not_inferred", "vocation": "not_inferred_from_category", "boundary_role": "regional_activity_zone_outline_not_parcel_or_reserve_boundary", "provisional_area_m2": 17301.048255151105, "provisional_commune_intersections": [{"bfs": 5921, "intersection_m2": 17301.0482551511, "fraction": 0.9999999999999998, "contains_entire_32m_envelope": true}], "commune_stable_within_tested_32m_envelope": [5921], "alignment_status": "independent_complete_cadastral_shape_holdout_passed", "site_code": "103", "bfs": 5921, "page": 1}, "geometry": {"type": "Polygon", "coordinates": [[[2547062.129013329, 1178949.2789684173], [2546989.316970071, 1179014.3268184338], [2546973.98120329, 1179027.9650321854], [2547081.404307714, 1179115.525790449], [2547082.197375213, 1179121.3206233566], [2547066.06619458, 1179143.86521018], [2547060.5733809276, 1179144.6911997257], [2547072.497549651, 1179153.8204961126], [2547132.113700563, 1179070.3239818644], [2547147.815498497, 1179047.9061093463], [2547164.692819557, 1179018.7723786458], [2547164.662316961, 1179018.7723786458], [2547164.376061829, 1179018.8357357986], [2547164.073382221, 1179018.9307715276], [2547163.773048967, 1179018.9941286803], [2547163.4539448847, 1179019.0574858328], [2547163.137187156, 1179019.1055903377], [2547162.820429427, 1179019.1689474904], [2547162.677301861, 1179019.1842001383], [2547162.660877386, 1179019.2006260667], [2547162.51774982, 1179019.2158787146], [2547162.200992091, 1179019.2487305715], [2547161.8842343623, 1179019.2804091477], [2547161.548705805, 1179019.3120877242], [2547161.2319480763, 1179019.327340372], [2547160.9316148222, 1179019.3437663005], [2547160.61251074, 1179019.3437663005], [2547160.596086265, 1179019.3437663005], [2547160.2629040615, 1179019.3590189484], [2547159.929721858, 1179019.3590189484], [2547159.5965396543, 1179019.3590189484], [2547159.246932976, 1179019.3590189484], [2547158.930175247, 1179019.3437663005], [2547158.5805685683, 1179019.327340372], [2547158.23096189, 1179019.2956617957], [2547157.914204161, 1179019.2487305715], [2547157.5810219576, 1179019.2158787146], [2547157.564597483, 1179019.2158787146], [2547157.231415279, 1179019.1525215618], [2547156.9146575504, 1179019.0891644093], [2547156.579128993, 1179019.0258072566], [2547156.2459467896, 1179018.9460241755], [2547155.929189061, 1179018.8826670228], [2547155.596006857, 1179018.7876312938], [2547155.2792491284, 1179018.6925955648], [2547154.946066925, 1179018.5811339072], [2547154.659811792, 1179018.4860981782], [2547154.643387317, 1179018.4860981782], [2547154.6269628424, 1179018.4696722499], [2547154.3266295884, 1179018.359383873], [2547154.0075255064, 1179018.231496287], [2547153.6907677776, 1179018.1047819818], [2547153.374010049, 1179017.961641748], [2547153.087754916, 1179017.8196747948], [2547152.7850753083, 1179017.6601086324], [2547152.4847420543, 1179017.501715751], [2547152.182062447, 1179017.358575517], [2547151.912231789, 1179017.1837567068], [2547151.895807314, 1179017.1837567068], [2547151.895807314, 1179017.168504059], [2547151.611898535, 1179016.9936852488], [2547151.3256434025, 1179016.8036137908], [2547151.0558127444, 1179016.6287949807], [2547150.785982087, 1179016.4222975944], [2547150.5161514287, 1179016.2158002078], [2547150.2298962963, 1179016.0257287498], [2547149.976490113, 1179015.802805435], [2547149.7207375765, 1179015.5810554007], [2547149.4837558684, 1179015.3581320855], [2547068.0042826096, 1178948.8026164917], [2547062.129013329, 1178949.2789684173]]]}}, {"type": "Feature", "properties": {"source_sha256": "3b37f3c821d16573023f225211c80c0b3f87ee45df726724c6ca3edf2778e1e9", "source_page": 1, "path_index": 10529, "category": "ZAL", "status": "private_indicative_outline_review_required", "coordinate_space": "EPSG2056", "source_area_points2": 11.78119981661439, "site_identity": "source_code_visually_reviewed", "commune_attribution": "source_map_and_current_geometry_consistent", "plan_status": "consultation_2026_not_verified_approved", "availability": "not_inferred", "vocation": "not_inferred_from_category", "boundary_role": "regional_activity_zone_outline_not_parcel_or_reserve_boundary", "provisional_area_m2": 4353.060952535759, "provisional_commune_intersections": [{"bfs": 5929, "intersection_m2": 4353.060952535759, "fraction": 1.0, "contains_entire_32m_envelope": true}], "commune_stable_within_tested_32m_envelope": [5929], "alignment_status": "independent_complete_cadastral_shape_holdout_passed", "site_code": "12", "bfs": 5929, "page": 1}, "geometry": {"type": "Polygon", "coordinates": [[[2535591.5878597684, 1174952.134870813], [2535591.3813806563, 1174952.5314396576], [2535591.23825309, 1174952.9444344305], [2535589.6661962136, 1174958.5175173038], [2535577.9015795314, 1175001.6872038806], [2535577.886328233, 1175001.701283248], [2535577.886328233, 1175001.7505610334], [2535568.6780637396, 1175035.2500688648], [2535568.581863244, 1175036.2332780117], [2535569.3925283942, 1175036.6321934173], [2535610.27539259, 1175047.602367073], [2535611.386390995, 1175047.71265545], [2535612.0058283308, 1175047.522583992], [2535612.497389399, 1175047.2855813098], [2535616.5307711456, 1175044.983604763], [2535617.355514417, 1175044.300755451], [2535617.5150664584, 1175044.0144749833], [2535617.800148414, 1175043.8549088212], [2535638.297892997, 1174968.9949131056], [2535634.7408210207, 1174962.914973011], [2535595.684593061, 1174952.2615851185], [2535591.842439128, 1174951.2150188189], [2535591.5878597684, 1174952.134870813]]]}}]}