{"type": "FeatureCollection", "crs": {"type": "name", "properties": {"name": "EPSG:2056"}}, "features": [{"type": "Feature", "id": 52029612, "geometry": {"type": "Polygon", "coordinates": [[[2530120.724, 1175774.109], [2530126.374, 1175775.829], [2530117.5640000002, 1175814.969], [2530075.864, 1175807.389], [2530083.824, 1175782.639], [2530086.154, 1175775.379], [2530087.683, 1175770.469], [2530095.653, 1175771.319], [2530106.653, 1175772.619], [2530109.413, 1175772.789], [2530118.193, 1175773.319], [2530120.724, 1175774.109]]]}, "properties": {"OBJECTID": 52029612, "EGRID": "CH814597838340", "NUMERO": "834", "NO_COM_FED": 5757, "GENRE_TXT": "parcelle priv\u00e9e"}}]}