{"type": "FeatureCollection", "features": [{"type": "Feature", "properties": {"egrid": "CH474509288365"}, "geometry": {"type": "MultiPolygon", "coordinates": [[[[2530651.200505604, 1175261.801152099], [2530652.400505603, 1175271.301152101], [2530655.900505607, 1175271.001152101], [2530654.400505609, 1175253.101152094], [2530651.400505606, 1175253.401152095], [2530652.500505606, 1175261.601152096], [2530651.200505604, 1175261.801152099]]]]}}, {"type": "Feature", "properties": {"egrid": "CH574509848357"}, "geometry": {"type": "MultiPolygon", "coordinates": [[[[2530656.70050562, 1175215.301152076], [2530658.100505617, 1175232.601152081], [2530661.500505621, 1175232.301152082], [2530660.600505623, 1175221.001152076], [2530660.200505624, 1175215.101152076], [2530656.70050562, 1175215.301152076]]]]}}, {"type": "Feature", "properties": {"egrid": "CH814597838340"}, "geometry": {"type": "MultiPolygon", "coordinates": [[[[2530075.900504946, 1175807.401152471], [2530117.600504983, 1175815.001152466], [2530126.400505, 1175775.801152444], [2530120.700504995, 1175774.101152443], [2530118.200504993, 1175773.301152442], [2530109.400504985, 1175772.801152446], [2530106.700504982, 1175772.601152446], [2530095.700504973, 1175771.301152452], [2530087.700504965, 1175770.50115245], [2530086.200504963, 1175775.401152452], [2530083.800504958, 1175782.601152455], [2530075.900504946, 1175807.401152471]]]]}}]}