{"type":"FeatureCollection","crs":{"type":"name","properties":{"name":"EPSG:2056"}},"features":[{"type":"Feature","id":46328057,"geometry":{"type":"Polygon","coordinates":[[[2540680.6529999999,1151986.8149999999],[2540672.0109999999,1151988.4639999999],[2540670.395,1151979.9169999999],[2540677.8509999998,1151978.497],[2540677.5380000002,1151976.8259999999],[2540680.7769999998,1151976.2080000001],[2540681.2280000001,1151978.6629999999],[2540690.0660000001,1151976.9750000001],[2540691.537,1151984.7390000001],[2540688.2039999999,1151985.375],[2540680.6529999999,1151986.8149999999]]]},"properties":{"OBJECTID":46328057,"EGID":280136732}},{"type":"Feature","id":46524394,"geometry":{"type":"Polygon","coordinates":[[[2540709.2519999999,1152022.2479999999],[2540704.466,1152012.72],[2540711.9739999999,1152008.942],[2540714.9560000002,1152007.4399999999],[2540716.5759999999,1152006.625],[2540721.486,1152016.301],[2540722.7060000002,1152015.683],[2540725.344,1152020.882],[2540724.0490000001,1152021.534],[2540718.2409999999,1152024.46],[2540715.537,1152019.091],[2540709.2519999999,1152022.2479999999]]]},"properties":{"OBJECTID":46524394,"EGID":null}},{"type":"Feature","id":46494391,"geometry":{"type":"Polygon","coordinates":[[[2540793.9399999999,1151860.7779999999],[2540795.3489999999,1151866.6980000001],[2540792.0290000001,1151867.5179999999],[2540790.6200000001,1151861.548],[2540793.9399999999,1151860.7779999999]]]},"properties":{"OBJECTID":46494391,"EGID":280038087}},{"type":"Feature","id":46283909,"geometry":{"type":"Polygon","coordinates":[[[2540909.696,1151855.22],[2540911.5810000002,1151855.3670000001],[2540911.2650000001,1151859.4240000001],[2540909.3810000001,1151859.2779999999],[2540909.696,1151855.22]]]},"properties":{"OBJECTID":46283909,"EGID":280131676}},{"type":"Feature","id":46524393,"geometry":{"type":"Polygon","coordinates":[[[2540689.483,1152038.355],[2540680.608,1152039.9720000001],[2540679.5219999999,1152034.1240000001],[2540688.4049999998,1152032.4950000001],[2540689.483,1152038.355]]]},"properties":{"OBJECTID":46524393,"EGID":null}},{"type":"Feature","id":46391342,"geometry":{"type":"Polygon","coordinates":[[[2540724.0490000001,1152021.534],[2540725.344,1152020.882],[2540730.1680000001,1152018.4509999999],[2540732.2790000001,1152022.639],[2540734.9550000001,1152021.298],[2540736.747,1152024.8740000001],[2540734.0800000001,1152026.2109999999],[2540735.5580000002,1152029.142],[2540729.4339999999,1152032.2390000001],[2540724.0490000001,1152021.534]]]},"properties":{"OBJECTID":46391342,"EGID":190079085}},{"type":"Feature","id":46365053,"geometry":{"type":"Polygon","coordinates":[[[2540752.747,1151960.476],[2540748.1179999998,1151948.446],[2540776.148,1151937.686],[2540780.7579999999,1151949.736],[2540752.747,1151960.476]]]},"properties":{"OBJECTID":46365053,"EGID":280003684}},{"type":"Feature","id":46328526,"geometry":{"type":"Polygon","coordinates":[[[2540744.9569999999,1151993.598],[2540744.7859999998,1151989.48],[2540758.8470000001,1151988.8999999999],[2540759.2609999999,1151998.861],[2540759.273,1151999.1459999999],[2540754.5299999998,1151999.3429999999],[2540745.2110000001,1151999.7290000001],[2540745.0499999998,1151995.852],[2540744.9569999999,1151993.598]]]},"properties":{"OBJECTID":46328526,"EGID":280129639}},{"type":"Feature","id":46536985,"geometry":{"type":"Polygon","coordinates":[[[2540779.1129999999,1151998.3330000001],[2540779.7370000002,1152013.206],[2540776.6179999998,1152013.334],[2540777.0600000001,1152023.575],[2540763.0079999999,1152024.162],[2540762.5780000002,1152013.909],[2540762.2650000001,1152005.9739999999],[2540759.9730000002,1152006.064],[2540759.7710000002,1152001.1950000001],[2540754.6159999999,1152001.4080000001],[2540754.5299999998,1151999.3429999999],[2540745.2110000001,1151999.7290000001],[2540744.7859999998,1151989.48],[2540758.8470000001,1151988.8999999999],[2540759.2609999999,1151998.861],[2540770.926,1151998.3689999999],[2540770.4049999998,1151984.621],[2540780.6099999999,1151984.2],[2540781.2080000001,1151998.2439999999],[2540779.1129999999,1151998.3330000001]]]},"properties":{"OBJECTID":46536985,"EGID":null}},{"type":"Feature","id":46476027,"geometry":{"type":"Polygon","coordinates":[[[2540794.2880000002,1151989.9809999999],[2540793.3509999998,1151978.0360000001],[2540823.727,1151970.8119999999],[2540856.074,1151954.2320000001],[2540860.3369999998,1151965.3659999999],[2540827.8259999999,1151982.0049999999],[2540794.2880000002,1151989.9809999999]]]},"properties":{"OBJECTID":46476027,"EGID":280098070}},{"type":"Feature","id":46423749,"geometry":{"type":"Polygon","coordinates":[[[2540918.105,1152031.625],[2540919.4849999999,1152036.665],[2540912.105,1152038.7450000001],[2540910.7450000001,1152033.7450000001],[2540918.105,1152031.625]]]},"properties":{"OBJECTID":46423749,"EGID":280024533}},{"type":"Feature","id":46411551,"geometry":{"type":"Polygon","coordinates":[[[2540712.3390000002,1151882.487],[2540718.1689999998,1151897.297],[2540690.199,1151908.1969999999],[2540684.389,1151893.4269999999],[2540712.3390000002,1151882.487]]]},"properties":{"OBJECTID":46411551,"EGID":785947}},{"type":"Feature","id":46448670,"geometry":{"type":"Polygon","coordinates":[[[2540685.1809999999,1152015.348],[2540689.8319999999,1152014.469],[2540690.1329999999,1152016.1270000001],[2540695.3289999999,1152015.145],[2540697.0269999998,1152024.199],[2540687.1880000001,1152026.0619999999],[2540685.1809999999,1152015.348]]]},"properties":{"OBJECTID":46448670,"EGID":101455271}},{"type":"Feature","id":46332036,"geometry":{"type":"Polygon","coordinates":[[[2540705.4189999998,1151877.1170000001],[2540702.219,1151878.007],[2540700.3390000002,1151873.5870000001],[2540703.5690000001,1151872.1570000001],[2540705.4189999998,1151877.1170000001]]]},"properties":{"OBJECTID":46332036,"EGID":280043978}},{"type":"Feature","id":46344369,"geometry":{"type":"Polygon","coordinates":[[[2540776.8629999999,1152019.0120000001],[2540777.0600000001,1152023.575],[2540763.0079999999,1152024.162],[2540762.5780000002,1152013.909],[2540776.6179999998,1152013.334],[2540776.8629999999,1152019.0120000001]]]},"properties":{"OBJECTID":46344369,"EGID":280129641}},{"type":"Feature","id":46538725,"geometry":{"type":"Polygon","coordinates":[[[2540798.6159999999,1151901.608],[2540798.1850000001,1151898.4609999999],[2540798.4350000001,1151895.0870000001],[2540803.926,1151881.767],[2540835.7680000002,1151869.547],[2540840.2880000002,1151881.2590000001],[2540823.9550000001,1151891.872],[2540798.6159999999,1151901.608]]]},"properties":{"OBJECTID":46538725,"EGID":null}},{"type":"Feature","id":46318854,"geometry":{"type":"Polygon","coordinates":[[[2540785.0490000001,1151896.1170000001],[2540787.9189999998,1151903.6270000001],[2540783.2689999999,1151905.4070000001],[2540783.6689999998,1151906.537],[2540781.3689999999,1151907.4669999999],[2540780.889,1151906.257],[2540777.8790000002,1151907.487],[2540775.0090000001,1151900.007],[2540785.0490000001,1151896.1170000001]]]},"properties":{"OBJECTID":46318854,"EGID":785953}},{"type":"Feature","id":46480862,"geometry":{"type":"Polygon","coordinates":[[[2540802.656,1151952.0730000001],[2540799.0329999998,1151940.575],[2540831.2769999998,1151924.7290000001],[2540847.0699999998,1151922.3810000001],[2540851.4550000001,1151933.78],[2540834.7999999998,1151936.2609999999],[2540802.656,1151952.0730000001]]]},"properties":{"OBJECTID":46480862,"EGID":280098072}},{"type":"Feature","id":46515804,"geometry":{"type":"Polygon","coordinates":[[[2540777.6349999998,1152041.9739999999],[2540773.4449999998,1152035.574],[2540777.3259999999,1152033.1240000001],[2540781.4249999998,1152039.4839999999],[2540777.6349999998,1152041.9739999999]]]},"properties":{"OBJECTID":46515804,"EGID":null}},{"type":"Feature","id":46448753,"geometry":{"type":"Polygon","coordinates":[[[2540875.1060000001,1152005.105],[2540878.4759999998,1152016.0049999999],[2540854.8160000001,1152023.2649999999],[2540855.5559999999,1152025.5449999999],[2540843.5550000002,1152029.2749999999],[2540840.2960000001,1152018.345],[2540837.7659999998,1152009.835],[2540838.0159999998,1152009.7649999999],[2540838.3259999999,1152010.8049999999],[2540849.8659999999,1152007.3049999999],[2540848.7760000001,1152003.875],[2540849.0260000001,1152003.8049999999],[2540849.3760000002,1152004.905],[2540872.6359999999,1151997.865],[2540872.2659999998,1151996.7549999999],[2540873.7459999998,1151996.2649999999],[2540876.3360000001,1152004.7549999999],[2540875.1060000001,1152005.105]]]},"properties":{"OBJECTID":46448753,"EGID":785995}},{"type":"Feature","id":46423740,"geometry":{"type":"Polygon","coordinates":[[[2540895.7850000001,1152038.9240000001],[2540899.0750000002,1152049.844],[2540869.375,1152058.844],[2540866.0950000002,1152047.8840000001],[2540895.7850000001,1152038.9240000001]]]},"properties":{"OBJECTID":46423740,"EGID":786011}},{"type":"Feature","id":46350681,"geometry":{"type":"Polygon","coordinates":[[[2540668.2289999998,1151913.956],[2540663.909,1151908.6469999999],[2540666.7390000001,1151906.537],[2540667.3190000001,1151907.247],[2540669.8190000001,1151905.3870000001],[2540670.3489999999,1151906.1070000001],[2540672.8390000002,1151904.227],[2540675.2089999998,1151907.3370000001],[2540677.6689999998,1151905.4269999999],[2540678.1890000002,1151906.1570000001],[2540680.7289999998,1151904.297],[2540681.2390000001,1151904.977],[2540683.6890000002,1151903.1070000001],[2540688.2990000001,1151908.8670000001],[2540675.8990000002,1151913.666],[2540675.2689999999,1151912.9669999999],[2540672.1490000002,1151914.246],[2540671.0090000001,1151912.7860000001],[2540668.2289999998,1151913.956]]]},"properties":{"OBJECTID":46350681,"EGID":280009372}},{"type":"Feature","id":46528894,"geometry":{"type":"Polygon","coordinates":[[[2540730.7820000001,1151862.0530000001],[2540732.8310000002,1151867.4580000001],[2540730.5380000002,1151868.328],[2540728.4359999998,1151862.9450000001],[2540730.7820000001,1151862.0530000001]]]},"properties":{"OBJECTID":46528894,"EGID":null}},{"type":"Feature","id":46351423,"geometry":{"type":"Polygon","coordinates":[[[2540720.6000000001,1152029.9890000001],[2540714.679,1152033.0049999999],[2540709.2519999999,1152022.2479999999],[2540715.537,1152019.091],[2540718.2409999999,1152024.46],[2540720.9300000002,1152029.824],[2540720.6000000001,1152029.9890000001]]]},"properties":{"OBJECTID":46351423,"EGID":190079087}},{"type":"Feature","id":46438683,"geometry":{"type":"Polygon","coordinates":[[[2540724.0490000001,1152021.534],[2540729.4339999999,1152032.2390000001],[2540723.3100000001,1152035.3359999999],[2540720.6000000001,1152029.9890000001],[2540720.9300000002,1152029.824],[2540718.2409999999,1152024.46],[2540724.0490000001,1152021.534]]]},"properties":{"OBJECTID":46438683,"EGID":190079086}},{"type":"Feature","id":46324531,"geometry":{"type":"Polygon","coordinates":[[[2540748.642,1151848.4169999999],[2540762.3310000002,1151844.9820000001],[2540761.719,1151842.5449999999],[2540766.4580000001,1151841.3629999999],[2540769.6209999998,1151853.973],[2540751.1859999998,1151858.5859999999],[2540748.642,1151848.4169999999]]]},"properties":{"OBJECTID":46324531,"EGID":280098582}},{"type":"Feature","id":46340891,"geometry":{"type":"Polygon","coordinates":[[[2540746.7680000002,1151924.8160000001],[2540746.2280000001,1151923.5260000001],[2540746.588,1151922.6270000001],[2540749.5279999999,1151921.507],[2540750.4279999998,1151921.9569999999],[2540750.9479999999,1151923.277],[2540751.338,1151923.0970000001],[2540754.3879999998,1151930.966],[2540749.338,1151932.926],[2540749.398,1151933.226],[2540747.4780000001,1151933.916],[2540747.3679999998,1151933.666],[2540746.2280000001,1151934.1359999999],[2540743.1779999998,1151926.226],[2540746.7680000002,1151924.8160000001]]]},"properties":{"OBJECTID":46340891,"EGID":785949}},{"type":"Feature","id":46538727,"geometry":{"type":"Polygon","coordinates":[[[2540793.4980000001,1151978.0020000001],[2540793.173,1151973.8829999999],[2540821.9619999998,1151967.0390000001],[2540833.7599999998,1151960.9909999999],[2540830.8220000002,1151955.26],[2540835.5550000002,1151953.23],[2540835.9199999999,1151953.9439999999],[2540843.8700000001,1151950.527],[2540845.2149999999,1151953.1510000001],[2540853.1349999998,1151949.091],[2540853.8190000001,1151950.425],[2540854.3199999998,1151950.169],[2540855.912,1151954.3149999999],[2540823.727,1151970.8119999999],[2540793.4980000001,1151978.0020000001]]]},"properties":{"OBJECTID":46538727,"EGID":null}},{"type":"Feature","id":46317206,"geometry":{"type":"Polygon","coordinates":[[[2540860.5750000002,1151922.7579999999],[2540859.8659999999,1151910.791],[2540885.0759999999,1151912.3400000001],[2540909.0690000001,1151907.496],[2540910.4879999999,1151919.3629999999],[2540885.9449999998,1151924.3400000001],[2540860.5750000002,1151922.7579999999]]]},"properties":{"OBJECTID":46317206,"EGID":280098071}},{"type":"Feature","id":46328064,"geometry":{"type":"Polygon","coordinates":[[[2540868.9819999998,1151961.473],[2540868.3339999998,1151949.8570000001],[2540891.3420000002,1151944.2679999999],[2540909.483,1151943.226],[2540910.1510000001,1151954.625],[2540892.9380000001,1151955.6529999999],[2540868.9819999998,1151961.473]]]},"properties":{"OBJECTID":46328064,"EGID":280098067}},{"type":"Feature","id":46331853,"geometry":{"type":"Polygon","coordinates":[[[2540917.3250000002,1152043.3540000001],[2540917.2567118914,1152042.9830508258],[2540917.253087644,1152042.6058858479],[2540917.3142347638,1152042.233692907],[2540917.4383394448,1152041.8775123574],[2540917.6217203713,1152041.547909579],[2540917.8589379168,1152041.2546615752],[2540918.1429554997,1152041.0064669577],[2540918.4653483108,1152040.810687921],[2540918.8165532146,1152040.6731318561],[2540919.1861524251,1152040.5978790871],[2540919.5631825249,1152040.587161836],[2540919.936459675,1152040.6412980084],[2540920.2949113585,1152040.7586817637],[2540920.6279048286,1152040.9358311489],[2540920.9255625028,1152041.1674913839],[2540921.1790549662,1152041.4467907338],[2540921.3808628735,1152041.7654443453],[2540921.5249999999,1152042.1140000001],[2540925.2650000001,1152041.085],[2540927.0249999999,1152047.534],[2540920.9449999998,1152049.314],[2540921.0449999999,1152049.594],[2540919.2850000001,1152050.1640000001],[2540919.145,1152049.8540000001],[2540913.7250000001,1152051.4939999999],[2540911.7250000001,1152045.024],[2540917.3250000002,1152043.3540000001]]]},"properties":{"OBJECTID":46331853,"EGID":786016}},{"type":"Feature","id":46382330,"geometry":{"type":"Polygon","coordinates":[[[2540715.5090000001,1151867.497],[2540716.2489999998,1151870.297],[2540708.4989999998,1151872.4369999999],[2540707.7289999998,1151869.787],[2540715.5090000001,1151867.497]]]},"properties":{"OBJECTID":46382330,"EGID":280036359}},{"type":"Feature","id":46369228,"geometry":{"type":"Polygon","coordinates":[[[2540729.307,1151975.5649999999],[2540722.3969999999,1151966.365],[2540721.017,1151967.575],[2540720.6170000001,1151967.085],[2540732.267,1151957.746],[2540743.6269999999,1151972.105],[2540729.4870000002,1151978.575],[2540728.287,1151976.385],[2540729.307,1151975.5649999999]]]},"properties":{"OBJECTID":46369228,"EGID":785946}},{"type":"Feature","id":46460786,"geometry":{"type":"Polygon","coordinates":[[[2540745.426,1151879.7320000001],[2540742.466,1151872.0759999999],[2540746.5559999999,1151870.487],[2540747.0699999998,1151871.8100000001],[2540752.2459999998,1151869.8429999999],[2540756.7590000001,1151881.5970000001],[2540750.5210000002,1151883.9879999999],[2540747.514,1151885.1410000001],[2540745.426,1151879.7320000001]]]},"properties":{"OBJECTID":46460786,"EGID":190087396}},{"type":"Feature","id":46445965,"geometry":{"type":"Polygon","coordinates":[[[2540780.8709999998,1151990.3200000001],[2540781.2080000001,1151998.2439999999],[2540770.9380000001,1151998.6780000001],[2540770.926,1151998.3689999999],[2540770.4049999998,1151984.621],[2540780.6099999999,1151984.2],[2540780.696,1151986.21],[2540780.8709999998,1151990.3200000001]]]},"properties":{"OBJECTID":46445965,"EGID":280125033}},{"type":"Feature","id":46313156,"geometry":{"type":"Polygon","coordinates":[[[2540797.4279999998,1152010.1540000001],[2540810.6660000002,1152009.361],[2540797.1200000001,1152024.531],[2540796.807,1152018.7390000001],[2540796.3459999999,1152010.2150000001],[2540797.4279999998,1152010.1540000001]]]},"properties":{"OBJECTID":46313156,"EGID":3101998}},{"type":"Feature","id":46360130,"geometry":{"type":"Polygon","coordinates":[[[2540814.5099999998,1151848.318],[2540815,1151850.2779999999],[2540819.5800000001,1151849.2379999999],[2540821.46,1151857.4979999999],[2540809.6699999999,1151860.1580000001],[2540807.3999999999,1151849.9480000001],[2540814.5099999998,1151848.318]]]},"properties":{"OBJECTID":46360130,"EGID":785952}},{"type":"Feature","id":46317447,"geometry":{"type":"Polygon","coordinates":[[[2540830.662,1152030.4720000001],[2540821.892,1152033.1129999999],[2540819.0210000002,1152023.638],[2540827.8020000001,1152020.9990000001],[2540830.662,1152030.4720000001]]]},"properties":{"OBJECTID":46317447,"EGID":280102372}},{"type":"Feature","id":46342699,"geometry":{"type":"Polygon","coordinates":[[[2540830.8679999998,1152051.1939999999],[2540822.108,1152053.827],[2540819.2519999999,1152044.355],[2540828.0180000002,1152041.723],[2540830.8679999998,1152051.1939999999]]]},"properties":{"OBJECTID":46342699,"EGID":280102371}},{"type":"Feature","id":46538726,"geometry":{"type":"Polygon","coordinates":[[[2540855.4649999999,1151878.054],[2540854.6189999999,1151865.3729999999],[2540886.423,1151858.598],[2540911.1830000002,1151860.4809999999],[2540909.253,1151885.2760000001],[2540907.9709999999,1151885.206],[2540908.6140000001,1151873.524],[2540881.8149999999,1151872.071],[2540855.4649999999,1151878.054]]]},"properties":{"OBJECTID":46538726,"EGID":null}},{"type":"Feature","id":46382199,"geometry":{"type":"Polygon","coordinates":[[[2540888.835,1152023.2450000001],[2540885.5959999999,1152012.4650000001],[2540897.5660000001,1152008.855],[2540898.3360000001,1152011.2150000001],[2540915.986,1152005.885],[2540919.2760000001,1152016.625],[2540901.2650000001,1152022.0249999999],[2540900.5759999999,1152019.675],[2540888.835,1152023.2450000001]]]},"properties":{"OBJECTID":46382199,"EGID":785990}},{"type":"Feature","id":46524391,"geometry":{"type":"Polygon","coordinates":[[[2540695.3879999998,1152037.2779999999],[2540689.483,1152038.355],[2540688.4049999998,1152032.4950000001],[2540694.3169999998,1152031.4110000001],[2540695.3879999998,1152037.2779999999]]]},"properties":{"OBJECTID":46524391,"EGID":null}},{"type":"Feature","id":46502452,"geometry":{"type":"Polygon","coordinates":[[[2540740.8999999999,1151881.4639999999],[2540742.9980000001,1151886.8689999999],[2540738.156,1151888.7220000001],[2540736.1150000002,1151883.2949999999],[2540740.8999999999,1151881.4639999999]]]},"properties":{"OBJECTID":46502452,"EGID":280125986}},{"type":"Feature","id":46403172,"geometry":{"type":"Polygon","coordinates":[[[2540794.98,1151854.2179999999],[2540783.7400000002,1151856.9280000001],[2540781.5299999998,1151847.608],[2540792.73,1151844.9180000001],[2540794.98,1151854.2179999999]]]},"properties":{"OBJECTID":46403172,"EGID":785974}},{"type":"Feature","id":46532644,"geometry":{"type":"Polygon","coordinates":[[[2540830.898,1152031.808],[2540839.1099999999,1152059.1740000001],[2540839.2859999998,1152059.121],[2540841.0389999999,1152064.952],[2540830.2799999998,1152068.1799999999],[2540828.952,1152063.7860000001],[2540824.3109999998,1152065.179],[2540820.8909999998,1152053.781],[2540821.9939999999,1152053.45],[2540822.108,1152053.827],[2540830.8679999998,1152051.1939999999],[2540829.7790000001,1152047.575],[2540823.719,1152049.3929999999],[2540822.7590000001,1152046.219],[2540817.1269999999,1152047.915],[2540811.8319999999,1152030.3840000001],[2540820.2919999999,1152027.834],[2540821.892,1152033.1129999999],[2540830.662,1152030.4720000001],[2540829.085,1152025.2490000001],[2540830.753,1152024.7450000001],[2540832.7089999998,1152031.2649999999],[2540830.898,1152031.808]]]},"properties":{"OBJECTID":46532644,"EGID":null}},{"type":"Feature","id":46380157,"geometry":{"type":"Polygon","coordinates":[[[2540917.8360000001,1151982.8160000001],[2540919.1460000002,1151993.7960000001],[2540907.466,1151995.2250000001],[2540906.6060000001,1151987.6359999999],[2540906.0759999999,1151987.716],[2540905.8760000002,1151986.246],[2540906.3360000001,1151986.1459999999],[2540906.2060000002,1151984.246],[2540917.8360000001,1151982.8160000001]]]},"properties":{"OBJECTID":46380157,"EGID":786001}},{"type":"Feature","id":46419948,"geometry":{"type":"Polygon","coordinates":[[[2540696.8489999999,1151866.9269999999],[2540697.9589999998,1151869.727],[2540697.5690000001,1151869.9169999999],[2540699.2990000001,1151873.9569999999],[2540692.4890000001,1151876.9369999999],[2540689.5690000001,1151869.997],[2540696.8489999999,1151866.9269999999]]]},"properties":{"OBJECTID":46419948,"EGID":785964}},{"type":"Feature","id":46510643,"geometry":{"type":"Polygon","coordinates":[[[2540726.7000000002,1151839.4669999999],[2540726.29,1151838.257],[2540732.4500000002,1151836.3570000001],[2540736.7400000002,1151849.6680000001],[2540720.389,1151854.497],[2540716.6890000002,1151842.3370000001],[2540726.7000000002,1151839.4669999999]]]},"properties":{"OBJECTID":46510643,"EGID":785966}},{"type":"Feature","id":46289437,"geometry":{"type":"Polygon","coordinates":[[[2540773.71,1151865.1980000001],[2540777.3689999999,1151874.648],[2540766.2590000001,1151878.9280000001],[2540762.949,1151870.2779999999],[2540769.8089999999,1151867.6580000001],[2540769.5299999998,1151866.848],[2540773.71,1151865.1980000001]]]},"properties":{"OBJECTID":46289437,"EGID":785950}},{"type":"Feature","id":46500998,"geometry":{"type":"Polygon","coordinates":[[[2540740.8999999999,1151881.4639999999],[2540745.426,1151879.7320000001],[2540747.514,1151885.1410000001],[2540742.9980000001,1151886.8689999999],[2540740.8999999999,1151881.4639999999]]]},"properties":{"OBJECTID":46500998,"EGID":280125676}},{"type":"Feature","id":46499039,"geometry":{"type":"Polygon","coordinates":[[[2540800.5899999999,1151914.0870000001],[2540798.5490000001,1151901.6340000001],[2540823.9550000001,1151891.872],[2540840.4500000002,1151881.1540000001],[2540845.0070000002,1151892.9380000001],[2540829.5469999998,1151902.986],[2540800.5899999999,1151914.0870000001]]]},"properties":{"OBJECTID":46499039,"EGID":280098069}},{"type":"Feature","id":46430446,"geometry":{"type":"Polygon","coordinates":[[[2540685.1809999999,1152015.348],[2540687.1880000001,1152026.0619999999],[2540677.3480000002,1152027.9240000001],[2540675.6600000001,1152018.8870000001],[2540680.8480000002,1152017.895],[2540680.5290000001,1152016.227],[2540685.1809999999,1152015.348]]]},"properties":{"OBJECTID":46430446,"EGID":190066564}},{"type":"Feature","id":46335390,"geometry":{"type":"Polygon","coordinates":[[[2540704.6439999999,1151859.094],[2540701.6030000001,1151848.4920000001],[2540707.5989999999,1151846.777],[2540711.7379999999,1151861.1799999999],[2540705.7370000002,1151862.9040000001],[2540704.6439999999,1151859.094]]]},"properties":{"OBJECTID":46335390,"EGID":280127867}},{"type":"Feature","id":46310309,"geometry":{"type":"Polygon","coordinates":[[[2540738.156,1151888.7220000001],[2540735.1669999999,1151889.8600000001],[2540728.8190000001,1151892.2779999999],[2540723.6579999998,1151878.7120000001],[2540728.96,1151876.6950000001],[2540728.4569999999,1151875.378],[2540732.5430000001,1151873.7949999999],[2540736.1150000002,1151883.2949999999],[2540738.156,1151888.7220000001]]]},"properties":{"OBJECTID":46310309,"EGID":190087393}},{"type":"Feature","id":46318045,"geometry":{"type":"Polygon","coordinates":[[[2540764.6779999998,1151927.1359999999],[2540761.4980000001,1151919.1969999999],[2540761.9479999999,1151919.067],[2540761.4180000001,1151917.777],[2540761.7880000002,1151916.8570000001],[2540764.7680000002,1151915.6869999999],[2540765.6379999998,1151916.1469999999],[2540766.1680000001,1151917.4269999999],[2540769.6680000001,1151916.1070000001],[2540772.818,1151923.987],[2540771.5780000002,1151924.487],[2540771.6680000001,1151924.6969999999],[2540769.7680000002,1151925.4070000001],[2540769.6880000001,1151925.1869999999],[2540764.6779999998,1151927.1359999999]]]},"properties":{"OBJECTID":46318045,"EGID":785951}},{"type":"Feature","id":46476450,"geometry":{"type":"Polygon","coordinates":[[[2540856.1189999999,1151890.1040000001],[2540855.3289999999,1151878.085],[2540881.8149999999,1151872.071],[2540908.6140000001,1151873.524],[2540907.9610000001,1151885.389],[2540882.9500000002,1151884.0190000001],[2540856.1189999999,1151890.1040000001]]]},"properties":{"OBJECTID":46476450,"EGID":280098068}},{"type":"Feature","id":46399599,"geometry":{"type":"Polygon","coordinates":[[[2540894.0860000001,1151991.2560000001],[2540896.486,1151999.0249999999],[2540879.0860000001,1152004.335],[2540876.7459999998,1151996.5349999999],[2540894.0860000001,1151991.2560000001]]]},"properties":{"OBJECTID":46399599,"EGID":280009659}}]}