{"type":"FeatureCollection","crs":{"type":"name","properties":{"name":"EPSG:2056"}},"features":[{"type":"Feature","id":52156063,"geometry":{"type":"Polygon","coordinates":[[[2540792.8849999998,1152035.594],[2540791.7659999998,1152012.9850000001],[2540791.2259999998,1152005.415],[2540823.156,1152003.7849999999],[2540815.8960000002,1152010.8049999999],[2540805.7859999998,1152022.7250000001],[2540797.1850000001,1152034.9439999999],[2540792.8849999998,1152035.594]]]},"properties":{"OBJECTID":52156063,"NUMERO":"1738","EGRID":"CH580183457640","NO_COM_FED":5590,"GENRE_TXT":"parcelle privée","SUPERFICIE_MO":512,"SUPERFICIE_RF":512}},{"type":"Feature","id":52137847,"geometry":{"type":"Polygon","coordinates":[[[2540786.3160000001,1152027.4240000001],[2540786.835,1152038.4939999999],[2540786.6500122026,1152040.7989142083],[2540786.1850000001,1152043.064],[2540785.7039953116,1152044.32273684],[2540785.0707425172,1152045.5121799198],[2540784.2949999999,1152046.6140000001],[2540783.6105121234,1152047.5843020235],[2540782.7725508027,1152048.4256286509],[2540781.8050000002,1152049.1140000001],[2540781.0812139106,1152049.5337565509],[2540780.3062250293,1152049.8491199915],[2540779.4950000001,1152050.054],[2540778.9620689899,1152050.1026685305],[2540778.4278329643,1152050.0714282284],[2540777.9042068035,1152049.9609758351],[2540777.4028687594,1152049.7737747321],[2540776.9350000001,1152049.514],[2540776.3396549621,1152049.001518823],[2540775.8259483869,1152048.4072308242],[2540775.4049999998,1152047.7439999999],[2540770.3450000002,1152040.034],[2540764.2760000001,1152031.094],[2540786.3160000001,1152027.4240000001]]]},"properties":{"OBJECTID":52137847,"NUMERO":"1743","EGRID":"CH182883457629","NO_COM_FED":5590,"GENRE_TXT":"parcelle privée","SUPERFICIE_MO":325,"SUPERFICIE_RF":328}},{"type":"Feature","id":52163135,"geometry":{"type":"Polygon","coordinates":[[[2540737.5469999998,1151995.7749999999],[2540737.4122859752,1151994.7425084163],[2540737.428871504,1151993.701397635],[2540737.5964052626,1151992.6737210427],[2540737.9113384578,1151991.6812474555],[2540738.3670000001,1151990.7450000001],[2540741.3569999998,1151985.5449999999],[2540750.267,1151981.3049999999],[2540751.8369999998,1151980.4650000001],[2540772.9169999999,1151972.726],[2540780.4070000001,1151974.0759999999],[2540785.057,1151981.135],[2540786.216,1151999.5449999999],[2540788.1359999999,1152026.9439999999],[2540786.3160000001,1152027.4240000001],[2540764.2760000001,1152031.094],[2540756.6859999998,1152020.7339999999],[2540752.7010448636,1152015.4580574248],[2540748.5460000001,1152010.3149999999],[2540739.9759999998,1152000.2549999999],[2540739.216885563,1151999.5366074534],[2540738.5803137058,1151998.7076811297],[2540738.0821555057,1151997.7888879068],[2540737.7348310938,1151996.8031352339],[2540737.5469999998,1151995.7749999999]]]},"properties":{"OBJECTID":52163135,"NUMERO":"1744","EGRID":"CH507645088379","NO_COM_FED":5590,"GENRE_TXT":"parcelle privée","SUPERFICIE_MO":2061,"SUPERFICIE_RF":2073}},{"type":"Feature","id":52127286,"geometry":{"type":"Polygon","coordinates":[[[2540761.3480000002,1151933.0260000001],[2540789.0580000002,1151922.4269999999],[2540790.6680000001,1151921.827],[2540793.4879999999,1151920.777],[2540794.2880000002,1151927.747],[2540794.4879999999,1151936.0959999999],[2540794.3080000002,1151940.0060000001],[2540792.6880000001,1151947.8459999999],[2540790.747,1151954.936],[2540788.3769999999,1151960.996],[2540787.537,1151962.206],[2540785.8969999999,1151963.3759999999],[2540783.557,1151964.6359999999],[2540778.8769999999,1151966.186],[2540770.6269999999,1151969.2960000001],[2540753.2370000002,1151974.7250000001],[2540751.4369999999,1151973.2450000001],[2540745.3870000001,1151975.1950000001],[2540730.5070000002,1151980.2649999999],[2540728.8520101686,1151980.6674973734],[2540727.1558928913,1151980.8230019133],[2540725.4553050138,1151980.7281528225],[2540723.787,1151980.385],[2540722.1375580123,1151979.9512099472],[2540720.5806773026,1151979.2548227431],[2540719.1578511316,1151978.3143981749],[2540717.9070000001,1151977.155],[2540697.838,1151957.186],[2540688.4079999998,1151947.3859999999],[2540679.5279999999,1151937.3959999999],[2540681.9079999998,1151924.5260000001],[2540727.4989999998,1151906.557],[2540740.2579999999,1151941.1159999999],[2540761.3480000002,1151933.0260000001]]]},"properties":{"OBJECTID":52127286,"NUMERO":"1755","EGRID":"CH167683452315","NO_COM_FED":5590,"GENRE_TXT":"parcelle privée","SUPERFICIE_MO":4943,"SUPERFICIE_RF":4941}},{"type":"Feature","id":52031394,"geometry":{"type":"Polygon","coordinates":[[[2540783.7990000001,1151884.767],[2540784.7731262688,1151884.5170069861],[2540785.7726755897,1151884.4060130671],[2540786.7779151993,1151884.4362094472],[2540787.7689999999,1151884.6070000001],[2540788.6942358715,1151884.9902438677],[2540789.5467217276,1151885.515796097],[2540790.3047452443,1151886.1702711754],[2540790.949,1151886.9369999999],[2540791.4616332143,1151887.8034517327],[2540791.8218664723,1151888.7435386528],[2540792.0195176317,1151889.7306888117],[2540792.0490000001,1151890.737],[2540790.5389999999,1151906.9169999999],[2540775.8679999998,1151912.727],[2540769.2590000001,1151890.277],[2540773.7489999998,1151888.6170000001],[2540783.7990000001,1151884.767]]]},"properties":{"OBJECTID":52031394,"NUMERO":"1756","EGRID":"CH567683452571","NO_COM_FED":5590,"GENRE_TXT":"parcelle privée","SUPERFICIE_MO":454,"SUPERFICIE_RF":449}},{"type":"Feature","id":52153414,"geometry":{"type":"Polygon","coordinates":[[[2540915.8769999999,1151958.3559999999],[2540894.1370000001,1151964.2660000001],[2540879.4670000002,1151968.7660000001],[2540865.017,1151974.706],[2540851.5269999998,1151981.8859999999],[2540841.9160000002,1151988.395],[2540838.7960000001,1151990.5449999999],[2540826.946,1152000.105],[2540823.156,1152003.7849999999],[2540791.2259999998,1152005.415],[2540790.926,1151999.405],[2540790.5269999998,1151991.0249999999],[2540790.2069999999,1151982.125],[2540790.807,1151966.3559999999],[2540793.1170000001,1151959.0060000001],[2540794.7170000002,1151954.0260000001],[2540796.9580000001,1151944.0560000001],[2540799.048,1151930.0870000001],[2540797.5780000002,1151915.827],[2540796.4989999998,1151904.6669999999],[2540797.3990000002,1151886.6869999999],[2540801.7489999998,1151879.798],[2540804.2689999999,1151874.4080000001],[2540835.1189999999,1151866.358],[2540880.889,1151857.588],[2540897.679,1151854.2280000001],[2540909.219,1151853.8089999999],[2540914.5989999999,1151855.0490000001],[2540911.8790000002,1151892.058],[2540912.3280000002,1151901.298],[2540918.787,1151954.0660000001],[2540915.8769999999,1151958.3559999999]]]},"properties":{"OBJECTID":52153414,"NUMERO":"2034","EGRID":"CH758283754506","NO_COM_FED":5590,"GENRE_TXT":"parcelle privée","SUPERFICIE_MO":14256,"SUPERFICIE_RF":14256}},{"type":"Feature","id":51981074,"geometry":{"type":"Polygon","coordinates":[[[2540761.3480000002,1151933.0260000001],[2540740.2579999999,1151941.1159999999],[2540727.4989999998,1151906.557],[2540748.2089999998,1151898.4169999999],[2540761.3480000002,1151933.0260000001]]]},"properties":{"OBJECTID":51981074,"NUMERO":"3420","EGRID":"CH138376452335","NO_COM_FED":5590,"GENRE_TXT":"parcelle privée","SUPERFICIE_MO":828,"SUPERFICIE_RF":824}},{"type":"Feature","id":52120861,"geometry":{"type":"Polygon","coordinates":[[[2540761.3480000002,1151933.0260000001],[2540748.2089999998,1151898.4169999999],[2540769.2590000001,1151890.277],[2540775.8679999998,1151912.727],[2540790.5389999999,1151906.9169999999],[2540789.0580000002,1151922.4269999999],[2540761.3480000002,1151933.0260000001]]]},"properties":{"OBJECTID":52120861,"NUMERO":"3421","EGRID":"CH527625834507","NO_COM_FED":5590,"GENRE_TXT":"parcelle privée","SUPERFICIE_MO":962,"SUPERFICIE_RF":958}}]}