{
  "type": "FeatureCollection",
  "crs": {
    "type": "name",
    "properties": {
      "name": "EPSG:2056"
    }
  },
  "features": [
    {
      "type": "Feature",
      "properties": {
        "extended_drawing_index": 3284,
        "label": "Densifier",
        "source_fill": [
          0.9169909358024597,
          0.7339894771575928,
          0.29399558901786804
        ],
        "effective_opacity": 1.0,
        "group_blend_modes": [
          "Normal",
          "Multiply"
        ],
        "clip_rectangles": [
          [
            0.0,
            0.0,
            841.8900146484375,
            935.4329833984375
          ],
          [
            300.2309875488281,
            352.02301025390625,
            389.0780029296875,
            562.1329956054688
          ],
          [
            300.2309875488281,
            352.02301025390625,
            389.0780029296875,
            562.1329956054688
          ]
        ],
        "unclipped_area_pdf_points2": 6834.820357219613,
        "clipped_area_pdf_points2": 6834.820348964796
      },
      "geometry": {
        "type": "Polygon",
        "coordinates": [
          [
            [
              2563263.274618277,
              1129645.7409164032
            ],
            [
              2563270.675336044,
              1129619.867425071
            ],
            [
              2563278.4869889533,
              1129590.862991698
            ],
            [
              2563286.144803386,
              1129561.3196507473
            ],
            [
              2563298.739822351,
              1129510.9843839675
            ],
            [
              2563303.942203994,
              1129489.5979004393
            ],
            [
              2563422.2141830535,
              1129066.9450503497
            ],
            [
              2563422.238073313,
              1129066.9450511946
            ],
            [
              2563428.785798307,
              1129068.7527538226
            ],
            [
              2563444.3892208915,
              1129073.2358076288
            ],
            [
              2563453.6536817644,
              1129076.0290348236
            ],
            [
              2563462.8667380493,
              1129078.9504566726
            ],
            [
              2563471.2584615154,
              1129081.8203690194
            ],
            [
              2563478.058923931,
              1129084.4590677088
            ],
            [
              2563479.502000447,
              1129085.1795034292
            ],
            [
              2563480.955511075,
              1129086.1024334126
            ],
            [
              2563483.884207198,
              1129088.5188843366
            ],
            [
              2563486.82575736,
              1129091.6346368194
            ],
            [
              2563489.760906622,
              1129095.375907199
            ],
            [
              2563492.670400045,
              1129099.6689118138
            ],
            [
              2563495.534982689,
              1129104.439867002
            ],
            [
              2563498.335399616,
              1129109.6149891017
            ],
            [
              2563501.0523958863,
              1129115.1204944511
            ],
            [
              2563503.6667165603,
              1129120.8825993887
            ],
            [
              2563506.159106699,
              1129126.8275202527
            ],
            [
              2563508.510311363,
              1129132.881473381
            ],
            [
              2563510.7010756126,
              1129138.9706751124
            ],
            [
              2563512.71214451,
              1129145.0213417846
            ],
            [
              2563514.524263114,
              1129150.9596897364
            ],
            [
              2563516.1181764873,
              1129156.7119353053
            ],
            [
              2563517.47462969,
              1129162.20429483
            ],
            [
              2563518.0211897404,
              1129164.9768096802
            ],
            [
              2563518.4335911935,
              1129167.9453942003
            ],
            [
              2563518.8839933383,
              1129174.4082186776
            ],
            [
              2563518.881986187,
              1129181.4676611193
            ],
            [
              2563518.483719801,
              1129188.998614382
            ],
            [
              2563517.745344244,
              1129196.8759713229
            ],
            [
              2563516.7230095775,
              1129204.9746247986
            ],
            [
              2563515.472865864,
              1129213.1694676664
            ],
            [
              2563514.051063166,
              1129221.3353927834
            ],
            [
              2563510.917081065,
              1129237.0800611915
            ],
            [
              2563507.770263774,
              1129251.2077728787
            ],
            [
              2563503.2349256156,
              1129270.6088975128
            ],
            [
              2563501.487057767,
              1129276.5573356089
            ],
            [
              2563497.6714885184,
              1129288.1197163856
            ],
            [
              2563485.0114704706,
              1129324.8783384764
            ],
            [
              2563467.6033207662,
              1129374.4688287752
            ],
            [
              2563447.795488698,
              1129430.475252272
            ],
            [
              2563410.374574645,
              1129536.0721588198
            ],
            [
              2563397.4583912464,
              1129572.830771851
            ],
            [
              2563391.536322658,
              1129590.3415780398
            ],
            [
              2563390.1336739436,
              1129594.4352641876
            ],
            [
              2563387.6545910784,
              1129600.7648948547
            ],
            [
              2563379.986896563,
              1129618.9129696698
            ],
            [
              2563369.5727864457,
              1129642.3477623293
            ],
            [
              2563357.451808061,
              1129668.6312326784
            ],
            [
              2563344.663508742,
              1129695.325340562
            ],
            [
              2563338.343972275,
              1129708.0644960308
            ],
            [
              2563332.2474358245,
              1129719.9920458249
            ],
            [
              2563326.5038428074,
              1129730.803234925
            ],
            [
              2563321.243136641,
              1129740.1933083117
            ],
            [
              2563316.5952607417,
              1129747.8575109658
            ],
            [
              2563312.6901585264,
              1129753.4910878676
            ],
            [
              2563310.762391753,
              1129755.7256576177
            ],
            [
              2563308.4873316768,
              1129757.9117076946
            ],
            [
              2563305.8917669975,
              1129760.04776787
            ],
            [
              2563303.0024864166,
              1129762.1323679138
            ],
            [
              2563299.8462786344,
              1129764.1640375976
            ],
            [
              2563296.4499323512,
              1129766.141306692
            ],
            [
              2563289.043979084,
              1129769.9267621962
            ],
            [
              2563280.9989362196,
              1129773.4769725935
            ],
            [
              2563272.529113362,
              1129776.780176051
            ],
            [
              2563263.848820116,
              1129779.8246107358
            ],
            [
              2563255.1723660845,
              1129782.5985148146
            ],
            [
              2563246.714060873,
              1129785.0901264548
            ],
            [
              2563238.6882140846,
              1129787.2876838231
            ],
            [
              2563224.7911341954,
              1129790.7535884131
            ],
            [
              2563215.1956032505,
              1129792.9021339205
            ],
            [
              2563211.620531224,
              1129793.6383128092
            ],
            [
              2563211.6205316326,
              1129793.626754215
            ],
            [
              2563228.4839569223,
              1129746.190343544
            ],
            [
              2563256.8496092693,
              1129665.891431231
            ],
            [
              2563259.904851827,
              1129656.6935480342
            ],
            [
              2563263.274618277,
              1129645.7409164032
            ]
          ]
        ]
      }
    },
    {
      "type": "Feature",
      "properties": {
        "extended_drawing_index": 3288,
        "label": "Densifier",
        "source_fill": [
          0.9169909358024597,
          0.7339894771575928,
          0.29399558901786804
        ],
        "effective_opacity": 1.0,
        "group_blend_modes": [
          "Normal",
          "Multiply"
        ],
        "clip_rectangles": [
          [
            0.0,
            0.0,
            841.8900146484375,
            935.4329833984375
          ],
          [
            286.8739929199219,
            274.8289794921875,
            332.7179870605469,
            352.68096923828125
          ],
          [
            286.8739929199219,
            274.8289794921875,
            332.7179870605469,
            352.68096923828125
          ]
        ],
        "unclipped_area_pdf_points2": 1545.356913142508,
        "clipped_area_pdf_points2": 1545.3569127610037
      },
      "geometry": {
        "type": "Polygon",
        "coordinates": [
          [
            [
              2563172.173455623,
              1130052.7215611187
            ],
            [
              2563170.305627632,
              1130049.129883668
            ],
            [
              2563168.494163954,
              1130044.8242106864
            ],
            [
              2563166.8611859926,
              1130039.7857404188
            ],
            [
              2563166.2186698783,
              1130037.1009396098
            ],
            [
              2563165.779277783,
              1130034.465502189
            ],
            [
              2563165.520702125,
              1130031.8911714235
            ],
            [
              2563165.4206353244,
              1130029.3896905798
            ],
            [
              2563165.6067979685,
              1130024.652251726
            ],
            [
              2563166.159305067,
              1130020.3471317615
            ],
            [
              2563166.8996959706,
              1130016.5682768212
            ],
            [
              2563167.6495100316,
              1130013.4096330388
            ],
            [
              2563168.2302866015,
              1130010.965146549
            ],
            [
              2563168.463565031,
              1130009.3287634864
            ],
            [
              2563169.5128918174,
              1130003.4755511712
            ],
            [
              2563172.347539136,
              1129989.713380275
            ],
            [
              2563181.4933079598,
              1129946.8034189756
            ],
            [
              2563192.141896679,
              1129897.281392059
            ],
            [
              2563200.534330473,
              1129857.829811998
            ],
            [
              2563202.033631591,
              1129851.0533186274
            ],
            [
              2563203.5457317415,
              1129845.0975479223
            ],
            [
              2563205.1023495574,
              1129839.8814840736
            ],
            [
              2563206.735203673,
              1129835.324111272
            ],
            [
              2563208.4760127235,
              1129831.3444137094
            ],
            [
              2563210.356495343,
              1129827.8613755761
            ],
            [
              2563212.408370165,
              1129824.7939810636
            ],
            [
              2563214.6633558255,
              1129822.061214363
            ],
            [
              2563217.153170957,
              1129819.5820596651
            ],
            [
              2563219.9095341954,
              1129817.2755011613
            ],
            [
              2563222.9641641737,
              1129815.0605230427
            ],
            [
              2563226.3487795275,
              1129812.8561095
            ],
            [
              2563234.234840897,
              1129808.1549129076
            ],
            [
              2563243.821467378,
              1129802.5237849127
            ],
            [
              2563246.51995745,
              1129801.015262391
            ],
            [
              2563249.3453866034,
              1129799.6419263731
            ],
            [
              2563255.321291956,
              1129797.2779143148
            ],
            [
              2563261.637643043,
              1129795.3859496699
            ],
            [
              2563268.18289947,
              1129793.9202333712
            ],
            [
              2563274.845520844,
              1129792.8349663513
            ],
            [
              2563281.5139667722,
              1129792.0843495422
            ],
            [
              2563288.0766968597,
              1129791.6225838768
            ],
            [
              2563294.422170714,
              1129791.4038702874
            ],
            [
              2563300.438847942,
              1129791.3824097062
            ],
            [
              2563306.0151881487,
              1129791.5124030663
            ],
            [
              2563315.400695928,
              1129792.043555339
            ],
            [
              2563321.6863709036,
              1129792.6309345658
            ],
            [
              2563323.9798899284,
              1129792.9081482056
            ],
            [
              2563316.013231709,
              1129811.0684618347
            ],
            [
              2563296.92359309,
              1129854.02702859
            ],
            [
              2563285.4625011487,
              1129879.4045440163
            ],
            [
              2563273.9264781293,
              1129904.5002872753
            ],
            [
              2563263.217462039,
              1129927.1538132175
            ],
            [
              2563254.2373908856,
              1129945.2046766935
            ],
            [
              2563249.9472711035,
              1129953.1056278714
            ],
            [
              2563244.9808435612,
              1129961.6711175963
            ],
            [
              2563239.4696176653,
              1129970.7391165036
            ],
            [
              2563233.5451028235,
              1129980.1475952282
            ],
            [
              2563220.982243929,
              1129999.3378746693
            ],
            [
              2563208.3443421354,
              1130017.9457210011
            ],
            [
              2563196.6834727,
              1130034.6748993036
            ],
            [
              2563187.05171088,
              1130048.229174658
            ],
            [
              2563178.0854906077,
              1130060.6257547997
            ],
            [
              2563178.081559952,
              1130060.6257546607
            ],
            [
              2563176.893911428,
              1130059.4006378388
            ],
            [
              2563175.589718925,
              1130057.838136449
            ],
            [
              2563173.975526522,
              1130055.6180447938
            ],
            [
              2563172.173455623,
              1130052.7215611187
            ]
          ]
        ]
      }
    },
    {
      "type": "Feature",
      "properties": {
        "extended_drawing_index": 3292,
        "label": "Densifier",
        "source_fill": [
          0.9169909358024597,
          0.7339894771575928,
          0.29399558901786804
        ],
        "effective_opacity": 1.0,
        "group_blend_modes": [
          "Normal",
          "Multiply"
        ],
        "clip_rectangles": [
          [
            0.0,
            0.0,
            841.8900146484375,
            935.4329833984375
          ],
          [
            374.385009765625,
            329.0009765625,
            398.6759948730469,
            353.02197265625
          ],
          [
            374.385009765625,
            329.0009765625,
            398.676025390625,
            353.02197265625
          ]
        ],
        "unclipped_area_pdf_points2": 421.2827069691676,
        "clipped_area_pdf_points2": 421.28252774356463
      },
      "geometry": {
        "type": "Polygon",
        "coordinates": [
          [
            [
              2563468.092473384,
              1129856.8485601118
            ],
            [
              2563468.0924881096,
              1129856.4321948127
            ],
            [
              2563468.2643199954,
              1129848.7992967833
            ],
            [
              2563469.421503146,
              1129824.9187469103
            ],
            [
              2563471.5211801613,
              1129790.192493687
            ],
            [
              2563471.571141974,
              1129790.1924954539
            ],
            [
              2563495.9267786182,
              1129794.667563218
            ],
            [
              2563525.0995994774,
              1129800.1739474968
            ],
            [
              2563527.4190088874,
              1129800.9443751837
            ],
            [
              2563529.578798213,
              1129802.1275759614
            ],
            [
              2563531.5328472303,
              1129803.5646638356
            ],
            [
              2563533.235035716,
              1129805.0967528117
            ],
            [
              2563535.6993501973,
              1129807.8103900903
            ],
            [
              2563536.6027798667,
              1129808.9973998403
            ],
            [
              2563539.0268883817,
              1129814.5906311031
            ],
            [
              2563544.3599102614,
              1129827.3722593843
            ],
            [
              2563547.20821512,
              1129834.5846292002
            ],
            [
              2563549.692890008,
              1129841.3451864228
            ],
            [
              2563551.450315488,
              1129846.9042937695
            ],
            [
              2563551.942678626,
              1129848.9990420886
            ],
            [
              2563552.107164489,
              1129850.4279807864
            ],
            [
              2563552.107158615,
              1129850.5940697
            ],
            [
              2563551.9765705005,
              1129851.693191425
            ],
            [
              2563551.580143125,
              1129852.8473681095
            ],
            [
              2563550.964179766,
              1129853.9680159811
            ],
            [
              2563550.165270193,
              1129855.0483070104
            ],
            [
              2563548.1649714843,
              1129857.0605064237
            ],
            [
              2563545.871965158,
              1129858.8293421117
            ],
            [
              2563543.57896937,
              1129860.3001898376
            ],
            [
              2563541.578702279,
              1129861.418425364
            ],
            [
              2563539.627226817,
              1129862.3785628697
            ],
            [
              2563526.970497116,
              1129867.4861372702
            ],
            [
              2563517.5985157457,
              1129871.1894463506
            ],
            [
              2563511.933280565,
              1129873.2745844969
            ],
            [
              2563511.9292065287,
              1129873.2745843527
            ],
            [
              2563506.482779996,
              1129862.3773906378
            ],
            [
              2563468.3407337437,
              1129859.6541134855
            ],
            [
              2563468.1524561485,
              1129858.8739170705
            ],
            [
              2563468.092473384,
              1129856.8485601118
            ]
          ]
        ]
      }
    },
    {
      "type": "Feature",
      "properties": {
        "extended_drawing_index": 3296,
        "label": "Densifier",
        "source_fill": [
          0.9169909358024597,
          0.7339894771575928,
          0.29399558901786804
        ],
        "effective_opacity": 1.0,
        "group_blend_modes": [
          "Normal",
          "Multiply"
        ],
        "clip_rectangles": [
          [
            0.0,
            0.0,
            841.8900146484375,
            935.4329833984375
          ],
          [
            157.36500549316406,
            196.35595703125,
            202.64300537109375,
            253.0570068359375
          ],
          [
            157.36500549316406,
            196.35498046875,
            202.64300537109375,
            253.0570068359375
          ]
        ],
        "unclipped_area_pdf_points2": 1339.415638662751,
        "clipped_area_pdf_points2": 1339.4156150614106
      },
      "geometry": {
        "type": "Polygon",
        "coordinates": [
          [
            [
              2562717.479517908,
              1130216.268917518
            ],
            [
              2562732.717273686,
              1130178.8696970635
            ],
            [
              2562817.95619699,
              1130178.1809886035
            ],
            [
              2562817.2660654117,
              1130135.915028679
            ],
            [
              2562817.289047204,
              1130135.9150294918
            ],
            [
              2562874.0834353417,
              1130150.4632037522
            ],
            [
              2562874.083434547,
              1130150.4856776807
            ],
            [
              2562840.6507505835,
              1130236.827848861
            ],
            [
              2562816.7833179953,
              1130298.6870126987
            ],
            [
              2562804.0921797557,
              1130332.0246952982
            ],
            [
              2562804.086402624,
              1130332.0246950937
            ],
            [
              2562745.8793501593,
              1130323.0136643064
            ],
            [
              2562744.499306889,
              1130225.3027483786
            ],
            [
              2562717.4795169816,
              1130216.2951075172
            ],
            [
              2562717.479517908,
              1130216.268917518
            ]
          ]
        ]
      }
    },
    {
      "type": "Feature",
      "properties": {
        "extended_drawing_index": 3300,
        "label": "Densifier",
        "source_fill": [
          0.9169909358024597,
          0.7339894771575928,
          0.29399558901786804
        ],
        "effective_opacity": 1.0,
        "group_blend_modes": [
          "Normal",
          "Multiply"
        ],
        "clip_rectangles": [
          [
            0.0,
            0.0,
            841.8900146484375,
            935.4329833984375
          ],
          [
            396.8349914550781,
            332.51995849609375,
            451.9360046386719,
            361.59600830078125
          ],
          [
            396.8349914550781,
            332.52099609375,
            451.93499755859375,
            361.59600830078125
          ]
        ],
        "unclipped_area_pdf_points2": 1064.3355504734188,
        "clipped_area_pdf_points2": 1064.335501790457
      },
      "geometry": {
        "type": "Polygon",
        "coordinates": [
          [
            [
              2563545.932368115,
              1129793.8660552958
            ],
            [
              2563545.7518971707,
              1129792.35990743
            ],
            [
              2563545.8546341066,
              1129790.963495646
            ],
            [
              2563546.2031078436,
              1129789.6750861628
            ],
            [
              2563546.7598473034,
              1129788.4929451996
            ],
            [
              2563547.4873814066,
              1129787.4153389751
            ],
            [
              2563548.3482390745,
              1129786.4405337085
            ],
            [
              2563550.3200407876,
              1129784.7923909244
            ],
            [
              2563552.375483812,
              1129783.5346465986
            ],
            [
              2563554.214799516,
              1129782.653430483
            ],
            [
              2563556.0459744367,
              1129781.9651018886
            ],
            [
              2563622.684891192,
              1129760.5479486093
            ],
            [
              2563658.9798429394,
              1129768.2862719202
            ],
            [
              2563736.314082013,
              1129802.7913036023
            ],
            [
              2563736.3140781866,
              1129802.8994882626
            ],
            [
              2563733.3494336037,
              1129831.3576708606
            ],
            [
              2563705.3859810703,
              1129832.5465491011
            ],
            [
              2563635.7727443893,
              1129851.580590662
            ],
            [
              2563570.3240101123,
              1129861.0999580924
            ],
            [
              2563558.7973591834,
              1129830.6061943632
            ],
            [
              2563550.4963785056,
              1129807.8849387355
            ],
            [
              2563547.492779817,
              1129799.1462026157
            ],
            [
              2563545.932368115,
              1129793.8660552958
            ]
          ]
        ]
      }
    },
    {
      "type": "Feature",
      "properties": {
        "extended_drawing_index": 3304,
        "label": "Densifier",
        "source_fill": [
          0.9169909358024597,
          0.7339894771575928,
          0.29399558901786804
        ],
        "effective_opacity": 1.0,
        "group_blend_modes": [
          "Normal",
          "Multiply"
        ],
        "clip_rectangles": [
          [
            0.0,
            0.0,
            841.8900146484375,
            935.4329833984375
          ],
          [
            372.28900146484375,
            395.80596923828125,
            405.85699462890625,
            454.833984375
          ],
          [
            372.28900146484375,
            395.8070068359375,
            405.85699462890625,
            454.833984375
          ]
        ],
        "unclipped_area_pdf_points2": 1188.3661957092677,
        "clipped_area_pdf_points2": 1188.3661957092681
      },
      "geometry": {
        "type": "Polygon",
        "coordinates": [
          [
            [
              2563569.5606647073,
              1129440.8854012624
            ],
            [
              2563570.934021729,
              1129441.116651536
            ],
            [
              2563572.4189110347,
              1129441.710416215
            ],
            [
              2563573.889844026,
              1129442.7991485095
            ],
            [
              2563575.221332103,
              1129444.5153016297
            ],
            [
              2563575.795569112,
              1129445.6500526273
            ],
            [
              2563576.2878866675,
              1129446.9913287852
            ],
            [
              2563576.6532390113,
              1129448.5938094587
            ],
            [
              2563576.8686975804,
              1129450.4655509798
            ],
            [
              2563576.919654504,
              1129454.811142128
            ],
            [
              2563576.580199657,
              1129459.616753352
            ],
            [
              2563575.98977526,
              1129464.4710357753
            ],
            [
              2563574.6137866927,
              1129472.6802187096
            ],
            [
              2563573.907226558,
              1129476.147899914
            ],
            [
              2563544.1536606685,
              1129635.006947749
            ],
            [
              2563544.135030853,
              1129636.0387100428
            ],
            [
              2563543.9653511825,
              1129637.108809336
            ],
            [
              2563543.558635091,
              1129638.3531842164
            ],
            [
              2563542.8172876453,
              1129639.6254323013
            ],
            [
              2563541.64371391,
              1129640.7791512078
            ],
            [
              2563539.9403189523,
              1129641.6679385533
            ],
            [
              2563538.8594400976,
              1129641.967232146
            ],
            [
              2563537.609507837,
              1129642.145391955
            ],
            [
              2563534.7663963586,
              1129642.2138375882
            ],
            [
              2563531.714427092,
              1129642.0243317983
            ],
            [
              2563525.7087718886,
              1129641.1782369136
            ],
            [
              2563521.042255615,
              1129640.220649233
            ],
            [
              2563519.1645916593,
              1129639.7651106883
            ],
            [
              2563460.855669416,
              1129617.153776648
            ],
            [
              2563521.5512485923,
              1129438.0660747124
            ],
            [
              2563567.36467334,
              1129441.0422047735
            ],
            [
              2563568.42432857,
              1129440.884212184
            ],
            [
              2563569.5606647073,
              1129440.8854012624
            ]
          ]
        ]
      }
    },
    {
      "type": "Feature",
      "properties": {
        "extended_drawing_index": 3308,
        "label": "Densifier",
        "source_fill": [
          0.9169909358024597,
          0.7339894771575928,
          0.29399558901786804
        ],
        "effective_opacity": 1.0,
        "group_blend_modes": [
          "Normal",
          "Multiply"
        ],
        "clip_rectangles": [
          [
            0.0,
            0.0,
            841.8900146484375,
            935.4329833984375
          ],
          [
            363.23699951171875,
            357.13299560546875,
            392.4289855957031,
            395.82696533203125
          ],
          [
            363.23699951171875,
            357.1329345703125,
            392.4289855957031,
            395.82696533203125
          ]
        ],
        "unclipped_area_pdf_points2": 739.0004271867906,
        "clipped_area_pdf_points2": 739.0004197124093
      },
      "geometry": {
        "type": "Polygon",
        "coordinates": [
          [
            [
              2563484.4032266815,
              1129642.1446712408
            ],
            [
              2563502.1486258013,
              1129648.6124246467
            ],
            [
              2563515.5167857097,
              1129653.748964493
            ],
            [
              2563520.7446003812,
              1129655.9295599593
            ],
            [
              2563524.01958876,
              1129657.5231510547
            ],
            [
              2563525.4646015326,
              1129658.49224153
            ],
            [
              2563526.683537492,
              1129659.5288226826
            ],
            [
              2563527.694727598,
              1129660.6149550828
            ],
            [
              2563528.516502811,
              1129661.7326993002
            ],
            [
              2563529.6651323973,
              1129663.9912654671
            ],
            [
              2563530.276073929,
              1129666.1610057428
            ],
            [
              2563530.4959750855,
              1129668.0984046871
            ],
            [
              2563530.4714835472,
              1129669.659946859
            ],
            [
              2563530.275913101,
              1129671.0813991255
            ],
            [
              2563527.872545733,
              1129685.4777969609
            ],
            [
              2563522.3456911687,
              1129717.6857868775
            ],
            [
              2563519.199978472,
              1129735.3216896837
            ],
            [
              2563516.2202207176,
              1129751.2335634916
            ],
            [
              2563513.722026819,
              1129763.3624326277
            ],
            [
              2563512.752144101,
              1129767.3648105462
            ],
            [
              2563512.02100569,
              1129769.6493214192
            ],
            [
              2563511.0852257432,
              1129771.340228209
            ],
            [
              2563509.9634517552,
              1129772.717221037
            ],
            [
              2563508.6896779775,
              1129773.808561858
            ],
            [
              2563507.297898662,
              1129774.6425126274
            ],
            [
              2563505.8221080597,
              1129775.2473353
            ],
            [
              2563504.2963004224,
              1129775.6512918312
            ],
            [
              2563501.230611048,
              1129775.969654289
            ],
            [
              2563498.3727845512,
              1129775.823695641
            ],
            [
              2563495.9947749437,
              1129775.4395115282
            ],
            [
              2563493.7660224433,
              1129774.8608494692
            ],
            [
              2563429.538555998,
              1129762.0137325658
            ],
            [
              2563429.538556335,
              1129762.0041971542
            ],
            [
              2563464.7310327427,
              1129659.423385157
            ],
            [
              2563478.39953996,
              1129666.2581374983
            ],
            [
              2563484.3820674154,
              1129642.1446704923
            ],
            [
              2563484.4032266815,
              1129642.1446712408
            ]
          ]
        ]
      }
    },
    {
      "type": "Feature",
      "properties": {
        "extended_drawing_index": 3312,
        "label": "Densifier",
        "source_fill": [
          0.9169909358024597,
          0.7339894771575928,
          0.29399558901786804
        ],
        "effective_opacity": 1.0,
        "group_blend_modes": [
          "Normal",
          "Multiply"
        ],
        "clip_rectangles": [
          [
            0.0,
            0.0,
            841.8900146484375,
            935.4329833984375
          ],
          [
            312.2980041503906,
            246.656982421875,
            394.4230041503906,
            316.72601318359375
          ],
          [
            312.2980041503906,
            246.656982421875,
            394.4230041503906,
            316.72601318359375
          ]
        ],
        "unclipped_area_pdf_points2": 2575.0598916132544,
        "clipped_area_pdf_points2": 2575.0598880236266
      },
      "geometry": {
        "type": "Polygon",
        "coordinates": [
          [
            [
              2563526.276536738,
              1130048.9999740766
            ],
            [
              2563525.0644901474,
              1130053.7761736077
            ],
            [
              2563523.616588029,
              1130058.6450744513
            ],
            [
              2563521.913176035,
              1130063.507794665
            ],
            [
              2563519.934599816,
              1130068.265452305
            ],
            [
              2563517.6612050235,
              1130072.8191654289
            ],
            [
              2563515.073337309,
              1130077.0700520931
            ],
            [
              2563512.1513423244,
              1130080.9192303547
            ],
            [
              2563510.5589051214,
              1130082.6622782275
            ],
            [
              2563508.8755657203,
              1130084.2678182707
            ],
            [
              2563505.133667433,
              1130087.376878422
            ],
            [
              2563500.8943358352,
              1130090.5479342395
            ],
            [
              2563496.259518534,
              1130093.7447543314
            ],
            [
              2563491.3311631368,
              1130096.9311073066
            ],
            [
              2563481.0016284874,
              1130103.1274863405
            ],
            [
              2563470.7213127497,
              1130108.8472202092
            ],
            [
              2563461.3057967857,
              1130113.800457781
            ],
            [
              2563453.5706614577,
              1130117.697347924
            ],
            [
              2563446.4038561606,
              1130121.1626813966
            ],
            [
              2563344.9426438035,
              1130152.1833532786
            ],
            [
              2563340.879488476,
              1130153.2363720036
            ],
            [
              2563330.870524065,
              1130155.472043431
            ],
            [
              2563324.658473565,
              1130156.6005373078
            ],
            [
              2563318.186502927,
              1130157.5052904396
            ],
            [
              2563311.8634561966,
              1130158.0131681864
            ],
            [
              2563308.885543061,
              1130158.0641742153
            ],
            [
              2563306.0981774186,
              1130157.951035908
            ],
            [
              2563303.1531682755,
              1130157.4713022276
            ],
            [
              2563300.1632541213,
              1130156.5195498306
            ],
            [
              2563297.1608477463,
              1130155.165179522
            ],
            [
              2563294.178361942,
              1130153.4775921074
            ],
            [
              2563291.2482094984,
              1130151.526188392
            ],
            [
              2563288.402803206,
              1130149.3803691808
            ],
            [
              2563283.0958802383,
              1130144.7830874925
            ],
            [
              2563278.516895364,
              1130140.240953484
            ],
            [
              2563274.925150909,
              1130136.3091735977
            ],
            [
              2563271.740592554,
              1130132.4975019584
            ],
            [
              2563267.96901826,
              1130126.8272505668
            ],
            [
              2563264.27650595,
              1130120.8262190304
            ],
            [
              2563260.287915138,
              1130113.6806126696
            ],
            [
              2563258.395497702,
              1130109.905006993
            ],
            [
              2563256.68454953,
              1130106.1149532865
            ],
            [
              2563255.2402335852,
              1130102.4010167746
            ],
            [
              2563254.147712831,
              1130098.8537626828
            ],
            [
              2563253.49215023,
              1130095.5637562363
            ],
            [
              2563253.358708746,
              1130092.6215626607
            ],
            [
              2563253.514396848,
              1130091.3091973322
            ],
            [
              2563253.8325513415,
              1130090.117747181
            ],
            [
              2563254.323817595,
              1130089.05853286
            ],
            [
              2563254.9988409798,
              1130088.1428750225
            ],
            [
              2563255.762420228,
              1130087.5368112752
            ],
            [
              2563256.947402522,
              1130086.9059477472
            ],
            [
              2563260.464675967,
              1130085.5813737994
            ],
            [
              2563265.3168607573,
              1130084.1922580814
            ],
            [
              2563271.270156334,
              1130082.7617054956
            ],
            [
              2563285.544877615,
              1130079.8687093304
            ],
            [
              2563301.4184353435,
              1130077.0872245226
            ],
            [
              2563317.0204250547,
              1130074.602090291
            ],
            [
              2563330.480442282,
              1130072.5981458544
            ],
            [
              2563343.492941423,
              1130070.7731832424
            ],
            [
              2563377.4294440625,
              1130067.585501301
            ],
            [
              2563409.750777286,
              1130065.5425595408
            ],
            [
              2563412.135636773,
              1130013.150698607
            ],
            [
              2563386.5934228036,
              1130013.6928509474
            ],
            [
              2563391.718740453,
              1130001.049413055
            ],
            [
              2563394.4210981145,
              1129993.7055114775
            ],
            [
              2563396.4816582,
              1129987.0519579765
            ],
            [
              2563397.842562448,
              1129983.1072518355
            ],
            [
              2563399.392145358,
              1129979.0728957318
            ],
            [
              2563401.1066038227,
              1129975.190616888
            ],
            [
              2563402.962134735,
              1129971.7021425276
            ],
            [
              2563404.9349349895,
              1129968.8491998732
            ],
            [
              2563405.9578726483,
              1129967.7365926928
            ],
            [
              2563407.001201478,
              1129966.8735161477
            ],
            [
              2563410.709747412,
              1129964.6996906567
            ],
            [
              2563415.1244778764,
              1129962.7535340597
            ],
            [
              2563420.1149382177,
              1129961.022983665
            ],
            [
              2563425.550673781,
              1129959.4959767812
            ],
            [
              2563431.3012299123,
              1129958.1604507165
            ],
            [
              2563437.2361519574,
              1129957.0043427788
            ],
            [
              2563449.137275172,
              1129955.1821305188
            ],
            [
              2563460.2104061907,
              1129953.9328384679
            ],
            [
              2563469.4119077795,
              1129953.1599650919
            ],
            [
              2563478.025473731,
              1129952.6574682316
            ],
            [
              2563480.900824272,
              1129952.3245129136
            ],
            [
              2563487.635418289,
              1129951.2773700168
            ],
            [
              2563491.5633108476,
              1129950.4633484094
            ],
            [
              2563495.392069372,
              1129949.443624127
            ],
            [
              2563498.7670455608,
              1129948.2091452426
            ],
            [
              2563500.1735376855,
              1129947.5085440977
            ],
            [
              2563501.3335911133,
              1129946.7508598298
            ],
            [
              2563502.3449049266,
              1129945.7352271923
            ],
            [
              2563503.331009765,
              1129944.304409125
            ],
            [
              2563504.2863812237,
              1129942.524735065
            ],
            [
              2563505.2054948993,
              1129940.4625344495
            ],
            [
              2563506.912851286,
              1129935.7558713031
            ],
            [
              2563508.4088836946,
              1129930.715055185
            ],
            [
              2563510.5901956563,
              1129921.7535060302
            ],
            [
              2563511.3958689417,
              1129917.8229709798
            ],
            [
              2563537.358643592,
              1129915.7305123976
            ],
            [
              2563537.391189633,
              1129915.7305135487
            ],
            [
              2563529.840632304,
              1130025.993458264
            ],
            [
              2563529.6964937258,
              1130027.8268932747
            ],
            [
              2563529.1592547977,
              1130032.7998279436
            ],
            [
              2563528.0716807316,
              1130040.1212067257
            ],
            [
              2563526.276536738,
              1130048.9999740766
            ]
          ]
        ]
      }
    },
    {
      "type": "Feature",
      "properties": {
        "extended_drawing_index": 3316,
        "label": "Densifier",
        "source_fill": [
          0.9169909358024597,
          0.7339894771575928,
          0.29399558901786804
        ],
        "effective_opacity": 1.0,
        "group_blend_modes": [
          "Normal",
          "Multiply"
        ],
        "clip_rectangles": [
          [
            0.0,
            0.0,
            841.8900146484375,
            935.4329833984375
          ],
          [
            392.06201171875,
            356.4749755859375,
            403.7460021972656,
            374.1929931640625
          ],
          [
            392.06201171875,
            356.47601318359375,
            403.7460021972656,
            374.1929931640625
          ]
        ],
        "unclipped_area_pdf_points2": 152.46630416840978,
        "clipped_area_pdf_points2": 152.46622778288668
      },
      "geometry": {
        "type": "Polygon",
        "coordinates": [
          [
            [
              2563545.534592144,
              1129778.248730319
            ],
            [
              2563544.6751264716,
              1129778.209492976
            ],
            [
              2563542.1038888837,
              1129777.8957942973
            ],
            [
              2563538.506089213,
              1129777.0444460418
            ],
            [
              2563536.4980344707,
              1129776.3331574672
            ],
            [
              2563534.4443062567,
              1129775.3866614718
            ],
            [
              2563533.4835018166,
              1129774.7934578964
            ],
            [
              2563532.648319403,
              1129774.1028898007
            ],
            [
              2563531.3196988674,
              1129772.5045213052
            ],
            [
              2563530.388201066,
              1129770.7412785003
            ],
            [
              2563529.7835824154,
              1129768.9628839002
            ],
            [
              2563529.435599332,
              1129767.3190600192
            ],
            [
              2563529.274008233,
              1129765.959529372
            ],
            [
              2563529.2346162447,
              1129764.849691882
            ],
            [
              2563529.2346228734,
              1129764.66227705
            ],
            [
              2563533.6297469162,
              1129741.1276550107
            ],
            [
              2563536.6005211193,
              1129724.7621115537
            ],
            [
              2563537.835905148,
              1129716.9767868014
            ],
            [
              2563569.6471374123,
              1129723.2343403273
            ],
            [
              2563569.6471371176,
              1129723.2426702613
            ],
            [
              2563561.3010281734,
              1129772.2575205902
            ],
            [
              2563545.6718152524,
              1129778.2487351722
            ],
            [
              2563545.534592144,
              1129778.248730319
            ]
          ]
        ]
      }
    },
    {
      "type": "Feature",
      "properties": {
        "extended_drawing_index": 3458,
        "label": "Préparer la densification",
        "source_fill": [
          0.9259937405586243,
          0.3969939649105072,
          0.19299611449241638
        ],
        "effective_opacity": 0.8000029921531677,
        "group_blend_modes": [
          "Normal",
          "Multiply"
        ],
        "clip_rectangles": [
          [
            0.0,
            0.0,
            841.8900146484375,
            935.4329833984375
          ],
          [
            298.2170104980469,
            271.14697265625,
            374.24700927734375,
            357.85699462890625
          ],
          [
            298.2170104980469,
            271.14697265625,
            374.2480163574219,
            357.85699462890625
          ]
        ],
        "unclipped_area_pdf_points2": 2877.271313576904,
        "clipped_area_pdf_points2": 2877.2712333881664
      },
      "geometry": {
        "type": "Polygon",
        "coordinates": [
          [
            [
              2563253.1078527253,
              1129994.1752529745
            ],
            [
              2563267.916206532,
              1129968.710940921
            ],
            [
              2563275.0781795713,
              1129956.0457932998
            ],
            [
              2563281.897789996,
              1129943.6858805304
            ],
            [
              2563288.239367779,
              1129931.8266245485
            ],
            [
              2563293.9672428914,
              1129920.6634472902
            ],
            [
              2563305.088154076,
              1129897.877875936
            ],
            [
              2563316.571138074,
              1129873.4772696819
            ],
            [
              2563327.8475733544,
              1129848.895806601
            ],
            [
              2563338.3488383833,
              1129825.5676647658
            ],
            [
              2563354.7513715588,
              1129788.408057123
            ],
            [
              2563361.2297653416,
              1129773.4718713353
            ],
            [
              2563467.6174028325,
              1129793.870036972
            ],
            [
              2563467.617395261,
              1129794.0841229977
            ],
            [
              2563464.868629104,
              1129875.4612919276
            ],
            [
              2563405.877054307,
              1129890.345264778
            ],
            [
              2563413.59508733,
              1129938.310391619
            ],
            [
              2563410.769756733,
              1129939.136472573
            ],
            [
              2563406.385450878,
              1129940.6345050824
            ],
            [
              2563399.2621467784,
              1129943.269582339
            ],
            [
              2563397.106766413,
              1129944.293399414
            ],
            [
              2563394.9908836763,
              1129945.672571704
            ],
            [
              2563392.928235961,
              1129947.3489524177
            ],
            [
              2563390.93256066,
              1129949.2643947636
            ],
            [
              2563389.017595166,
              1129951.36075195
            ],
            [
              2563387.1970768715,
              1129953.5798771856
            ],
            [
              2563383.8943314534,
              1129958.1538446387
            ],
            [
              2563381.134223547,
              1129962.5211227906
            ],
            [
              2563379.026652295,
              1129966.21653731
            ],
            [
              2563377.208716323,
              1129969.7310781237
            ],
            [
              2563374.331237509,
              1129976.9407928349
            ],
            [
              2563367.421996915,
              1129994.7455716764
            ],
            [
              2563359.0657883123,
              1130017.40886671
            ],
            [
              2563355.152819062,
              1130028.7697865681
            ],
            [
              2563351.847405474,
              1130039.1941299974
            ],
            [
              2563351.038437471,
              1130041.5463567786
            ],
            [
              2563350.067383456,
              1130043.748472148
            ],
            [
              2563348.9465571237,
              1130045.8054232595
            ],
            [
              2563347.688272167,
              1130047.722157266
            ],
            [
              2563346.304842279,
              1130049.503621321
            ],
            [
              2563344.8085811534,
              1130051.154762578
            ],
            [
              2563341.5268199616,
              1130054.0858653116
            ],
            [
              2563337.9414981385,
              1130056.5550426939
            ],
            [
              2563334.1511252304,
              1130058.601871952
            ],
            [
              2563330.2542107836,
              1130060.2659303134
            ],
            [
              2563326.3492643447,
              1130061.5867950052
            ],
            [
              2563322.53479546,
              1130062.6040432549
            ],
            [
              2563318.9093136755,
              1130063.3572522895
            ],
            [
              2563312.619349595,
              1130064.2298616227
            ],
            [
              2563308.267448474,
              1130064.5212408225
            ],
            [
              2563306.6416866845,
              1130064.5480077076
            ],
            [
              2563204.720462165,
              1130073.3615377175
            ],
            [
              2563204.6558494056,
              1130073.3615354323
            ],
            [
              2563214.5757715055,
              1130057.5699442339
            ],
            [
              2563225.3522749864,
              1130040.1681301186
            ],
            [
              2563238.558088802,
              1130018.515441203
            ],
            [
              2563253.1078527253,
              1129994.1752529745
            ]
          ]
        ]
      }
    },
    {
      "type": "Feature",
      "properties": {
        "extended_drawing_index": 3462,
        "label": "Préparer la densification",
        "source_fill": [
          0.9259937405586243,
          0.3969939649105072,
          0.19299611449241638
        ],
        "effective_opacity": 0.8000029921531677,
        "group_blend_modes": [
          "Normal",
          "Multiply"
        ],
        "clip_rectangles": [
          [
            0.0,
            0.0,
            841.8900146484375,
            935.4329833984375
          ],
          [
            393.9280090332031,
            489.6159973144531,
            439.7980041503906,
            609.4959716796875
          ],
          [
            393.9280090332031,
            489.614990234375,
            439.7969970703125,
            609.4959716796875
          ]
        ],
        "unclipped_area_pdf_points2": 3052.5508158609746,
        "clipped_area_pdf_points2": 3052.550815854021
      },
      "geometry": {
        "type": "Polygon",
        "coordinates": [
          [
            [
              2563557.614565832,
              1129221.359547637
            ],
            [
              2563566.489282716,
              1129188.9384692872
            ],
            [
              2563575.0707644615,
              1129156.290814621
            ],
            [
              2563578.9932412705,
              1129140.6776669018
            ],
            [
              2563582.53244823,
              1129125.962649983
            ],
            [
              2563585.585064986,
              1129112.4640221577
            ],
            [
              2563588.047771183,
              1129100.500041719
            ],
            [
              2563590.049969577,
              1129088.5360449932
            ],
            [
              2563591.80234739,
              1129075.0373711819
            ],
            [
              2563593.3215516894,
              1129060.322282821
            ],
            [
              2563594.624229543,
              1129044.7090424465
            ],
            [
              2563595.727028018,
              1129028.5159125945
            ],
            [
              2563596.646594183,
              1129012.0611558014
            ],
            [
              2563598.002617854,
              1128979.6398115351
            ],
            [
              2563598.825477098,
              1128949.9911099367
            ],
            [
              2563599.2483484577,
              1128925.6611512948
            ],
            [
              2563599.4268336943,
              1128903.1418640346
            ],
            [
              2563688.1516854074,
              1128915.0911719266
            ],
            [
              2563687.582947551,
              1128957.818763837
            ],
            [
              2563687.0138326325,
              1129011.2076632604
            ],
            [
              2563687.423378016,
              1129019.0490488086
            ],
            [
              2563688.479164766,
              1129031.0624569105
            ],
            [
              2563691.4901024792,
              1129062.5400429978
            ],
            [
              2563692.9255734994,
              1129079.471572095
            ],
            [
              2563693.967926,
              1129095.509825969
            ],
            [
              2563694.2604828137,
              1129102.798248309
            ],
            [
              2563694.357286486,
              1129109.3861988306
            ],
            [
              2563694.357286353,
              1129109.389949154
            ],
            [
              2563694.225957587,
              1129115.1222310157
            ],
            [
              2563693.8339155535,
              1129119.841210272
            ],
            [
              2563692.911719388,
              1129124.384832491
            ],
            [
              2563691.2820958416,
              1129129.6073566193
            ],
            [
              2563689.0508667603,
              1129135.374658605
            ],
            [
              2563686.323853988,
              1129141.552614397
            ],
            [
              2563683.2068793704,
              1129148.0070999425
            ],
            [
              2563679.805764751,
              1129154.6039911904
            ],
            [
              2563672.574402888,
              1129167.6884945864
            ],
            [
              2563665.4763431563,
              1129179.7331321705
            ],
            [
              2563659.3581603146,
              1129189.6649115288
            ],
            [
              2563653.4477243316,
              1129198.8979259122
            ],
            [
              2563594.864064169,
              1129317.763411244
            ],
            [
              2563594.863681836,
              1129317.7634112302
            ],
            [
              2563539.6954539604,
              1129300.1326792932
            ],
            [
              2563535.7146036793,
              1129297.856770964
            ],
            [
              2563542.291678002,
              1129275.3377100055
            ],
            [
              2563549.273176648,
              1129251.0079833248
            ],
            [
              2563557.614565832,
              1129221.359547637
            ]
          ]
        ]
      }
    }
  ]
}