{
  "type": "FeatureCollection",
  "features": [
    {
      "type": "Feature",
      "geometry": {
        "type": "Polygon",
        "coordinates": [
          [
            [
              2560283.190967284,
              1137521.179609798
            ],
            [
              2560492.1047584964,
              1137527.6854216806
            ],
            [
              2560501.9705082024,
              1137516.1671172236
            ],
            [
              2560515.1197860497,
              1137486.5529529862
            ],
            [
              2560524.9797029556,
              1137458.58492742
            ],
            [
              2560511.7423498263,
              1137239.808302902
            ],
            [
              2560329.1317805494,
              1137187.2339394323
            ],
            [
              2560317.6175590525,
              1137188.8829945032
            ],
            [
              2560309.3961981777,
              1137198.755743569
            ],
            [
              2560283.190967284,
              1137521.179609798
            ]
          ]
        ]
      },
      "properties": {
        "site_code": "2.4",
        "bfs": 5408,
        "page": 61,
        "source_boundary": {
          "type": "Polygon",
          "coordinates": [
            [
              [
                279.0,
                231.0
              ],
              [
                406.0,
                227.0
              ],
              [
                412.0,
                234.0
              ],
              [
                420.0,
                252.0
              ],
              [
                426.0,
                269.0
              ],
              [
                418.0,
                402.0
              ],
              [
                307.0,
                434.0
              ],
              [
                300.0,
                433.0
              ],
              [
                295.0,
                427.0
              ],
              [
                279.0,
                231.0
              ]
            ]
          ]
        },
        "source_to_reference_pixels": [
          [
            0.5484722755531624,
            -0.00019447923283149403,
            1470.0781546360047
          ],
          [
            0.00019447923283149403,
            0.5484722755531624,
            210.7040356814367
          ]
        ],
        "reference_extent": {
          "xmin": 2555415.3359999997,
          "ymin": 1134469.370834758,
          "xmax": 2560678.9129999997,
          "ymax": 1138533.2721652423,
          "spatialReference": {
            "wkid": 2056,
            "latestWkid": 2056
          }
        },
        "area_m2": 69156.89762577196,
        "control_hull_coverage": 1.0,
        "status": "private_indicative_outline_review_required",
        "alignment_rmse_m": 2.3731797694639183
      }
    },
    {
      "type": "Feature",
      "geometry": {
        "type": "Polygon",
        "coordinates": [
          [
            [
              2561318.8558965074,
              1137505.2326936333
            ],
            [
              2561317.344130686,
              1137503.7238243774
            ],
            [
              2561291.66873253,
              1137503.7484451842
            ],
            [
              2561290.1569667086,
              1137502.2395759283
            ],
            [
              2561279.584743939,
              1137502.2497139075
            ],
            [
              2561278.0729781175,
              1137500.7408446516
            ],
            [
              2561255.4182150387,
              1137500.762568893
            ],
            [
              2561253.9064492173,
              1137499.253699637
            ],
            [
              2561241.8239089088,
              1137499.265285899
            ],
            [
              2561240.315039653,
              1137500.7770517203
            ],
            [
              2561235.784087037,
              1137500.7813965685
            ],
            [
              2561234.272321216,
              1137499.2725273126
            ],
            [
              2561225.2104159845,
              1137499.2812170093
            ],
            [
              2561223.698650163,
              1137497.7723477534
            ],
            [
              2561219.1676975475,
              1137497.7766926016
            ],
            [
              2561217.6588282916,
              1137499.288458423
            ],
            [
              2561216.14706247,
              1137497.779589167
            ],
            [
              2561185.9407116985,
              1137497.808554822
            ],
            [
              2561184.428945877,
              1137496.2996855662
            ],
            [
              2561152.712277567,
              1137496.330099504
            ],
            [
              2561151.2005117456,
              1137494.821230248
            ],
            [
              2561122.504478513,
              1137494.8487476204
            ],
            [
              2561120.9927126914,
              1137493.3398783645
            ],
            [
              2561113.4411249985,
              1137493.3471197782
            ],
            [
              2561111.929359177,
              1137491.8382505223
            ],
            [
              2561099.8468188685,
              1137491.8498367842
            ],
            [
              2561098.3379496126,
              1137493.3616026056
            ],
            [
              2561095.3173145354,
              1137493.364499171
            ],
            [
              2561093.805548714,
              1137491.8556299154
            ],
            [
              2561090.784913637,
              1137491.8585264808
            ],
            [
              2561089.273147816,
              1137490.349657225
            ],
            [
              2561072.659654891,
              1137490.365588335
            ],
            [
              2561071.1507856357,
              1137491.8773541565
            ],
            [
              2561069.6390198143,
              1137490.3684849006
            ],
            [
              2561040.942986581,
              1137490.3960022728
            ],
            [
              2561039.4312207596,
              1137488.887133017
            ],
            [
              2561007.7145524495,
              1137488.9175469547
            ],
            [
              2561006.202786628,
              1137487.4086776988
            ],
            [
              2561003.1821515514,
              1137487.4115742643
            ],
            [
              2561001.67038573,
              1137485.9027050084
            ],
            [
              2560997.139433114,
              1137485.9070498568
            ],
            [
              2560995.627667293,
              1137484.398180601
            ],
            [
              2560994.117349754,
              1137484.3996288837
            ],
            [
              2560992.6055839327,
              1137482.8907596278
            ],
            [
              2560992.6012390847,
              1137478.3598070121
            ],
            [
              2560991.0894732634,
              1137476.8509377562
            ],
            [
              2560985.048203109,
              1137476.8567308872
            ],
            [
              2560983.5364372875,
              1137475.3478616313
            ],
            [
              2560982.026119749,
              1137475.349309914
            ],
            [
              2560979.0025881063,
              1137472.3315714025
            ],
            [
              2560974.4716354907,
              1137472.3359162507
            ],
            [
              2560972.9598696693,
              1137470.8270469948
            ],
            [
              2560971.449552131,
              1137470.8284952776
            ],
            [
              2560971.448103848,
              1137469.3181777392
            ],
            [
              2560968.424572205,
              1137466.3004392274
            ],
            [
              2560963.8936195895,
              1137466.3047840756
            ],
            [
              2560963.892171307,
              1137464.794466537
            ],
            [
              2560960.8686396643,
              1137461.7767280254
            ],
            [
              2560959.358322126,
              1137461.7781763081
            ],
            [
              2560956.334790483,
              1137458.7604377964
            ],
            [
              2560954.8244729443,
              1137458.761886079
            ],
            [
              2560953.312707123,
              1137457.2530168234
            ],
            [
              2560948.781754507,
              1137457.2573616717
            ],
            [
              2560948.7788579417,
              1137454.2367265944
            ],
            [
              2560947.2670921204,
              1137452.7278573387
            ],
            [
              2560944.2464570436,
              1137452.7307539042
            ],
            [
              2560941.222925401,
              1137449.7130153924
            ],
            [
              2560936.691972785,
              1137449.7173602406
            ],
            [
              2560936.690524502,
              1137448.207042702
            ],
            [
              2560933.6669928594,
              1137445.1893041905
            ],
            [
              2560932.156675321,
              1137445.1907524732
            ],
            [
              2560929.1331436783,
              1137442.1730139614
            ],
            [
              2560927.62282614,
              1137442.1744622444
            ],
            [
              2560926.1110603185,
              1137440.6655929885
            ],
            [
              2560921.580107703,
              1137440.6699378367
            ],
            [
              2560921.57865942,
              1137439.159620298
            ],
            [
              2560920.0668935985,
              1137437.6507510422
            ],
            [
              2560920.065445316,
              1137436.1404335038
            ],
            [
              2560918.5536794947,
              1137434.631564248
            ],
            [
              2560915.5330444174,
              1137434.6344608134
            ],
            [
              2560914.0241751615,
              1137436.1462266347
            ],
            [
              2560914.022726879,
              1137434.635909096
            ],
            [
              2560912.5109610576,
              1137433.1270398402
            ],
            [
              2560909.4903259804,
              1137433.1299364057
            ],
            [
              2560909.4888776974,
              1137431.619618867
            ],
            [
              2560904.9535802337,
              1137427.0930110996
            ],
            [
              2560903.443262695,
              1137427.0944593824
            ],
            [
              2560901.9314968735,
              1137425.5855901267
            ],
            [
              2560900.421179335,
              1137425.5870384094
            ],
            [
              2560898.9094135137,
              1137424.0781691535
            ],
            [
              2560895.8887784365,
              1137424.081065719
            ],
            [
              2560895.887330154,
              1137422.5707481804
            ],
            [
              2560892.863798511,
              1137419.5530096688
            ],
            [
              2560888.3328458956,
              1137419.557354517
            ],
            [
              2560888.3313976126,
              1137418.0470369784
            ],
            [
              2560885.30786597,
              1137415.0292984666
            ],
            [
              2560883.7975484314,
              1137415.0307467494
            ],
            [
              2560879.2622509673,
              1137410.504138982
            ],
            [
              2560874.7312983517,
              1137410.5084838301
            ],
            [
              2560874.729850069,
              1137408.9981662917
            ],
            [
              2560870.194552605,
              1137404.471558524
            ],
            [
              2560865.6635999894,
              1137404.4759033723
            ],
            [
              2560865.6621517064,
              1137402.9655858339
            ],
            [
              2560862.638620064,
              1137399.947847322
            ],
            [
              2560861.1283025253,
              1137399.9492956048
            ],
            [
              2560856.593005061,
              1137395.4226878374
            ],
            [
              2560855.0826875228,
              1137395.4241361201
            ],
            [
              2560852.05915588,
              1137392.4063976086
            ],
            [
              2560847.5282032643,
              1137392.4107424568
            ],
            [
              2560847.525306699,
              1137389.3901073795
            ],
            [
              2560846.0135408775,
              1137387.8812381236
            ],
            [
              2560841.482588262,
              1137387.8855829719
            ],
            [
              2560841.481139979,
              1137386.3752654335
            ],
            [
              2560838.4576083366,
              1137383.3575269217
            ],
            [
              2560835.4369732593,
              1137383.3604234871
            ],
            [
              2560835.4355249763,
              1137381.8501059485
            ],
            [
              2560833.923759155,
              1137380.3412366929
            ],
            [
              2560830.903124078,
              1137380.3441332583
            ],
            [
              2560830.901675795,
              1137378.8338157197
            ],
            [
              2560827.8781441525,
              1137375.816077208
            ],
            [
              2560824.8575090757,
              1137375.8189737736
            ],
            [
              2560824.8560607927,
              1137374.308656235
            ],
            [
              2560818.808997507,
              1137368.2731792117
            ],
            [
              2560817.298679969,
              1137368.2746274944
            ],
            [
              2560814.275148326,
              1137365.2568889826
            ],
            [
              2560812.7648307877,
              1137365.2583372653
            ],
            [
              2560808.2295333236,
              1137360.731729498
            ],
            [
              2560806.719215785,
              1137360.7331777806
            ],
            [
              2560800.6721524997,
              1137354.6977007573
            ],
            [
              2560799.1618349613,
              1137354.69914904
            ],
            [
              2560797.65006914,
              1137353.1902797841
            ],
            [
              2560794.6294340626,
              1137353.1931763499
            ],
            [
              2560793.1176682413,
              1137351.684307094
            ],
            [
              2560793.1162199588,
              1137350.1739895553
            ],
            [
              2560790.092688316,
              1137347.1562510438
            ],
            [
              2560787.0720532387,
              1137347.1591476093
            ],
            [
              2560785.5602874174,
              1137345.6502783534
            ],
            [
              2560785.558839135,
              1137344.1399608147
            ],
            [
              2560779.5117758494,
              1137338.1044837914
            ],
            [
              2560779.508879284,
              1137335.0838487144
            ],
            [
              2560777.9971134625,
              1137333.5749794585
            ],
            [
              2560779.5059827184,
              1137332.063213637
            ],
            [
              2560779.491499891,
              1137316.9600382512
            ],
            [
              2560781.000369147,
              1137315.4482724299
            ],
            [
              2560780.9829897536,
              1137297.324461967
            ],
            [
              2560782.4918590095,
              1137295.8126961456
            ],
            [
              2560782.4759278996,
              1137279.1992032214
            ],
            [
              2560783.9847971555,
              1137277.6874374
            ],
            [
              2560783.980452307,
              1137273.1564847843
            ],
            [
              2560785.489321563,
              1137271.644718963
            ],
            [
              2560785.483528432,
              1137265.6034488087
            ],
            [
              2560783.9717626106,
              1137264.0945795528
            ],
            [
              2560783.9703143276,
              1137262.5842620141
            ],
            [
              2560785.4791835835,
              1137261.0724961928
            ],
            [
              2560785.477735301,
              1137259.5621786544
            ],
            [
              2560786.986604557,
              1137258.050412833
            ],
            [
              2560786.980811426,
              1137252.0091426787
            ],
            [
              2560785.4690456046,
              1137250.5002734228
            ],
            [
              2560786.97791486,
              1137248.9885076014
            ],
            [
              2560786.9634320326,
              1137233.8853322156
            ],
            [
              2560788.4723012885,
              1137232.3735663944
            ],
            [
              2560788.4563701786,
              1137215.76007347
            ],
            [
              2560789.965239434,
              1137214.2483076486
            ],
            [
              2560789.9579980206,
              1137206.6967199557
            ],
            [
              2560791.4668672765,
              1137205.1849541345
            ],
            [
              2560791.4654189935,
              1137203.6746365959
            ],
            [
              2560797.500896017,
              1137197.6275733106
            ],
            [
              2560799.0112135555,
              1137197.626125028
            ],
            [
              2560800.5200828114,
              1137196.1143592065
            ],
            [
              2560802.0304003498,
              1137196.1129109238
            ],
            [
              2560803.5392696057,
              1137194.6011451024
            ],
            [
              2560805.051035427,
              1137196.1100143583
            ],
            [
              2560817.1335757356,
              1137196.0984280962
            ],
            [
              2560818.6424449915,
              1137194.586662275
            ],
            [
              2560821.663080069,
              1137194.5837657093
            ],
            [
              2560823.17484589,
              1137196.0926349652
            ],
            [
              2560833.74706866,
              1137196.082496986
            ],
            [
              2560835.2588344812,
              1137197.591366242
            ],
            [
              2560841.300104636,
              1137197.585573111
            ],
            [
              2560842.8089738917,
              1137196.0738072896
            ],
            [
              2560848.8502440457,
              1137196.0680141586
            ],
            [
              2560850.362009867,
              1137197.5768834143
            ],
            [
              2560879.0580431004,
              1137197.5493660423
            ],
            [
              2560880.569808922,
              1137199.0582352981
            ],
            [
              2560910.776159693,
              1137199.0292696431
            ],
            [
              2560912.2879255144,
              1137200.538138899
            ],
            [
              2560947.0252289018,
              1137200.5048283958
            ],
            [
              2560948.536994723,
              1137202.0136976517
            ],
            [
              2560953.067947339,
              1137202.0093528035
            ],
            [
              2560954.57971316,
              1137203.5182220591
            ],
            [
              2560966.6622534688,
              1137203.5066357972
            ],
            [
              2560968.1711227247,
              1137201.9948699758
            ],
            [
              2560972.7020753403,
              1137201.9905251276
            ],
            [
              2560974.2138411617,
              1137203.4993943835
            ],
            [
              2560978.7447937774,
              1137203.4950495353
            ],
            [
              2560980.2565595987,
              1137205.0039187912
            ],
            [
              2560993.849417446,
              1137204.9908842463
            ],
            [
              2560995.358286702,
              1137203.479118425
            ],
            [
              2560999.8892393177,
              1137203.4747735767
            ],
            [
              2561001.401005139,
              1137204.9836428326
            ],
            [
              2561028.5867208336,
              1137204.957573743
            ],
            [
              2561030.098486655,
              1137206.466442999
            ],
            [
              2561063.3254725034,
              1137206.4345807787
            ],
            [
              2561064.837238325,
              1137207.9434500344
            ],
            [
              2561090.512636481,
              1137207.9188292278
            ],
            [
              2561092.0244023018,
              1137209.4276984835
            ],
            [
              2561102.596625072,
              1137209.4175605043
            ],
            [
              2561104.1083908933,
              1137210.9264297602
            ],
            [
              2561111.6599785862,
              1137210.9191883465
            ],
            [
              2561113.1717444076,
              1137212.4280576024
            ],
            [
              2561116.192379485,
              1137212.4251610367
            ],
            [
              2561117.701248741,
              1137210.9133952155
            ],
            [
              2561117.699800458,
              1137209.403077677
            ],
            [
              2561122.2307530735,
              1137209.3987328287
            ],
            [
              2561123.742518895,
              1137210.9076020846
            ],
            [
              2561126.763153972,
              1137210.9047055189
            ],
            [
              2561128.2749197935,
              1137212.4135747747
            ],
            [
              2561159.9915881036,
              1137212.3831608372
            ],
            [
              2561161.503353925,
              1137213.892030093
            ],
            [
              2561164.523989002,
              1137213.8891335274
            ],
            [
              2561166.032858258,
              1137212.377367706
            ],
            [
              2561175.0947634894,
              1137212.3686780096
            ],
            [
              2561176.606529311,
              1137213.8775472655
            ],
            [
              2561208.323197621,
              1137213.8471333277
            ],
            [
              2561209.8349634423,
              1137215.3560025836
            ],
            [
              2561235.510361598,
              1137215.3313817768
            ],
            [
              2561237.0221274192,
              1137216.8402510327
            ],
            [
              2561244.573715112,
              1137216.833009619
            ],
            [
              2561246.0854809335,
              1137218.341878875
            ],
            [
              2561249.106116011,
              1137218.3389823094
            ],
            [
              2561250.6149852667,
              1137216.827216488
            ],
            [
              2561253.635620344,
              1137216.8243199226
            ],
            [
              2561255.1473861653,
              1137218.3331891785
            ],
            [
              2561265.719608935,
              1137218.323051199
            ],
            [
              2561267.228478191,
              1137216.811285378
            ],
            [
              2561268.7402440123,
              1137218.3201546336
            ],
            [
              2561277.8021492437,
              1137218.3114649372
            ],
            [
              2561279.313915065,
              1137219.820334193
            ],
            [
              2561292.9067729125,
              1137219.8072996484
            ],
            [
              2561294.4156421684,
              1137218.295533827
            ],
            [
              2561297.436277245,
              1137218.2926372616
            ],
            [
              2561298.9480430665,
              1137219.8015065172
            ],
            [
              2561304.989313221,
              1137219.7957133863
            ],
            [
              2561306.5010790424,
              1137221.3045826422
            ],
            [
              2561317.073301812,
              1137221.294444663
            ],
            [
              2561318.582171068,
              1137219.7826788416
            ],
            [
              2561323.1131236837,
              1137219.7783339934
            ],
            [
              2561324.624889505,
              1137221.2872032493
            ],
            [
              2561350.300287661,
              1137221.2625824425
            ],
            [
              2561351.8120534825,
              1137222.7714516984
            ],
            [
              2561380.5080867154,
              1137222.743934326
            ],
            [
              2561382.0198525367,
              1137224.252803582
            ],
            [
              2561383.5301700756,
              1137224.2513552993
            ],
            [
              2561383.533066641,
              1137227.2719903765
            ],
            [
              2561385.0448324624,
              1137228.7808596322
            ],
            [
              2561388.0654675392,
              1137228.7779630667
            ],
            [
              2561388.0756055187,
              1137239.350185837
            ],
            [
              2561386.5667362628,
              1137240.861951658
            ],
            [
              2561386.5681845457,
              1137242.3722691967
            ],
            [
              2561385.05931529,
              1137243.884035018
            ],
            [
              2561385.063660138,
              1137248.4149876337
            ],
            [
              2561386.575425959,
              1137249.9238568896
            ],
            [
              2561385.0665567033,
              1137251.435622711
            ],
            [
              2561385.0680049863,
              1137252.9459402496
            ],
            [
              2561383.5591357304,
              1137254.457706071
            ],
            [
              2561383.5634805784,
              1137258.9886586866
            ],
            [
              2561385.0752463997,
              1137260.4975279425
            ],
            [
              2561383.566377144,
              1137262.0092937637
            ],
            [
              2561383.5765151232,
              1137272.5815165339
            ],
            [
              2561382.0676458674,
              1137274.0932823552
            ],
            [
              2561382.076335564,
              1137283.1551875866
            ],
            [
              2561380.567466308,
              1137284.666953408
            ],
            [
              2561380.5732594393,
              1137290.7082235622
            ],
            [
              2561379.0643901834,
              1137292.2199893836
            ],
            [
              2561379.065838466,
              1137293.7303069222
            ],
            [
              2561377.55696921,
              1137295.2420727436
            ],
            [
              2561377.568555472,
              1137307.3246130522
            ],
            [
              2561376.0596862165,
              1137308.8363788736
            ],
            [
              2561376.062582782,
              1137311.8570139506
            ],
            [
              2561374.553713526,
              1137313.368779772
            ],
            [
              2561374.5609549396,
              1137320.920367465
            ],
            [
              2561371.5432164283,
              1137323.9438991074
            ],
            [
              2561371.5504578417,
              1137331.4954868003
            ],
            [
              2561370.041588586,
              1137333.0072526217
            ],
            [
              2561370.0459334343,
              1137337.5382052376
            ],
            [
              2561368.5370641784,
              1137339.0499710587
            ],
            [
              2561368.539960744,
              1137342.070606136
            ],
            [
              2561370.051726565,
              1137343.579475392
            ],
            [
              2561368.5428573093,
              1137345.091241213
            ],
            [
              2561368.5486504403,
              1137351.1325113676
            ],
            [
              2561367.0397811844,
              1137352.6442771887
            ],
            [
              2561367.048470881,
              1137361.7061824203
            ],
            [
              2561365.539601625,
              1137363.2179482416
            ],
            [
              2561365.5555327353,
              1137379.8314411659
            ],
            [
              2561364.0466634794,
              1137381.3432069873
            ],
            [
              2561364.0582497413,
              1137393.4257472958
            ],
            [
              2561362.5493804854,
              1137394.9375131172
            ],
            [
              2561362.553725334,
              1137399.4684657329
            ],
            [
              2561364.0654911553,
              1137400.9773349888
            ],
            [
              2561364.0683877207,
              1137403.997970066
            ],
            [
              2561362.559518465,
              1137405.5097358874
            ],
            [
              2561362.560966748,
              1137407.0200534258
            ],
            [
              2561361.052097492,
              1137408.5318192472
            ],
            [
              2561361.062235471,
              1137419.1040420174
            ],
            [
              2561362.574001292,
              1137420.612911273
            ],
            [
              2561362.575449575,
              1137422.1232288117
            ],
            [
              2561361.0665803193,
              1137423.634994633
            ],
            [
              2561361.069476885,
              1137426.6556297103
            ],
            [
              2561359.560607629,
              1137428.1673955314
            ],
            [
              2561359.5649524773,
              1137432.6983481473
            ],
            [
              2561361.0767182983,
              1137434.207217403
            ],
            [
              2561361.0825114297,
              1137440.2484875573
            ],
            [
              2561359.573642174,
              1137441.7602533787
            ],
            [
              2561359.5837801527,
              1137452.3324761488
            ],
            [
              2561358.074910897,
              1137453.8442419702
            ],
            [
              2561358.0995317036,
              1137479.519640126
            ],
            [
              2561356.5906624477,
              1137481.0314059474
            ],
            [
              2561356.6094901236,
              1137500.665533949
            ],
            [
              2561355.099172585,
              1137500.6669822317
            ],
            [
              2561353.5903033293,
              1137502.1787480528
            ],
            [
              2561353.591751612,
              1137503.6890655914
            ],
            [
              2561347.5504814577,
              1137503.6948587224
            ],
            [
              2561346.041612202,
              1137505.2066245438
            ],
            [
              2561318.8558965074,
              1137505.2326936333
            ]
          ]
        ]
      },
      "properties": {
        "site_code": "2.11",
        "bfs": 5414,
        "page": 80,
        "source_boundary": {
          "type": "Polygon",
          "coordinates": [
            [
              [
                584.0,
                285.0
              ],
              [
                583.0,
                286.0
              ],
              [
                566.0,
                286.0
              ],
              [
                565.0,
                287.0
              ],
              [
                558.0,
                287.0
              ],
              [
                557.0,
                288.0
              ],
              [
                542.0,
                288.0
              ],
              [
                541.0,
                289.0
              ],
              [
                533.0,
                289.0
              ],
              [
                532.0,
                288.0
              ],
              [
                529.0,
                288.0
              ],
              [
                528.0,
                289.0
              ],
              [
                522.0,
                289.0
              ],
              [
                521.0,
                290.0
              ],
              [
                518.0,
                290.0
              ],
              [
                517.0,
                289.0
              ],
              [
                516.0,
                290.0
              ],
              [
                496.0,
                290.0
              ],
              [
                495.0,
                291.0
              ],
              [
                474.0,
                291.0
              ],
              [
                473.0,
                292.0
              ],
              [
                454.0,
                292.0
              ],
              [
                453.0,
                293.0
              ],
              [
                448.0,
                293.0
              ],
              [
                447.0,
                294.0
              ],
              [
                439.0,
                294.0
              ],
              [
                438.0,
                293.0
              ],
              [
                436.0,
                293.0
              ],
              [
                435.0,
                294.0
              ],
              [
                433.0,
                294.0
              ],
              [
                432.0,
                295.0
              ],
              [
                421.0,
                295.0
              ],
              [
                420.0,
                294.0
              ],
              [
                419.0,
                295.0
              ],
              [
                400.0,
                295.0
              ],
              [
                399.0,
                296.0
              ],
              [
                378.0,
                296.0
              ],
              [
                377.0,
                297.0
              ],
              [
                375.0,
                297.0
              ],
              [
                374.0,
                298.0
              ],
              [
                371.0,
                298.0
              ],
              [
                370.0,
                299.0
              ],
              [
                369.0,
                299.0
              ],
              [
                368.0,
                300.0
              ],
              [
                368.0,
                303.0
              ],
              [
                367.0,
                304.0
              ],
              [
                363.0,
                304.0
              ],
              [
                362.0,
                305.0
              ],
              [
                361.0,
                305.0
              ],
              [
                359.0,
                307.0
              ],
              [
                356.0,
                307.0
              ],
              [
                355.0,
                308.0
              ],
              [
                354.0,
                308.0
              ],
              [
                354.0,
                309.0
              ],
              [
                352.0,
                311.0
              ],
              [
                349.0,
                311.0
              ],
              [
                349.0,
                312.0
              ],
              [
                347.0,
                314.0
              ],
              [
                346.0,
                314.0
              ],
              [
                344.0,
                316.0
              ],
              [
                343.0,
                316.0
              ],
              [
                342.0,
                317.0
              ],
              [
                339.0,
                317.0
              ],
              [
                339.0,
                319.0
              ],
              [
                338.0,
                320.0
              ],
              [
                336.0,
                320.0
              ],
              [
                334.0,
                322.0
              ],
              [
                331.0,
                322.0
              ],
              [
                331.0,
                323.0
              ],
              [
                329.0,
                325.0
              ],
              [
                328.0,
                325.0
              ],
              [
                326.0,
                327.0
              ],
              [
                325.0,
                327.0
              ],
              [
                324.0,
                328.0
              ],
              [
                321.0,
                328.0
              ],
              [
                321.0,
                329.0
              ],
              [
                320.0,
                330.0
              ],
              [
                320.0,
                331.0
              ],
              [
                319.0,
                332.0
              ],
              [
                317.0,
                332.0
              ],
              [
                316.0,
                331.0
              ],
              [
                316.0,
                332.0
              ],
              [
                315.0,
                333.0
              ],
              [
                313.0,
                333.0
              ],
              [
                313.0,
                334.0
              ],
              [
                310.0,
                337.0
              ],
              [
                309.0,
                337.0
              ],
              [
                308.0,
                338.0
              ],
              [
                307.0,
                338.0
              ],
              [
                306.0,
                339.0
              ],
              [
                304.0,
                339.0
              ],
              [
                304.0,
                340.0
              ],
              [
                302.0,
                342.0
              ],
              [
                299.0,
                342.0
              ],
              [
                299.0,
                343.0
              ],
              [
                297.0,
                345.0
              ],
              [
                296.0,
                345.0
              ],
              [
                293.0,
                348.0
              ],
              [
                290.0,
                348.0
              ],
              [
                290.0,
                349.0
              ],
              [
                287.0,
                352.0
              ],
              [
                284.0,
                352.0
              ],
              [
                284.0,
                353.0
              ],
              [
                282.0,
                355.0
              ],
              [
                281.0,
                355.0
              ],
              [
                278.0,
                358.0
              ],
              [
                277.0,
                358.0
              ],
              [
                275.0,
                360.0
              ],
              [
                272.0,
                360.0
              ],
              [
                272.0,
                362.0
              ],
              [
                271.0,
                363.0
              ],
              [
                268.0,
                363.0
              ],
              [
                268.0,
                364.0
              ],
              [
                266.0,
                366.0
              ],
              [
                264.0,
                366.0
              ],
              [
                264.0,
                367.0
              ],
              [
                263.0,
                368.0
              ],
              [
                261.0,
                368.0
              ],
              [
                261.0,
                369.0
              ],
              [
                259.0,
                371.0
              ],
              [
                257.0,
                371.0
              ],
              [
                257.0,
                372.0
              ],
              [
                253.0,
                376.0
              ],
              [
                252.0,
                376.0
              ],
              [
                250.0,
                378.0
              ],
              [
                249.0,
                378.0
              ],
              [
                246.0,
                381.0
              ],
              [
                245.0,
                381.0
              ],
              [
                241.0,
                385.0
              ],
              [
                240.0,
                385.0
              ],
              [
                239.0,
                386.0
              ],
              [
                237.0,
                386.0
              ],
              [
                236.0,
                387.0
              ],
              [
                236.0,
                388.0
              ],
              [
                234.0,
                390.0
              ],
              [
                232.0,
                390.0
              ],
              [
                231.0,
                391.0
              ],
              [
                231.0,
                392.0
              ],
              [
                227.0,
                396.0
              ],
              [
                227.0,
                398.0
              ],
              [
                226.0,
                399.0
              ],
              [
                227.0,
                400.0
              ],
              [
                227.0,
                410.0
              ],
              [
                228.0,
                411.0
              ],
              [
                228.0,
                423.0
              ],
              [
                229.0,
                424.0
              ],
              [
                229.0,
                435.0
              ],
              [
                230.0,
                436.0
              ],
              [
                230.0,
                439.0
              ],
              [
                231.0,
                440.0
              ],
              [
                231.0,
                444.0
              ],
              [
                230.0,
                445.0
              ],
              [
                230.0,
                446.0
              ],
              [
                231.0,
                447.0
              ],
              [
                231.0,
                448.0
              ],
              [
                232.0,
                449.0
              ],
              [
                232.0,
                453.0
              ],
              [
                231.0,
                454.0
              ],
              [
                232.0,
                455.0
              ],
              [
                232.0,
                465.0
              ],
              [
                233.0,
                466.0
              ],
              [
                233.0,
                477.0
              ],
              [
                234.0,
                478.0
              ],
              [
                234.0,
                483.0
              ],
              [
                235.0,
                484.0
              ],
              [
                235.0,
                485.0
              ],
              [
                239.0,
                489.0
              ],
              [
                240.0,
                489.0
              ],
              [
                241.0,
                490.0
              ],
              [
                242.0,
                490.0
              ],
              [
                243.0,
                491.0
              ],
              [
                244.0,
                490.0
              ],
              [
                252.0,
                490.0
              ],
              [
                253.0,
                491.0
              ],
              [
                255.0,
                491.0
              ],
              [
                256.0,
                490.0
              ],
              [
                263.0,
                490.0
              ],
              [
                264.0,
                489.0
              ],
              [
                268.0,
                489.0
              ],
              [
                269.0,
                490.0
              ],
              [
                273.0,
                490.0
              ],
              [
                274.0,
                489.0
              ],
              [
                293.0,
                489.0
              ],
              [
                294.0,
                488.0
              ],
              [
                314.0,
                488.0
              ],
              [
                315.0,
                487.0
              ],
              [
                338.0,
                487.0
              ],
              [
                339.0,
                486.0
              ],
              [
                342.0,
                486.0
              ],
              [
                343.0,
                485.0
              ],
              [
                351.0,
                485.0
              ],
              [
                352.0,
                486.0
              ],
              [
                355.0,
                486.0
              ],
              [
                356.0,
                485.0
              ],
              [
                359.0,
                485.0
              ],
              [
                360.0,
                484.0
              ],
              [
                369.0,
                484.0
              ],
              [
                370.0,
                485.0
              ],
              [
                373.0,
                485.0
              ],
              [
                374.0,
                484.0
              ],
              [
                392.0,
                484.0
              ],
              [
                393.0,
                483.0
              ],
              [
                415.0,
                483.0
              ],
              [
                416.0,
                482.0
              ],
              [
                433.0,
                482.0
              ],
              [
                434.0,
                481.0
              ],
              [
                441.0,
                481.0
              ],
              [
                442.0,
                480.0
              ],
              [
                447.0,
                480.0
              ],
              [
                448.0,
                479.0
              ],
              [
                450.0,
                479.0
              ],
              [
                451.0,
                480.0
              ],
              [
                451.0,
                481.0
              ],
              [
                454.0,
                481.0
              ],
              [
                455.0,
                480.0
              ],
              [
                457.0,
                480.0
              ],
              [
                458.0,
                479.0
              ],
              [
                479.0,
                479.0
              ],
              [
                480.0,
                478.0
              ],
              [
                482.0,
                478.0
              ],
              [
                483.0,
                479.0
              ],
              [
                489.0,
                479.0
              ],
              [
                490.0,
                478.0
              ],
              [
                511.0,
                478.0
              ],
              [
                512.0,
                477.0
              ],
              [
                529.0,
                477.0
              ],
              [
                530.0,
                476.0
              ],
              [
                535.0,
                476.0
              ],
              [
                536.0,
                475.0
              ],
              [
                538.0,
                475.0
              ],
              [
                539.0,
                476.0
              ],
              [
                541.0,
                476.0
              ],
              [
                542.0,
                475.0
              ],
              [
                549.0,
                475.0
              ],
              [
                550.0,
                476.0
              ],
              [
                551.0,
                475.0
              ],
              [
                557.0,
                475.0
              ],
              [
                558.0,
                474.0
              ],
              [
                567.0,
                474.0
              ],
              [
                568.0,
                475.0
              ],
              [
                570.0,
                475.0
              ],
              [
                571.0,
                474.0
              ],
              [
                575.0,
                474.0
              ],
              [
                576.0,
                473.0
              ],
              [
                583.0,
                473.0
              ],
              [
                584.0,
                474.0
              ],
              [
                587.0,
                474.0
              ],
              [
                588.0,
                473.0
              ],
              [
                605.0,
                473.0
              ],
              [
                606.0,
                472.0
              ],
              [
                625.0,
                472.0
              ],
              [
                626.0,
                471.0
              ],
              [
                627.0,
                471.0
              ],
              [
                627.0,
                469.0
              ],
              [
                628.0,
                468.0
              ],
              [
                630.0,
                468.0
              ],
              [
                630.0,
                461.0
              ],
              [
                629.0,
                460.0
              ],
              [
                629.0,
                459.0
              ],
              [
                628.0,
                458.0
              ],
              [
                628.0,
                455.0
              ],
              [
                629.0,
                454.0
              ],
              [
                628.0,
                453.0
              ],
              [
                628.0,
                452.0
              ],
              [
                627.0,
                451.0
              ],
              [
                627.0,
                448.0
              ],
              [
                628.0,
                447.0
              ],
              [
                627.0,
                446.0
              ],
              [
                627.0,
                439.0
              ],
              [
                626.0,
                438.0
              ],
              [
                626.0,
                432.0
              ],
              [
                625.0,
                431.0
              ],
              [
                625.0,
                427.0
              ],
              [
                624.0,
                426.0
              ],
              [
                624.0,
                425.0
              ],
              [
                623.0,
                424.0
              ],
              [
                623.0,
                416.0
              ],
              [
                622.0,
                415.0
              ],
              [
                622.0,
                413.0
              ],
              [
                621.0,
                412.0
              ],
              [
                621.0,
                407.0
              ],
              [
                619.0,
                405.0
              ],
              [
                619.0,
                400.0
              ],
              [
                618.0,
                399.0
              ],
              [
                618.0,
                396.0
              ],
              [
                617.0,
                395.0
              ],
              [
                617.0,
                393.0
              ],
              [
                618.0,
                392.0
              ],
              [
                617.0,
                391.0
              ],
              [
                617.0,
                387.0
              ],
              [
                616.0,
                386.0
              ],
              [
                616.0,
                380.0
              ],
              [
                615.0,
                379.0
              ],
              [
                615.0,
                368.0
              ],
              [
                614.0,
                367.0
              ],
              [
                614.0,
                359.0
              ],
              [
                613.0,
                358.0
              ],
              [
                613.0,
                355.0
              ],
              [
                614.0,
                354.0
              ],
              [
                614.0,
                352.0
              ],
              [
                613.0,
                351.0
              ],
              [
                613.0,
                350.0
              ],
              [
                612.0,
                349.0
              ],
              [
                612.0,
                342.0
              ],
              [
                613.0,
                341.0
              ],
              [
                613.0,
                340.0
              ],
              [
                612.0,
                339.0
              ],
              [
                612.0,
                337.0
              ],
              [
                611.0,
                336.0
              ],
              [
                611.0,
                333.0
              ],
              [
                612.0,
                332.0
              ],
              [
                612.0,
                328.0
              ],
              [
                611.0,
                327.0
              ],
              [
                611.0,
                320.0
              ],
              [
                610.0,
                319.0
              ],
              [
                610.0,
                302.0
              ],
              [
                609.0,
                301.0
              ],
              [
                609.0,
                288.0
              ],
              [
                608.0,
                288.0
              ],
              [
                607.0,
                287.0
              ],
              [
                607.0,
                286.0
              ],
              [
                603.0,
                286.0
              ],
              [
                602.0,
                285.0
              ],
              [
                584.0,
                285.0
              ]
            ]
          ]
        },
        "source_to_reference_pixels": [
          [
            0.5034638291157347,
            -0.0004827845526836647,
            136.38441556749316
          ],
          [
            0.0004827845526836647,
            0.5034638291157347,
            1898.8423655180804
          ]
        ],
        "reference_extent": {
          "xmin": 2560028.11,
          "ymin": 1135491.1658161602,
          "xmax": 2569402.651,
          "ymax": 1143632.7671838403,
          "spatialReference": {
            "wkid": 2056,
            "latestWkid": 2056
          }
        },
        "area_m2": 151642.66517906424,
        "control_hull_coverage": 1.0,
        "status": "private_indicative_outline_review_required",
        "alignment_rmse_m": 1.114914072648054
      }
    }
  ]
}