{"type" : "FeatureCollection", "features" : [{"type" : "Feature", "properties" : {"name" : "Canton de Genève", "note" : "SITG photomesh coverage: clip the globe inside, inset 5 m"}, "geometry" : {"type":"MultiPolygon","coordinates":[[[[5.965208,46.129766],[5.964804,46.130234],[5.961096,46.130847],[5.961034,46.130642],[5.959849,46.129868],[5.958749,46.129432],[5.957378,46.128608],[5.956908,46.128785],[5.956508,46.131814],[5.955984,46.132351],[5.957437,46.133433],[5.958391,46.133959],[5.962345,46.13543],[5.963821,46.135852],[5.964972,46.136408],[5.965591,46.136872],[5.966277,46.137805],[5.966499,46.138442],[5.966389,46.139089],[5.965732,46.140212],[5.964675,46.141491],[5.964396,46.142089],[5.964093,46.14355],[5.964142,46.14412],[5.964319,46.144672],[5.965233,46.146372],[5.966837,46.147943],[5.96745,46.149539],[5.968926,46.151839],[5.972174,46.154959],[5.973093,46.155996],[5.974626,46.158388],[5.974792,46.159152],[5.97654,46.162053],[5.980123,46.166203],[5.980431,46.166921],[5.981051,46.16994],[5.980991,46.171159],[5.981993,46.173197],[5.982391,46.173524],[5.982941,46.173717],[5.983557,46.173747],[5.98414,46.173608],[5.985045,46.173151],[5.9857,46.17258],[5.986084,46.171966],[5.986359,46.171014],[5.986587,46.17075],[5.986918,46.170586],[5.987314,46.170524],[5.987714,46.170573],[5.988057,46.170724],[5.988598,46.171337],[5.988847,46.17176],[5.989237,46.173783],[5.990116,46.175582],[5.990778,46.176289],[5.991798,46.176835],[5.991403,46.177313],[5.990844,46.17737],[5.990469,46.177579],[5.991036,46.177999],[5.991391,46.178648],[5.991322,46.178908],[5.991505,46.1789],[5.991653,46.179045],[5.991888,46.179007],[5.992017,46.17917],[5.992147,46.179017],[5.992313,46.179031],[5.993134,46.179804],[5.993613,46.180446],[5.993913,46.180552],[5.994067,46.180811],[5.994681,46.181292],[5.994787,46.181627],[5.994976,46.181833],[5.99501,46.183032],[5.993437,46.184069],[5.993299,46.184523],[5.992811,46.185171],[5.992752,46.185431],[5.992528,46.185597],[5.992277,46.186572],[5.99033,46.187843],[5.989611,46.187884],[5.989066,46.187705],[5.988763,46.18772],[5.987944,46.187986],[5.983836,46.188914],[5.983322,46.189308],[5.982051,46.190031],[5.982867,46.190743],[5.982854,46.190807],[5.971897,46.194222],[5.963824,46.197023],[5.963897,46.197084],[5.963822,46.197188],[5.964029,46.197339],[5.963946,46.197418],[5.964281,46.197661],[5.96432,46.197799],[5.964518,46.197944],[5.964563,46.198155],[5.964707,46.198217],[5.964732,46.198797],[5.964904,46.198932],[5.965286,46.199002],[5.965675,46.199496],[5.966069,46.199644],[5.966309,46.19959],[5.966801,46.199957],[5.967,46.199838],[5.967178,46.199849],[5.967611,46.200228],[5.967821,46.200048],[5.968062,46.2002],[5.968073,46.200004],[5.968244,46.199978],[5.968678,46.200244],[5.968793,46.200583],[5.969035,46.200477],[5.969218,46.200514],[5.969347,46.200991],[5.969303,46.201186],[5.969682,46.200994],[5.9698,46.201003],[5.969886,46.201124],[5.970518,46.201442],[5.970542,46.201673],[5.970873,46.201497],[5.97112,46.201604],[5.971344,46.201526],[5.971553,46.201549],[5.972175,46.202137],[5.972366,46.202072],[5.97279,46.202168],[5.972782,46.202266],[5.972613,46.202372],[5.973279,46.202448],[5.97349,46.202559],[5.973466,46.202695],[5.97358,46.202792],[5.973332,46.202896],[5.972858,46.203368],[5.972947,46.203461],[5.972856,46.203648],[5.972063,46.203915],[5.971386,46.204366],[5.970952,46.204372],[5.970715,46.204501],[5.970878,46.204941],[5.970269,46.205255],[5.970099,46.205692],[5.969319,46.206641],[5.9696,46.206951],[5.970378,46.208416],[5.971702,46.211296],[5.973414,46.213693],[5.974722,46.214994],[5.979181,46.217201],[5.979449,46.217188],[5.980095,46.216936],[5.980253,46.216974],[5.980337,46.217163],[5.980556,46.217187],[5.980689,46.217117],[5.981078,46.217195],[5.981625,46.217004],[5.982994,46.216812],[5.983651,46.216875],[5.98383,46.217065],[5.984,46.217065],[5.984091,46.217174],[5.984273,46.217069],[5.984303,46.216892],[5.984475,46.216811],[5.984626,46.216847],[5.984748,46.217085],[5.984952,46.216914],[5.985534,46.216856],[5.985716,46.21672],[5.986114,46.216798],[5.98662,46.216743],[5.986852,46.216621],[5.987386,46.216696],[5.987593,46.216634],[5.987741,46.216448],[5.988167,46.216364],[5.988784,46.216045],[5.989687,46.216153],[5.990019,46.215859],[5.990284,46.21591],[5.990699,46.215713],[5.991172,46.21578],[5.991448,46.215422],[5.991932,46.215488],[5.992474,46.215195],[5.992813,46.215185],[5.993061,46.215592],[5.993404,46.216683],[5.993718,46.217309],[5.993613,46.217911],[5.992959,46.219062],[5.991643,46.219842],[5.99133,46.220276],[5.990955,46.221151],[5.990709,46.221455],[5.990293,46.221714],[5.992932,46.222916],[5.99344,46.222652],[5.993683,46.222628],[5.994269,46.222385],[5.994707,46.222403],[5.995261,46.222549],[5.996107,46.222312],[5.996765,46.222246],[5.997028,46.222295],[5.99799,46.222095],[5.998443,46.22189],[5.998827,46.221595],[5.999092,46.221566],[5.999527,46.221048],[6.000014,46.219989],[6.001568,46.22046],[6.001856,46.220705],[6.002667,46.221949],[6.002962,46.222286],[6.003554,46.222739],[6.004901,46.223406],[6.005824,46.22366],[6.007243,46.223856],[6.007308,46.223972],[6.007067,46.224501],[6.007032,46.225562],[6.00669,46.226033],[6.006634,46.226529],[6.006783,46.226642],[6.007728,46.226351],[6.008082,46.226359],[6.009089,46.226795],[6.009797,46.227241],[6.010039,46.22746],[6.010331,46.227943],[6.010259,46.228099],[6.009622,46.228629],[6.009614,46.228964],[6.009995,46.228965],[6.011131,46.228574],[6.012277,46.228436],[6.012989,46.228703],[6.013394,46.229028],[6.013485,46.229235],[6.013359,46.229685],[6.012618,46.230302],[6.013,46.231014],[6.013316,46.231038],[6.013998,46.230687],[6.014831,46.230425],[6.015276,46.230399],[6.01554,46.230527],[6.016197,46.231355],[6.016451,46.231925],[6.017396,46.231534],[6.018042,46.231526],[6.018255,46.231606],[6.018499,46.231529],[6.018549,46.2316],[6.018852,46.231597],[6.018845,46.231707],[6.018951,46.231767],[6.019435,46.231786],[6.0196,46.231705],[6.019762,46.231799],[6.019937,46.231793],[6.020072,46.232041],[6.02002,46.232147],[6.020217,46.232198],[6.020391,46.232108],[6.020672,46.23214],[6.020716,46.232231],[6.021045,46.232317],[6.021425,46.232265],[6.021519,46.232573],[6.021642,46.232579],[6.021894,46.232373],[6.021996,46.232446],[6.022253,46.232422],[6.022375,46.232595],[6.022612,46.232551],[6.023141,46.232641],[6.023282,46.232881],[6.023679,46.233083],[6.024301,46.23301],[6.024604,46.233101],[6.024834,46.233035],[6.025101,46.233172],[6.025529,46.233187],[6.025777,46.233464],[6.025892,46.233977],[6.026006,46.234109],[6.026435,46.234306],[6.026821,46.234199],[6.026999,46.234237],[6.027649,46.234706],[6.028725,46.235198],[6.029413,46.235692],[6.030181,46.236421],[6.032278,46.23756],[6.033654,46.238489],[6.038847,46.235139],[6.042086,46.233274],[6.046139,46.231353],[6.047482,46.233332],[6.048064,46.233122],[6.049561,46.234266],[6.049735,46.23454],[6.050356,46.235119],[6.050889,46.235842],[6.051394,46.236892],[6.052214,46.238078],[6.052162,46.238224],[6.053528,46.239538],[6.05455,46.240459],[6.054688,46.240461],[6.055933,46.241625],[6.057156,46.242135],[6.05781,46.242597],[6.058736,46.243576],[6.060154,46.244809],[6.060439,46.244967],[6.061445,46.245044],[6.063319,46.245742],[6.064094,46.244627],[6.064876,46.244069],[6.065431,46.243392],[6.06579,46.243125],[6.065764,46.242978],[6.066244,46.242693],[6.067253,46.241743],[6.06818,46.241925],[6.069556,46.241122],[6.070226,46.241626],[6.070939,46.241274],[6.071439,46.241659],[6.071823,46.242119],[6.073035,46.241305],[6.073828,46.242281],[6.072901,46.243113],[6.073568,46.243668],[6.074866,46.243518],[6.07518,46.243734],[6.075578,46.243548],[6.077156,46.244608],[6.077853,46.244187],[6.079561,46.245363],[6.081937,46.245749],[6.08254,46.245351],[6.082852,46.245578],[6.083045,46.245943],[6.083661,46.246536],[6.084381,46.24697],[6.08548,46.246172],[6.085541,46.245919],[6.088,46.247046],[6.088092,46.246284],[6.088464,46.245851],[6.090646,46.245089],[6.092271,46.243795],[6.09328,46.242872],[6.093537,46.24298],[6.099016,46.239033],[6.101458,46.237602],[6.106854,46.241108],[6.108863,46.239833],[6.120832,46.247983],[6.120383,46.248494],[6.120956,46.248799],[6.124522,46.251229],[6.12392,46.25184],[6.124522,46.252595],[6.124291,46.252684],[6.12394,46.252654],[6.123517,46.252756],[6.123385,46.25294],[6.123128,46.252956],[6.123085,46.25317],[6.122142,46.25345],[6.12178,46.253645],[6.121262,46.25399],[6.120896,46.25456],[6.120968,46.25491],[6.120902,46.254955],[6.121586,46.255703],[6.121956,46.256004],[6.122541,46.256164],[6.12282,46.25645],[6.121606,46.257693],[6.122594,46.258197],[6.119396,46.26125],[6.120115,46.261677],[6.118171,46.263442],[6.12014,46.264662],[6.120014,46.26487],[6.116235,46.266327],[6.115441,46.266002],[6.113526,46.267728],[6.111751,46.269034],[6.111942,46.2692],[6.109998,46.270569],[6.112416,46.271955],[6.112873,46.27213],[6.112904,46.272228],[6.113295,46.272331],[6.113573,46.272572],[6.111744,46.273325],[6.111852,46.273524],[6.111232,46.273743],[6.111161,46.274052],[6.110316,46.274214],[6.110329,46.274382],[6.109581,46.274699],[6.109024,46.274812],[6.108581,46.274788],[6.107984,46.27535],[6.107695,46.276056],[6.107205,46.276565],[6.106647,46.276825],[6.106231,46.276773],[6.106014,46.276928],[6.105743,46.276937],[6.105691,46.277249],[6.105313,46.277612],[6.104863,46.278263],[6.103356,46.27869],[6.104152,46.279678],[6.104489,46.280313],[6.104777,46.281546],[6.104756,46.282089],[6.105148,46.282968],[6.104452,46.283537],[6.104751,46.283849],[6.104477,46.284233],[6.102511,46.284932],[6.102823,46.285045],[6.103553,46.285555],[6.103932,46.286124],[6.104472,46.286548],[6.104618,46.28696],[6.106119,46.28773],[6.107406,46.288661],[6.108916,46.289311],[6.109825,46.290102],[6.111665,46.291468],[6.112322,46.292536],[6.113109,46.293272],[6.112821,46.293531],[6.113303,46.294092],[6.113982,46.294315],[6.114114,46.294642],[6.114534,46.294438],[6.114785,46.294538],[6.11501,46.294489],[6.11596,46.294167],[6.116315,46.293968],[6.116658,46.293959],[6.116976,46.2942],[6.118059,46.294535],[6.11854,46.294485],[6.118737,46.294386],[6.118968,46.294419],[6.119693,46.294295],[6.119843,46.294723],[6.119808,46.294905],[6.119005,46.295232],[6.118629,46.295901],[6.119131,46.296242],[6.120096,46.296427],[6.120924,46.296983],[6.120915,46.297165],[6.119997,46.29789],[6.120064,46.298105],[6.121107,46.298577],[6.121748,46.298958],[6.121857,46.299113],[6.121795,46.299909],[6.121353,46.300854],[6.121114,46.300912],[6.120262,46.300858],[6.120024,46.301007],[6.119175,46.301871],[6.118836,46.302809],[6.118929,46.303105],[6.119223,46.303342],[6.120083,46.303675],[6.120059,46.30387],[6.119666,46.303975],[6.119623,46.304175],[6.120307,46.304752],[6.120322,46.305163],[6.119995,46.305329],[6.119664,46.305317],[6.11951,46.305582],[6.119949,46.305993],[6.120406,46.305932],[6.120631,46.306036],[6.120716,46.306635],[6.120831,46.30681],[6.120615,46.307107],[6.120653,46.307377],[6.120551,46.307494],[6.119455,46.307711],[6.119258,46.307841],[6.119573,46.308226],[6.119774,46.308269],[6.119936,46.308412],[6.11997,46.309081],[6.11979,46.309513],[6.120286,46.309653],[6.120146,46.309848],[6.11995,46.309914],[6.119932,46.310238],[6.11961,46.310431],[6.119872,46.310553],[6.120103,46.310805],[6.120062,46.311549],[6.120395,46.31204],[6.12034,46.312235],[6.119936,46.312373],[6.11986,46.312486],[6.120177,46.312846],[6.120495,46.31299],[6.120535,46.313127],[6.120432,46.313266],[6.120728,46.313281],[6.121005,46.313105],[6.121207,46.313129],[6.122056,46.313723],[6.122169,46.313949],[6.122911,46.314242],[6.122967,46.314316],[6.122826,46.314724],[6.12375,46.315175],[6.124165,46.315501],[6.124379,46.31592],[6.124177,46.316502],[6.124397,46.316975],[6.124298,46.317207],[6.124365,46.317236],[6.125053,46.317344],[6.125615,46.317277],[6.125824,46.317389],[6.126556,46.316974],[6.125886,46.316153],[6.128703,46.315281],[6.128083,46.314558],[6.128065,46.314384],[6.129118,46.313639],[6.129703,46.31312],[6.129872,46.3131],[6.129706,46.312839],[6.133634,46.310489],[6.133714,46.310352],[6.13352,46.310111],[6.134642,46.308856],[6.136026,46.307992],[6.140705,46.305392],[6.14054,46.304873],[6.140698,46.3047],[6.15059,46.300949],[6.153348,46.29912],[6.159581,46.297678],[6.166904,46.295191],[6.170276,46.294737],[6.198737,46.284384],[6.219579,46.311825],[6.241484,46.30433],[6.241878,46.30416],[6.242473,46.303657],[6.24315,46.303343],[6.243631,46.30338],[6.244269,46.303899],[6.244665,46.304001],[6.244846,46.303768],[6.245023,46.303236],[6.245254,46.302988],[6.246603,46.302592],[6.247468,46.302696],[6.247626,46.302638],[6.247788,46.302188],[6.248013,46.301923],[6.248318,46.301864],[6.248871,46.301974],[6.248961,46.301883],[6.248928,46.301675],[6.248567,46.301329],[6.248255,46.300806],[6.248064,46.300732],[6.247664,46.3008],[6.247222,46.300719],[6.247159,46.30036],[6.246908,46.300016],[6.246968,46.299917],[6.247434,46.299794],[6.247874,46.299984],[6.248143,46.299519],[6.248554,46.299244],[6.248742,46.298966],[6.248941,46.298924],[6.249064,46.299014],[6.249246,46.298881],[6.249178,46.298699],[6.248735,46.29856],[6.247928,46.298024],[6.248025,46.297785],[6.248641,46.297652],[6.248898,46.29745],[6.248635,46.297271],[6.248,46.297042],[6.247993,46.296937],[6.248243,46.296699],[6.248207,46.296494],[6.2484,46.296424],[6.249587,46.296405],[6.250019,46.29649],[6.250092,46.296413],[6.249914,46.296089],[6.249485,46.29567],[6.249549,46.295373],[6.24972,46.295225],[6.249091,46.295331],[6.24874,46.295178],[6.248476,46.29494],[6.248515,46.294244],[6.249351,46.293363],[6.249705,46.293369],[6.249918,46.293515],[6.250321,46.293626],[6.250671,46.293567],[6.250867,46.293269],[6.251199,46.293199],[6.251165,46.292986],[6.250854,46.292643],[6.250571,46.29252],[6.250286,46.292121],[6.250313,46.291896],[6.250603,46.291752],[6.251219,46.291807],[6.251496,46.291607],[6.251714,46.29165],[6.251859,46.29187],[6.252229,46.291775],[6.252252,46.291711],[6.252046,46.291567],[6.252333,46.291317],[6.25237,46.290837],[6.25289,46.290638],[6.252936,46.290507],[6.252519,46.290121],[6.252061,46.289938],[6.251837,46.28974],[6.251587,46.289146],[6.25169,46.288711],[6.251425,46.288104],[6.250044,46.287715],[6.249583,46.287837],[6.249152,46.287778],[6.248645,46.28752],[6.248609,46.287411],[6.248972,46.287048],[6.248939,46.286806],[6.249025,46.286716],[6.248849,46.286512],[6.248435,46.286491],[6.247986,46.28663],[6.247808,46.286548],[6.247814,46.286174],[6.24703,46.286211],[6.246944,46.286129],[6.247009,46.285921],[6.246921,46.285679],[6.246678,46.28547],[6.246224,46.285303],[6.245065,46.285217],[6.244533,46.285331],[6.243845,46.285326],[6.243447,46.285506],[6.242923,46.285404],[6.242512,46.285099],[6.241733,46.285075],[6.241628,46.28495],[6.241612,46.284497],[6.241728,46.284165],[6.241908,46.284066],[6.241876,46.283978],[6.241594,46.283724],[6.241253,46.283697],[6.240925,46.283517],[6.240625,46.283172],[6.240155,46.282864],[6.239752,46.282731],[6.239679,46.282545],[6.239829,46.282095],[6.239179,46.281828],[6.238174,46.282183],[6.23795,46.282152],[6.237768,46.281759],[6.237986,46.281643],[6.238304,46.281643],[6.2382,46.281339],[6.238351,46.281184],[6.238109,46.28105],[6.238012,46.28076],[6.238215,46.280693],[6.238503,46.280807],[6.238455,46.280649],[6.238238,46.280568],[6.238218,46.280469],[6.238784,46.280239],[6.238457,46.279957],[6.238517,46.279866],[6.238762,46.279809],[6.238961,46.279465],[6.238465,46.279207],[6.238627,46.278847],[6.238461,46.278691],[6.238311,46.27807],[6.237607,46.277823],[6.237519,46.277548],[6.237927,46.277129],[6.237979,46.276252],[6.2381,46.275928],[6.239038,46.274903],[6.239848,46.274496],[6.240459,46.273951],[6.241863,46.273094],[6.242828,46.27281],[6.249671,46.262598],[6.249797,46.262171],[6.261597,46.254548],[6.260853,46.252774],[6.260121,46.251837],[6.260103,46.25165],[6.260342,46.251524],[6.261374,46.251245],[6.262544,46.251033],[6.262973,46.25087],[6.264742,46.24961],[6.265748,46.249038],[6.266472,46.247971],[6.266787,46.247648],[6.268125,46.248169],[6.268606,46.248523],[6.270118,46.248445],[6.270409,46.248664],[6.270915,46.248783],[6.27109,46.248926],[6.272724,46.249353],[6.273333,46.249593],[6.273432,46.249773],[6.273854,46.249892],[6.274047,46.250039],[6.274248,46.250009],[6.274545,46.250137],[6.274579,46.250295],[6.275038,46.250545],[6.277931,46.251292],[6.278294,46.251119],[6.278575,46.251296],[6.278735,46.251225],[6.279257,46.251455],[6.278596,46.252444],[6.280794,46.253466],[6.284197,46.25418],[6.285302,46.254863],[6.283567,46.255965],[6.286629,46.257324],[6.289858,46.25994],[6.29146,46.261996],[6.291567,46.262637],[6.292315,46.26349],[6.292565,46.263407],[6.292929,46.263487],[6.293346,46.263726],[6.293425,46.263961],[6.293918,46.263976],[6.294575,46.264458],[6.294851,46.264546],[6.295212,46.264341],[6.295577,46.26434],[6.295678,46.264406],[6.295592,46.264298],[6.29572,46.264069],[6.296267,46.2642],[6.296132,46.263831],[6.296509,46.263553],[6.296442,46.263441],[6.296523,46.263284],[6.296251,46.263086],[6.29633,46.262949],[6.296271,46.262861],[6.296066,46.262852],[6.296126,46.262747],[6.296009,46.262766],[6.295901,46.262601],[6.296042,46.262475],[6.296038,46.262296],[6.296162,46.262248],[6.29621,46.261786],[6.296044,46.261795],[6.296032,46.261668],[6.29584,46.261513],[6.295872,46.261164],[6.295346,46.260859],[6.295387,46.26077],[6.295128,46.260552],[6.295235,46.260443],[6.295079,46.260287],[6.295211,46.260198],[6.295012,46.260152],[6.295006,46.260066],[6.294562,46.259997],[6.294463,46.259846],[6.294318,46.259851],[6.29386,46.259532],[6.294019,46.259269],[6.2943,46.259135],[6.294138,46.25884],[6.293996,46.258794],[6.294058,46.258593],[6.293958,46.258471],[6.294045,46.258426],[6.294041,46.258264],[6.293894,46.258098],[6.29401,46.258023],[6.293985,46.257921],[6.294121,46.257882],[6.294102,46.257741],[6.294579,46.257452],[6.294635,46.257088],[6.294823,46.257028],[6.294756,46.256969],[6.294903,46.256826],[6.294839,46.256744],[6.295,46.256688],[6.294908,46.2566],[6.294678,46.256561],[6.294972,46.256027],[6.295411,46.25608],[6.295391,46.255988],[6.295599,46.255838],[6.295934,46.255922],[6.296368,46.255543],[6.29648,46.255578],[6.2966,46.2555],[6.296784,46.255561],[6.296869,46.255464],[6.297026,46.255527],[6.297123,46.25541],[6.297585,46.255467],[6.297838,46.255339],[6.297928,46.255437],[6.298265,46.255172],[6.298769,46.255306],[6.298905,46.255193],[6.299342,46.255392],[6.299759,46.255245],[6.299995,46.255292],[6.300098,46.255246],[6.300395,46.255364],[6.300928,46.25504],[6.302076,46.254679],[6.302346,46.25474],[6.302387,46.254848],[6.302707,46.254829],[6.30305,46.25496],[6.303325,46.254972],[6.303681,46.255268],[6.304015,46.255377],[6.304179,46.255595],[6.304491,46.255659],[6.304633,46.255887],[6.305065,46.255808],[6.30561,46.255863],[6.306505,46.256436],[6.306973,46.256519],[6.307158,46.256446],[6.308005,46.25639],[6.308407,46.256496],[6.308761,46.256442],[6.308948,46.25632],[6.30924,46.256341],[6.309665,46.25622],[6.309373,46.255971],[6.308566,46.255536],[6.308472,46.255176],[6.307785,46.254559],[6.307798,46.253867],[6.30767,46.253487],[6.307151,46.25306],[6.306646,46.252351],[6.305632,46.251371],[6.306056,46.251152],[6.307944,46.250709],[6.308445,46.250377],[6.309363,46.250059],[6.309021,46.248479],[6.308627,46.247479],[6.308793,46.246959],[6.309076,46.246607],[6.309253,46.245753],[6.309939,46.245245],[6.310214,46.24398],[6.309459,46.242855],[6.308841,46.24217],[6.306208,46.238729],[6.304871,46.2372],[6.302675,46.235206],[6.298509,46.229465],[6.295674,46.226062],[6.294636,46.225187],[6.29351,46.224665],[6.289239,46.223002],[6.288222,46.222077],[6.287776,46.221789],[6.280846,46.217993],[6.278091,46.216341],[6.276938,46.215559],[6.274762,46.215013],[6.273112,46.214796],[6.270772,46.214303],[6.268655,46.213559],[6.268346,46.213509],[6.267394,46.213782],[6.266675,46.213724],[6.266272,46.213617],[6.265495,46.21317],[6.264609,46.212879],[6.263083,46.212596],[6.262316,46.212152],[6.261161,46.211778],[6.259264,46.210999],[6.257286,46.210376],[6.25587,46.210067],[6.254639,46.209196],[6.254237,46.209317],[6.254063,46.209277],[6.251639,46.20726],[6.249868,46.206376],[6.249135,46.205874],[6.249563,46.205303],[6.249506,46.205047],[6.24883,46.205194],[6.247851,46.20526],[6.247394,46.205381],[6.246329,46.205921],[6.246342,46.206104],[6.246178,46.206392],[6.24478,46.206956],[6.244702,46.206906],[6.24508,46.204997],[6.244687,46.204846],[6.243323,46.204827],[6.242987,46.204565],[6.242765,46.204681],[6.242949,46.204844],[6.242822,46.204981],[6.242534,46.204975],[6.241898,46.204738],[6.24168,46.204868],[6.241273,46.204788],[6.24096,46.204898],[6.241062,46.20512],[6.240814,46.205279],[6.240313,46.205132],[6.24013,46.205189],[6.239013,46.205183],[6.237939,46.205738],[6.237554,46.206017],[6.236817,46.206134],[6.236861,46.206355],[6.236693,46.206475],[6.235549,46.206506],[6.234965,46.20635],[6.234001,46.206467],[6.23362,46.206276],[6.233365,46.205972],[6.232852,46.206072],[6.232567,46.205989],[6.231746,46.205184],[6.231664,46.204954],[6.231273,46.20484],[6.230875,46.204408],[6.23064,46.204419],[6.230607,46.204523],[6.230428,46.204598],[6.230095,46.204492],[6.22991,46.20418],[6.230254,46.203703],[6.229892,46.20344],[6.229502,46.203504],[6.229022,46.203396],[6.228692,46.203452],[6.227741,46.203377],[6.227776,46.202877],[6.228097,46.20251],[6.227699,46.202527],[6.226671,46.202016],[6.226092,46.2023],[6.225803,46.202305],[6.224563,46.201643],[6.224303,46.201265],[6.223675,46.201274],[6.223411,46.201108],[6.222919,46.201045],[6.222326,46.20076],[6.221895,46.2007],[6.221804,46.200636],[6.221814,46.200476],[6.221569,46.200292],[6.221508,46.200011],[6.221841,46.199568],[6.222062,46.199451],[6.222186,46.198993],[6.222039,46.198888],[6.221746,46.199022],[6.221396,46.19903],[6.221001,46.198957],[6.220378,46.19865],[6.219572,46.198521],[6.219116,46.198578],[6.218622,46.198777],[6.218269,46.198722],[6.218166,46.198417],[6.218247,46.198135],[6.217916,46.198006],[6.217615,46.198121],[6.217288,46.197967],[6.217095,46.197324],[6.216842,46.197229],[6.216711,46.197081],[6.216679,46.196804],[6.216372,46.196623],[6.216245,46.196012],[6.216124,46.195863],[6.216153,46.195431],[6.215958,46.195072],[6.215025,46.194792],[6.214815,46.194635],[6.214591,46.194687],[6.214403,46.19462],[6.214219,46.194043],[6.214004,46.193902],[6.213834,46.193913],[6.213885,46.194142],[6.213702,46.194256],[6.213428,46.194294],[6.213122,46.194209],[6.21289,46.194354],[6.212682,46.19433],[6.2126,46.194206],[6.212721,46.193913],[6.212534,46.193872],[6.21201,46.193351],[6.211639,46.19328],[6.211464,46.193084],[6.211571,46.192947],[6.212118,46.192935],[6.212224,46.192822],[6.211293,46.19248],[6.211135,46.192706],[6.210796,46.1927],[6.210155,46.192874],[6.208881,46.192822],[6.208369,46.192675],[6.208093,46.192515],[6.207816,46.192455],[6.207478,46.192492],[6.206946,46.192387],[6.206743,46.192194],[6.206192,46.192056],[6.205795,46.191627],[6.205285,46.191812],[6.205147,46.191796],[6.20497,46.19153],[6.205069,46.191376],[6.205235,46.191308],[6.205056,46.191158],[6.205165,46.190897],[6.204919,46.190957],[6.204495,46.190717],[6.204705,46.190455],[6.204821,46.189814],[6.204658,46.189722],[6.204321,46.18973],[6.204183,46.189542],[6.203762,46.189386],[6.203866,46.189107],[6.203056,46.189008],[6.202673,46.189119],[6.201689,46.187913],[6.201915,46.187702],[6.20175,46.18762],[6.201563,46.186752],[6.200972,46.186734],[6.20075,46.18666],[6.200238,46.18626],[6.200125,46.186032],[6.199715,46.185916],[6.198689,46.185285],[6.198655,46.185016],[6.19889,46.184931],[6.19898,46.184796],[6.198399,46.184226],[6.198057,46.183622],[6.197817,46.18344],[6.197406,46.183565],[6.197128,46.183816],[6.196259,46.183824],[6.196148,46.184127],[6.195984,46.184249],[6.195758,46.184227],[6.195602,46.184031],[6.194958,46.184248],[6.194723,46.184008],[6.19492,46.183454],[6.194135,46.183395],[6.194236,46.18306],[6.193882,46.183048],[6.193792,46.182834],[6.193134,46.182784],[6.192939,46.182465],[6.192609,46.182169],[6.191969,46.182253],[6.191825,46.182199],[6.19176,46.181925],[6.191509,46.181568],[6.191144,46.181352],[6.190866,46.181307],[6.190341,46.181408],[6.189656,46.181098],[6.189428,46.181414],[6.188454,46.181653],[6.188324,46.181558],[6.188316,46.181393],[6.18892,46.180688],[6.18872,46.18064],[6.187888,46.18084],[6.187721,46.180795],[6.18745,46.180514],[6.187005,46.18039],[6.186987,46.180072],[6.187244,46.179351],[6.18712,46.179138],[6.187143,46.178889],[6.187302,46.178621],[6.186495,46.17862],[6.186119,46.178333],[6.186616,46.177685],[6.186008,46.177396],[6.186239,46.177124],[6.186386,46.176603],[6.186175,46.175384],[6.186382,46.174655],[6.186965,46.173995],[6.188707,46.166406],[6.187748,46.16579],[6.185569,46.164178],[6.183425,46.162958],[6.178437,46.16045],[6.1776,46.159529],[6.174193,46.157846],[6.172289,46.157414],[6.17072,46.157236],[6.168535,46.157203],[6.163809,46.155397],[6.159638,46.153908],[6.158026,46.153403],[6.157597,46.15281],[6.157323,46.152702],[6.153865,46.152256],[6.151273,46.151197],[6.149379,46.150307],[6.14861,46.150128],[6.146241,46.147181],[6.14716,46.14667],[6.144876,46.14501],[6.143915,46.145529],[6.143779,46.145442],[6.142743,46.145889],[6.142491,46.146805],[6.141859,46.147263],[6.141714,46.147129],[6.14163,46.146799],[6.141712,46.146537],[6.141339,46.146134],[6.141446,46.145519],[6.140906,46.145265],[6.140588,46.144875],[6.139279,46.144459],[6.136831,46.143001],[6.136324,46.142313],[6.136382,46.141624],[6.132886,46.140902],[6.132082,46.14154],[6.13115,46.14068],[6.130522,46.140449],[6.129787,46.140375],[6.128154,46.140363],[6.126597,46.140578],[6.125165,46.141397],[6.123329,46.1421],[6.120176,46.1428],[6.119324,46.142669],[6.114259,46.143127],[6.113959,46.143016],[6.112493,46.14289],[6.110342,46.142832],[6.109428,46.143554],[6.108347,46.143104],[6.107741,46.14296],[6.106465,46.143679],[6.106353,46.144081],[6.105583,46.144109],[6.104517,46.144278],[6.10429,46.14421],[6.103904,46.144308],[6.103048,46.144363],[6.102637,46.14425],[6.101985,46.144211],[6.101421,46.144276],[6.09926,46.144128],[6.098535,46.143868],[6.095844,46.148295],[6.09499,46.149151],[6.093542,46.149989],[6.093684,46.150561],[6.093123,46.151012],[6.0929,46.151332],[6.09182,46.151991],[6.074925,46.148891],[6.072349,46.149988],[6.060678,46.151224],[6.052251,46.151387],[6.048462,46.147134],[6.046975,46.142574],[6.047523,46.142204],[6.046846,46.141782],[6.045065,46.140032],[6.042469,46.141456],[6.041988,46.140829],[6.041002,46.140015],[6.040729,46.139931],[6.039654,46.139831],[6.039251,46.139671],[6.037117,46.138087],[6.036402,46.137251],[6.03613,46.136839],[6.035922,46.136125],[6.035823,46.136091],[6.035355,46.134442],[6.034995,46.134746],[6.034714,46.1356],[6.034348,46.136053],[6.034689,46.136667],[6.034649,46.136774],[6.034326,46.136921],[6.033647,46.136575],[6.033505,46.136615],[6.033742,46.136969],[6.0337,46.137126],[6.033472,46.137281],[6.03373,46.137951],[6.03366,46.138015],[6.033364,46.138025],[6.032896,46.137753],[6.032549,46.137917],[6.03291,46.138284],[6.033089,46.138577],[6.033059,46.138737],[6.032712,46.138807],[6.031944,46.138418],[6.031485,46.138027],[6.031737,46.138662],[6.031604,46.138965],[6.031762,46.139214],[6.031701,46.139428],[6.031505,46.139518],[6.030889,46.139492],[6.030477,46.139115],[6.029923,46.139227],[6.030014,46.139518],[6.029857,46.139656],[6.029628,46.139655],[6.029252,46.139415],[6.029072,46.139418],[6.028656,46.139799],[6.028542,46.139831],[6.028296,46.139754],[6.02837,46.140106],[6.028544,46.140183],[6.028585,46.140306],[6.028469,46.140481],[6.027998,46.140423],[6.027836,46.140239],[6.027285,46.140078],[6.026253,46.140151],[6.025876,46.140344],[6.02526,46.140455],[6.023934,46.140422],[6.023065,46.141342],[6.022546,46.1417],[6.021696,46.141609],[6.021519,46.141511],[6.021399,46.141257],[6.021243,46.141155],[6.020714,46.141528],[6.020541,46.141839],[6.020179,46.142103],[6.019775,46.142133],[6.019275,46.142001],[6.019303,46.142126],[6.01841,46.14226],[6.018298,46.142425],[6.017206,46.142879],[6.015546,46.142829],[6.015012,46.143121],[6.014709,46.143047],[6.014293,46.142403],[6.013789,46.142581],[6.013609,46.142577],[6.013278,46.142233],[6.013074,46.142147],[6.01266,46.142246],[6.012188,46.142164],[6.011422,46.142213],[6.01112,46.142149],[6.010916,46.141978],[6.010745,46.142188],[6.01052,46.142292],[6.009616,46.14214],[6.00953,46.142502],[6.009247,46.142666],[6.008542,46.142864],[6.007666,46.142636],[6.006721,46.142175],[6.006176,46.142168],[6.006053,46.142202],[6.005969,46.142355],[6.005695,46.142385],[6.005031,46.142286],[6.004337,46.141971],[6.003736,46.142058],[6.003234,46.141823],[6.002606,46.142218],[6.002119,46.142326],[6.001246,46.142237],[6.000793,46.142693],[6.000598,46.142714],[6.000399,46.142599],[6.000172,46.142716],[6.000053,46.143062],[5.999881,46.143189],[5.999584,46.143132],[5.999451,46.142985],[5.999246,46.142948],[5.998736,46.142912],[5.99848,46.14305],[5.998114,46.143082],[5.997429,46.142842],[5.997169,46.142889],[5.997,46.142982],[5.996985,46.143276],[5.996779,46.143625],[5.996427,46.14382],[5.995883,46.143873],[5.995611,46.144019],[5.995016,46.14408],[5.994788,46.143989],[5.994751,46.143656],[5.994669,46.143673],[5.994245,46.144168],[5.994186,46.144353],[5.994287,46.144489],[5.994098,46.144614],[5.992975,46.14409],[5.992103,46.143955],[5.990355,46.143352],[5.9893,46.143682],[5.989011,46.143878],[5.988842,46.143867],[5.988531,46.143333],[5.988114,46.143373],[5.98786,46.143324],[5.987661,46.143064],[5.986988,46.142615],[5.986572,46.142976],[5.986164,46.142854],[5.985996,46.142907],[5.985495,46.143453],[5.984009,46.143245],[5.983504,46.143047],[5.983087,46.142583],[5.982384,46.142304],[5.982275,46.141532],[5.982857,46.141294],[5.982542,46.140412],[5.981868,46.137428],[5.980609,46.136493],[5.979032,46.13557],[5.977456,46.133646],[5.976676,46.133193],[5.975378,46.13271],[5.974111,46.132396],[5.973405,46.132068],[5.972959,46.131688],[5.972659,46.131832],[5.972646,46.131938],[5.971714,46.13218],[5.970408,46.132029],[5.969858,46.132117],[5.969449,46.132079],[5.969112,46.131461],[5.968585,46.131242],[5.967625,46.131077],[5.967275,46.130736],[5.966644,46.130314],[5.9659,46.130079],[5.965598,46.130127],[5.965365,46.130019],[5.965378,46.129909],[5.965208,46.129766]],[[6.057682,46.192648],[6.05775,46.192699],[6.057662,46.192738],[6.057607,46.192688],[6.057682,46.192648]]],[[[6.29434,46.25899],[6.294356,46.25898],[6.294351,46.258966],[6.29434,46.25899]]],[[[6.184044,46.362692],[6.185629,46.3617],[6.185866,46.361235],[6.186759,46.360709],[6.186712,46.360572],[6.188008,46.360294],[6.1889,46.360299],[6.192173,46.360687],[6.194539,46.360753],[6.19664,46.360567],[6.197958,46.360266],[6.197871,46.359883],[6.198073,46.359747],[6.198115,46.359525],[6.198541,46.3592],[6.198453,46.359007],[6.19811,46.358895],[6.197877,46.358611],[6.198005,46.358385],[6.198241,46.35826],[6.198477,46.357797],[6.198904,46.357452],[6.198835,46.357312],[6.199137,46.357052],[6.199301,46.357014],[6.199635,46.356554],[6.199816,46.356155],[6.199743,46.355945],[6.199904,46.355592],[6.20017,46.355526],[6.200442,46.355554],[6.202031,46.354726],[6.202644,46.354806],[6.202789,46.354756],[6.203,46.354863],[6.203562,46.354886],[6.204145,46.355111],[6.205018,46.355212],[6.205273,46.355126],[6.206006,46.355118],[6.206558,46.354932],[6.207065,46.355017],[6.207522,46.354952],[6.208069,46.354657],[6.208623,46.354558],[6.209133,46.354299],[6.209452,46.354283],[6.210213,46.353843],[6.210455,46.353904],[6.211514,46.353521],[6.21183,46.35376],[6.211904,46.353741],[6.212053,46.353683],[6.212049,46.353509],[6.212351,46.353487],[6.212524,46.353386],[6.212491,46.353249],[6.212641,46.353119],[6.241335,46.343649],[6.232283,46.330498],[6.206045,46.339163],[6.206168,46.3394],[6.204138,46.339704],[6.20355,46.338887],[6.193201,46.343736],[6.194924,46.348653],[6.194195,46.34863],[6.193382,46.348907],[6.191467,46.348646],[6.190939,46.348845],[6.190662,46.349154],[6.190348,46.349188],[6.190179,46.34933],[6.189933,46.349386],[6.189847,46.34951],[6.189567,46.349579],[6.188816,46.35017],[6.188486,46.35003],[6.187867,46.349955],[6.187639,46.349814],[6.187444,46.349809],[6.187207,46.349604],[6.187062,46.349612],[6.187007,46.349548],[6.186284,46.349582],[6.183034,46.350741],[6.183364,46.351202],[6.180353,46.352812],[6.175567,46.353843],[6.175466,46.3538],[6.1748,46.354142],[6.173074,46.354688],[6.172712,46.354866],[6.172744,46.355007],[6.172095,46.356148],[6.171179,46.358376],[6.173959,46.359201],[6.176307,46.360026],[6.175209,46.360985],[6.174105,46.361779],[6.174644,46.362197],[6.174506,46.362365],[6.176454,46.363117],[6.176598,46.363047],[6.178473,46.363722],[6.180251,46.364524],[6.181534,46.363814],[6.183813,46.362721],[6.184044,46.362692]]],[[[6.17126,46.340665],[6.170784,46.341027],[6.168549,46.342121],[6.168543,46.34219],[6.166869,46.3431],[6.169792,46.34719],[6.171825,46.349779],[6.17398,46.348906],[6.17472,46.349804],[6.174796,46.350482],[6.175021,46.350634],[6.175291,46.351117],[6.175558,46.351269],[6.18076,46.348012],[6.181633,46.347619],[6.181992,46.347258],[6.183538,46.346204],[6.184331,46.345837],[6.181692,46.343757],[6.181174,46.344242],[6.18075,46.343898],[6.178783,46.34473],[6.17745,46.345199],[6.176718,46.345567],[6.176623,46.345724],[6.176682,46.345881],[6.175128,46.346734],[6.174499,46.346958],[6.174208,46.3466],[6.174248,46.346338],[6.173931,46.346019],[6.173765,46.345558],[6.173515,46.34539],[6.173502,46.34526],[6.173315,46.345236],[6.17218,46.344456],[6.17222,46.344037],[6.172097,46.343802],[6.172091,46.343197],[6.172357,46.342907],[6.172341,46.342689],[6.172467,46.342626],[6.172324,46.342395],[6.172468,46.342229],[6.172422,46.342095],[6.172559,46.342086],[6.172602,46.341976],[6.172558,46.341639],[6.172361,46.341266],[6.171987,46.34109],[6.171451,46.341011],[6.17126,46.340665]]]]}}]}
