{"type": "FeatureCollection", "coordinate_system": "EPSG:2056", "features": [{"type": "Feature", "properties": {"boundary_variant": "inner", "status": "research_only"}, "geometry": {"type": "Polygon", "coordinates": [[[2530245.420158331, 1174608.6905412269], [2530245.7674845112, 1174608.3854209518], [2530238.0964140752, 1174598.6990490311], [2530229.680092957, 1174587.827505231], [2530228.5031086653, 1174586.2698134107], [2530227.495588758, 1174584.4660010391], [2530226.5472856993, 1174582.027399219], [2530225.802253416, 1174579.4533559743], [2530225.2094587726, 1174576.8284954468], [2530225.1416314994, 1174576.227512354], [2530225.251886537, 1174573.2217365673], [2530225.556582181, 1174570.8425682916], [2530226.149388053, 1174568.3871742242], [2530227.2669501593, 1174566.0586100356], [2530228.7826552405, 1174563.7980906572], [2530230.1459055003, 1174562.4262332872], [2530231.644597241, 1174561.232237883], [2530233.3041391037, 1174560.292546258], [2530238.435000555, 1174558.2266921906], [2530242.5839671157, 1174553.9593133412], [2530244.666844518, 1174553.5019593744], [2530247.3423338174, 1174540.9282651846], [2530246.9444219475, 1174533.722928856], [2530259.721475492, 1174496.1883316091], [2530243.1174774882, 1174490.3035715658], [2530232.093305347, 1174480.693418662], [2530211.890987519, 1174456.1135807647], [2530203.0769623374, 1174441.440189134], [2530192.2644770266, 1174423.447713515], [2530182.121050275, 1174391.1203642476], [2530180.31748735, 1174376.6924630518], [2530402.518964469, 1174310.5482245572], [2530414.11914915, 1174316.6528243409], [2530549.888839691, 1174277.8909089274], [2530555.341564238, 1174300.074534291], [2530560.1674447395, 1174332.0465791298], [2530569.523908035, 1174335.577132356], [2530615.7201193795, 1174344.1292368178], [2530632.197084154, 1174345.1197861498], [2530633.0352032, 1174318.43149423], [2530671.5095173195, 1174321.4457531294], [2530672.5767202186, 1174306.560930366], [2530698.011793989, 1174309.2026414576], [2530701.3649678607, 1174276.4769635685], [2530715.5891672303, 1174274.9869190631], [2530746.3842197694, 1174272.226470711], [2530747.391512875, 1174279.2207860702], [2530748.0688805315, 1174305.0283861638], [2530748.051598317, 1174330.319626034], [2530746.8749773656, 1174359.2176223153], [2530746.392183747, 1174371.0882725131], [2530744.9193076678, 1174383.0523732624], [2530740.363811104, 1174382.366325337], [2530739.821985907, 1174408.4706459513], [2530741.9300509878, 1174410.6381512573], [2530741.6337440186, 1174417.1578788531], [2530746.036315708, 1174436.5555766658], [2530778.668527176, 1174446.0981640585], [2530806.991147115, 1174455.209222822], [2530811.4532180205, 1174443.6430564758], [2530812.740453045, 1174444.1421916971], [2530842.7219608505, 1174455.9371134613], [2530846.2193296575, 1174457.3341750556], [2530873.8640902718, 1174468.239783323], [2530872.8227205877, 1174485.9531664941], [2530872.1112654624, 1174489.7804206824], [2530863.2124858233, 1174534.012185761], [2530890.230658652, 1174536.1881439541], [2530899.248218691, 1174528.6695248964], [2530915.74200358, 1174518.5936764197], [2530942.4049062287, 1174510.5923289845], [2530966.1720675956, 1174501.8291415218], [2530989.236384935, 1174497.8242904039], [2531017.1692850487, 1174495.4111612313], [2531043.3239927357, 1174495.9023842497], [2531048.36182999, 1174494.7932362524], [2531053.2980276276, 1174495.6651138547], [2531057.0494809174, 1174498.6965223157], [2531079.8596886965, 1174504.4030037527], [2531103.6685839486, 1174513.7003120324], [2531121.4749678667, 1174524.3942302505], [2531140.711984585, 1174540.684764913], [2531146.7747715223, 1174546.7473633229], [2531161.0165923396, 1174561.3277448688], [2531174.7665954316, 1174578.863083739], [2531187.755189341, 1174599.2093243077], [2531200.0749508385, 1174628.9964434237], [2531226.9745343314, 1174702.8547441598], [2531233.7818915085, 1174725.6908190663], [2531261.7823377443, 1174753.6573670441], [2531271.663326149, 1174764.4613008092], [2531294.8292279327, 1174783.4363494767], [2531300.5022751116, 1174786.9925186995], [2531320.0614340557, 1174798.6685558772], [2531329.019538672, 1174802.3009587897], [2531347.282858906, 1174809.1932463953], [2531366.9604611867, 1174815.2388639161], [2531376.4435415585, 1174817.1014798097], [2531376.4095167858, 1174818.3717048797], [2531346.596779708, 1174827.896927935], [2531315.6501083225, 1174843.0105792684], [2531273.8138110116, 1174864.0513496662], [2531263.9327871236, 1174869.300830931], [2531234.1372668874, 1174883.110453027], [2531212.571605542, 1174902.0935853198], [2531202.8680051016, 1174910.7637817857], [2531169.5668762727, 1174949.0941892592], [2531166.476468482, 1174952.489488428], [2531156.714293061, 1174963.657499934], [2531154.9020804106, 1174965.7743942847], [2531150.355183864, 1174971.0325004954], [2531140.304465105, 1174983.3858969249], [2531129.3993193298, 1174996.6283844688], [2531125.038463766, 1175003.325749418], [2531105.6911030184, 1175030.302110486], [2531079.0626001414, 1175062.2142243667], [2531040.935095379, 1175097.877342163], [2531030.4270215305, 1175108.65603738], [2531027.226796547, 1175111.805646038], [2531020.893530822, 1175117.368654014], [2531015.508576335, 1175121.6700520967], [2531009.538788273, 1175126.106675432], [2531003.569862125, 1175130.2724150207], [2530997.4820750454, 1175134.158872771], [2530991.7159906807, 1175137.435519805], [2530973.511634668, 1175146.7831221817], [2530968.4565683696, 1175149.1284733207], [2530937.7631273572, 1175162.6163920646], [2530944.2746383366, 1175178.3483354484], [2530958.5413844534, 1175216.8396987477], [2530941.4042057754, 1175222.868223912], [2530987.295230172, 1175358.6547258645], [2530989.937289293, 1175370.6020400557], [2531015.87152617, 1175359.3408268846], [2531025.1853173818, 1175379.5940372485], [2531006.1006978424, 1175388.4928922644], [2530963.4353871723, 1175408.2296290481], [2530935.112718218, 1175421.2940010978], [2530923.267467359, 1175425.0958218668], [2530929.4400545713, 1175439.0579763222], [2530935.5359845473, 1175453.08795921], [2530938.330506164, 1175460.674432978], [2530939.879570848, 1175465.822519598], [2530940.971702547, 1175473.2651499023], [2530941.8691637693, 1175486.660116391], [2530941.2171023632, 1175507.251801748], [2530940.8363708965, 1175520.8162292512], [2530940.48062664, 1175530.2825173002], [2530940.8277182514, 1175538.6818522331], [2530941.5219233157, 1175545.5992944855], [2530943.9775062674, 1175558.155989034], [2530945.1290730457, 1175563.6511849528], [2530958.7692290563, 1175594.462841865], [2530976.829632346, 1175636.2478843112], [2530984.5090820435, 1175654.3335904162], [2530985.5844284017, 1175657.1106895383], [2530985.702856823, 1175658.2284620884], [2530985.6352425767, 1175658.668809527], [2530985.0172462743, 1175659.7441606575], [2530982.9599730982, 1175669.2102296164], [2530953.8155791764, 1175695.805436887], [2530932.224498167, 1175719.699359879], [2530979.0555805597, 1175886.2298773988], [2530982.9844648396, 1175889.2696840789], [2531047.2747154743, 1176114.2230603641], [2531085.65582048, 1176104.4351549973], [2531085.639024939, 1176104.3843373412], [2531115.2738959147, 1176096.8657638554], [2531117.940939083, 1176106.1455837635], [2531124.0875272425, 1176192.3066549832], [2531133.1724042734, 1176318.8300572215], [2531133.3928943793, 1176321.8528447219], [2531127.4739327133, 1176322.3185880366], [2531127.491158538, 1176322.5387618686], [2531037.8247476737, 1176328.9479358662], [2531033.311872456, 1176334.4939368833], [2530971.222630174, 1176342.1989134555], [2530978.4197076275, 1176376.355152171], [2530979.5118368003, 1176384.9407482443], [2530968.7841453156, 1176387.6501003401], [2530957.4974890305, 1176377.2356934373], [2530916.220647797, 1176383.9752889164], [2530819.0267746607, 1176388.0309014649], [2530820.0599654396, 1176368.6920004552], [2530817.1388501218, 1176352.1981237163], [2530814.293959997, 1176336.26313329], [2530813.684148345, 1176336.3646595154], [2530799.519060374, 1176287.5095167756], [2530798.9514576015, 1176285.6128986233], [2530790.3069299837, 1176255.6819479296], [2530785.62485441, 1176239.4420477287], [2530781.4591306555, 1176226.3095599376], [2530767.2513989913, 1176181.3324904833], [2530747.446803662, 1176152.2141663674], [2530738.4292901116, 1176138.70053571], [2530729.988005776, 1176121.0724018204], [2530723.6207817565, 1176097.830002264], [2530716.0593532347, 1176070.2698250865], [2530708.5831465395, 1176064.6135491754], [2530676.585556737, 1176131.0377049933], [2530672.3607264506, 1176166.0490971648], [2530669.9558866494, 1176187.1829768023], [2530669.3210839317, 1176193.1269141876], [2530669.3210790097, 1176195.3538456087], [2530692.300471255, 1176230.0349833877], [2530665.8408230245, 1176245.301097496], [2530664.5458047753, 1176259.0007495235], [2530663.4364023157, 1176271.6674692573], [2530662.623274279, 1176292.5388664915], [2530661.53104934, 1176327.2791665096], [2530660.252378588, 1176348.8956006877], [2530598.451326879, 1176320.1752192052], [2530559.72266397, 1176337.6850332692], [2530529.918521969, 1176355.3896320444], [2530501.2575960634, 1176357.2607767817], [2530485.0009082374, 1176358.3106845354], [2530382.9640933285, 1176353.145472483], [2530377.3758823834, 1176351.105003532], [2530369.095069336, 1176310.2851944694], [2530305.4311232218, 1176319.6325886995], [2530303.991882637, 1176311.6057703388], [2530288.2091439622, 1176308.0157721336], [2530265.0350294635, 1176205.293179722], [2530253.7060412923, 1176155.1088179888], [2530250.158532482, 1176139.402289966], [2530262.334317703, 1176133.5602286574], [2530248.118183514, 1176090.708240039], [2530222.742488387, 1176014.233481281], [2530206.6551440144, 1175972.3297969752], [2530198.188036794, 1175947.199604364], [2530205.9015570604, 1175943.2961392244], [2530193.3703991277, 1175887.9301003302], [2530182.4055284294, 1175839.4136770142], [2530177.0038283328, 1175821.074103178], [2530151.5601495667, 1175814.7405781809], [2530124.9567066827, 1175809.6264581466], [2530134.2872149344, 1175768.0275204084], [2530129.765954878, 1175767.6974112205], [2530141.6539130053, 1175731.2551754871], [2530147.970370106, 1175731.5600951626], [2530168.841558843, 1175729.2823922553], [2530186.2838416076, 1175730.9251749408], [2530188.9339330466, 1175713.3980548189], [2530193.3032383155, 1175683.230055778], [2530265.527064416, 1175714.389167687], [2530379.9087915015, 1175768.7054880208], [2530404.065403466, 1175795.8511937587], [2530408.493641777, 1175796.0288498842], [2530420.0257938686, 1175797.0025926325], [2530430.093064243, 1175797.6376197932], [2530474.926251325, 1175802.734984468], [2530486.1026794477, 1175803.9964058325], [2530510.047692244, 1175799.8647279427], [2530509.878445474, 1175799.0772698035], [2530539.4200712717, 1175795.0724330028], [2530587.580976889, 1175788.4935957592], [2530608.680846091, 1175785.6825236871], [2530632.8541002716, 1175784.8275060807], [2530638.1630519503, 1175776.7752938268], [2530673.3354275147, 1175720.9603996305], [2530670.3299043374, 1175703.9838629893], [2530667.8997333203, 1175690.0133189792], [2530650.499648375, 1175691.3763124172], [2530648.527248545, 1175685.5680264726], [2530645.580699564, 1175680.3183015254], [2530640.1783254277, 1175674.670643354], [2530625.0984340557, 1175664.840415356], [2530622.7957142936, 1175661.4791262317], [2530622.04208757, 1175650.4379202004], [2530622.8295613173, 1175643.2071776828], [2530635.9280895405, 1175610.8120511868], [2530641.9146176437, 1175534.117295621], [2530625.657851241, 1175473.2982595817], [2530612.466229247, 1175440.708632984], [2530596.1927372515, 1175445.610989942], [2530597.2084928467, 1175423.3509371185], [2530599.3340358757, 1175409.0922931181], [2530594.3298331983, 1175390.625676113], [2530544.1375991544, 1175261.6211634965], [2530536.6017374657, 1175259.9870158636], [2530528.3038402586, 1175252.2734858836], [2530527.525268293, 1175128.9251265463], [2530536.119346244, 1175089.8072066964], [2530537.355549892, 1175089.5955411259], [2530535.7722197846, 1175097.1736073906], [2530556.855494587, 1175100.7298106756], [2530564.238474389, 1175101.6275331534], [2530566.9055699795, 1175087.1910286834], [2530567.1510464344, 1175086.505206699], [2530568.4042610275, 1175086.3105521488], [2530589.9445197396, 1175064.5330967433], [2530588.6661196197, 1175061.1293900912], [2530588.6323132827, 1175060.993948142], [2530588.598291636, 1175060.8498930368], [2530588.5730984355, 1175060.7230642627], [2530588.5474746157, 1175060.579009176], [2530588.5222814344, 1175060.443567246], [2530588.505270751, 1175060.308125334], [2530588.488475416, 1175060.164070267], [2530588.479647268, 1175060.0116173904], [2530588.4628519695, 1175059.8509819985], [2530588.462852288, 1175059.7069269684], [2530588.462852606, 1175059.5628719383], [2530588.4628529428, 1175059.4106344103], [2530588.4714664165, 1175059.2667947283], [2530588.4796492704, 1175059.1057287338], [2530588.49666059, 1175058.9532759145], [2530588.505273858, 1175058.9024583146], [2530590.0631908136, 1175053.2888374932], [2530591.9173978576, 1175048.7927742861], [2530593.5177299078, 1175045.3044497417], [2530596.7267884673, 1175039.851467925], [2530600.223742131, 1175034.2294535625], [2530608.182757268, 1175021.308876203], [2530617.843731946, 1175008.4048829302], [2530630.112904581, 1174934.6991216282], [2530630.857949554, 1174931.5322812318], [2530634.0243837154, 1174921.2279393403], [2530637.4369444177, 1174908.383363031], [2530644.0159344524, 1174887.419171788], [2530578.6499256683, 1174845.9893174544], [2530556.7793486337, 1174869.4855273613], [2530553.4352829196, 1174873.1008920989], [2530525.9085052465, 1174870.0188287958], [2530515.079395481, 1174871.991648186], [2530504.817021183, 1174878.5705691988], [2530488.255388173, 1174897.4774861238], [2530479.8814428286, 1174906.5202045154], [2530474.2002100633, 1174904.3610891383], [2530456.2245762683, 1174894.2853798005], [2530452.6768344985, 1174886.5550646663], [2530448.7481639013, 1174884.26029596], [2530407.995936449, 1174858.1563147285], [2530408.0469697155, 1174858.0122598114], [2530414.18559545, 1174844.608911048], [2530398.868838309, 1174836.5820620132], [2530395.7104059393, 1174831.2225188618], [2530396.709543143, 1174826.1844709388], [2530396.0745396754, 1174825.5326689733], [2530398.352296127, 1174822.1795724714], [2530379.7246534033, 1174808.954030632], [2530361.0294101713, 1174789.9537983655], [2530349.386985, 1174800.1483037863], [2530332.4444978917, 1174790.681977502], [2530320.2011124613, 1174790.6141218382], [2530309.456422645, 1174787.5999242312], [2530294.2072948157, 1174772.3167069491], [2530288.559876285, 1174766.7200811838], [2530262.760697712, 1174756.6779458607], [2530253.4130723905, 1174748.8543804958], [2530235.2427741457, 1174742.004297559], [2530204.3885184564, 1174739.2019391342], [2530198.2329136115, 1174738.1857884778], [2530194.625978593, 1174720.4131795862], [2530193.3053809344, 1174713.8766527628], [2530200.0027617356, 1174711.065764185], [2530219.1720171156, 1174696.9255887489], [2530232.2877030205, 1174695.579596823], [2530233.1681937226, 1174690.6685926854], [2530233.3376746676, 1174682.9298879406], [2530233.786421187, 1174682.4301105698], [2530234.396234131, 1174681.7442893905], [2530234.997218609, 1174681.049855036], [2530235.5900205877, 1174680.355851321], [2530236.173994083, 1174679.661416929], [2530236.758182926, 1174678.9585847105], [2530237.334189289, 1174678.247569976], [2530237.9013671866, 1174677.527726737], [2530238.4601472574, 1174676.8078834796], [2530239.019142675, 1174676.079857725], [2530239.569309609, 1174675.3516166217], [2530240.111509392, 1174674.6149776739], [2530240.6446653805, 1174673.8699408793], [2530241.1866499092, 1174673.099495295], [2530241.7200212823, 1174672.3290496913], [2530242.253392694, 1174671.5413777763], [2530242.778581606, 1174670.7541365009], [2530243.295157382, 1174669.9582820507], [2530243.802904673, 1174669.162427581], [2530244.3026847956, 1174668.3663577647], [2530244.802034297, 1174667.553492294], [2530245.284803455, 1174666.749239942], [2530245.767357322, 1174665.9277612783], [2530246.233115535, 1174665.1064979064], [2530246.698658419, 1174664.285234534], [2530247.1474056677, 1174663.4555732976], [2530247.5961529356, 1174662.6172989053], [2530248.138138045, 1174661.58415207], [2530250.635966353, 1174655.640218803], [2530252.59203042, 1174648.223219375], [2530253.0237715147, 1174645.2090464719], [2530253.142209275, 1174642.1014201364], [2530252.8457151814, 1174635.8611881346], [2530252.668075993, 1174632.6267324262], [2530252.1093072076, 1174628.2409122796], [2530251.567330333, 1174625.5484385916], [2530253.59960449, 1174625.5230342743], [2530249.8485950152, 1174616.5392891993], [2530247.84195368, 1174612.6362332324], [2530245.5812238757, 1174608.9022098857], [2530245.420158331, 1174608.6905412269]]]}}, {"type": "Feature", "properties": {"boundary_variant": "outer", "status": "research_only"}, "geometry": {"type": "Polygon", "coordinates": [[[2530237.300538232, 1174607.8608610511], [2530240.6025970895, 1174612.2634829155], [2530242.609239753, 1174615.5657712682], [2530244.404213665, 1174619.0708989713], [2530244.641289523, 1174619.6385064598], [2530243.6253677644, 1174619.655084539], [2530245.1918751923, 1174624.3038234927], [2530246.18237725, 1174629.2146164372], [2530246.681931544, 1174633.1687020208], [2530246.8511734107, 1174636.1744784254], [2530247.1390549666, 1174642.1352135036], [2530247.0460272883, 1174644.6670504329], [2530246.69869658, 1174647.0208098048], [2530244.9461199455, 1174653.7013848654], [2530242.710778944, 1174659.0187116314], [2530242.295838425, 1174659.8061684794], [2530241.8725000788, 1174660.5936253087], [2530241.449161752, 1174661.3724689824], [2530241.017210269, 1174662.151527966], [2530240.5770763066, 1174662.9219737756], [2530240.1199313803, 1174663.6840217207], [2530239.671184281, 1174664.4460696846], [2530239.205426199, 1174665.2081176105], [2530238.7312703086, 1174665.9617676914], [2530238.2568991086, 1174666.706804616], [2530237.765947583, 1174667.4520568326], [2530237.27478073, 1174668.196878391], [2530236.775216067, 1174668.933732762], [2530236.267253597, 1174669.6617586296], [2530235.7592911264, 1174670.389999826], [2530235.2595112287, 1174671.0844344043], [2530234.751764163, 1174671.778438307], [2530234.23518863, 1174672.4644750215], [2530233.710215289, 1174673.1418985613], [2530233.185241949, 1174673.8191067723], [2530232.6518707816, 1174674.496314965], [2530232.1098864954, 1174675.1569428134], [2530231.56811752, 1174675.8257531605], [2530231.009337599, 1174676.4777678163], [2530230.458740176, 1174677.1297824902], [2530229.8915624283, 1174677.7817971273], [2530229.3243846996, 1174678.4251986088], [2530228.7483785045, 1174679.0602022437], [2530227.3853433495, 1174680.5334795234], [2530227.1820518, 1174690.067381182], [2530227.182051781, 1174690.0759943377], [2530216.928518189, 1174691.1259153606], [2530197.0221908083, 1174705.8076413358], [2530186.446948344, 1174710.2526523182], [2530188.74146794, 1174721.607165296], [2530193.1696584146, 1174743.4268825646], [2530203.6264563254, 1174745.1626718917], [2530233.8879117, 1174747.9060288891], [2530250.347853963, 1174754.1124899816], [2530259.6616727044, 1174761.9106464623], [2530285.2235590424, 1174771.859328521], [2530289.965306229, 1174776.5586767832], [2530306.32359072, 1174792.9596688056], [2530319.3628238267, 1174796.6088763925], [2530330.861171284, 1174796.6765150805], [2530350.149233153, 1174807.4466630023], [2530360.724701558, 1174798.200679001], [2530375.82116107, 1174813.5433267204], [2530390.0797873856, 1174823.6698454611], [2530388.3610265586, 1174826.2014634681], [2530390.215219453, 1174828.1066976201], [2530389.376934805, 1174832.2978573588], [2530394.5758161563, 1174841.1035286388], [2530406.3620448518, 1174847.2759574354], [2530402.4503612616, 1174855.827735812], [2530400.8498108126, 1174860.7049317218], [2530445.6153325005, 1174889.3827480932], [2530448.011294015, 1174890.7800225818], [2530451.5928422897, 1174898.5697685655], [2530471.6515652216, 1174909.814072415], [2530481.540967043, 1174913.5649082775], [2530492.7090267963, 1174901.499409049], [2530508.7710955, 1174883.168280482], [2530517.314496823, 1174877.6817191485], [2530526.1201601494, 1174876.0811989435], [2530555.7718028235, 1174879.4003440556], [2530561.1823848174, 1174873.5750634472], [2530579.649249959, 1174853.7284554404], [2530636.9120131675, 1174890.0183911645], [2530631.6708709826, 1174906.7154126735], [2530628.2583102426, 1174919.5769999654], [2530625.0662517743, 1174929.9575682287], [2530624.2281838586, 1174933.5137230596], [2530612.1624997794, 1175005.9748838046], [2530603.212758535, 1175017.9303548716], [2530595.118301037, 1175031.0712133902], [2530591.5957231214, 1175036.7442606438], [2530588.1838240144, 1175042.5273412068], [2530586.413811935, 1175046.4049800164], [2530584.3735597725, 1175051.3329925733], [2530582.629166441, 1175057.6494464923], [2530582.5783481295, 1175057.9627499208], [2530582.5357123353, 1175058.2674402115], [2530582.5105181807, 1175058.5723458696], [2530582.485324008, 1175058.8854340257], [2530582.4683123515, 1175059.190339702], [2530582.4596985024, 1175059.5038585523], [2530582.4596978105, 1175059.8169467642], [2530582.4683102923, 1175060.121852497], [2530582.49371841, 1175060.434940765], [2530582.5189112164, 1175060.7398465346], [2530582.5445347, 1175061.0361391492], [2530582.586738527, 1175061.3240339737], [2530582.637555509, 1175061.612144146], [2530582.688372492, 1175061.8998236607], [2530582.7473719725, 1175062.1877185223], [2530582.8151999563, 1175062.4672155764], [2530582.8918564063, 1175062.755110477], [2530582.9760493864, 1175063.0343922386], [2530582.9760493673, 1175063.0430053945], [2530565.517358974, 1175080.6880930183], [2530562.6976261153, 1175081.1370475295], [2530561.097291857, 1175085.6244981417], [2530559.3617202723, 1175094.989147903], [2530557.7191919, 1175094.7944869522], [2530542.9183505857, 1175092.2882412404], [2530545.0268735173, 1175082.1531455212], [2530531.115329606, 1175084.5914991666], [2530521.513502307, 1175128.2901083499], [2530522.3176912055, 1175254.8981165402], [2530533.714380143, 1175265.4989985086], [2530539.717531495, 1175266.8030435592], [2530588.6231826968, 1175392.5052694143], [2530593.220632462, 1175409.448002938], [2530591.222350868, 1175422.7751344247], [2530589.8166152947, 1175453.7900285558], [2530608.952476167, 1175448.032391558], [2530619.9512006827, 1175475.2034770215], [2530635.8520313995, 1175534.676276029], [2530630.0179604576, 1175609.4235974152], [2530616.9618522334, 1175641.7252712648], [2530616.022137944, 1175650.3192606736], [2530616.919599597, 1175663.5195698424], [2530620.822853862, 1175669.2178269902], [2530636.32608124, 1175679.3191550015], [2530640.720287816, 1175683.9168672576], [2530643.0236519175, 1175688.0234096851], [2530646.325699077, 1175697.7183851046], [2530662.920884467, 1175696.422787831], [2530664.4195545735, 1175705.0167826295], [2530667.027585628, 1175719.724182508], [2530633.1250090054, 1175773.5238163923], [2530629.543431535, 1175778.9427754206], [2530608.1726831323, 1175779.6963793123], [2530586.77652128, 1175782.5496551928], [2530538.615615662, 1175789.1284924364], [2530502.63888396, 1175793.9969992067], [2530502.859163154, 1175795.021534571], [2530485.933444318, 1175797.9426489342], [2530475.5950760636, 1175796.7658536774], [2530430.618264628, 1175791.6600908583], [2530420.466154688, 1175791.0164503546], [2530408.8661739957, 1175790.042492127], [2530406.8595242198, 1175789.9580787653], [2530383.583605223, 1175763.811501042], [2530268.008096022, 1175708.9193886071], [2530188.4852733472, 1175674.61904266], [2530182.99860936, 1175712.5177771812], [2530181.203601387, 1175724.422231115], [2530168.7907545497, 1175723.2538290995], [2530147.784123901, 1175725.5483273612], [2530137.504969577, 1175725.0571394335], [2530135.9892601906, 1175729.2653086574], [2530123.6019509523, 1175767.248652181], [2530123.051570393, 1175767.2062311722], [2530120.909464669, 1175773.4890929046], [2530126.5314829806, 1175775.199247407], [2530117.7511454616, 1175814.3511888105], [2530150.2647179714, 1175820.6082876772], [2530172.2196399258, 1175826.0695076135], [2530176.597243494, 1175840.9293642603], [2530187.511081675, 1175889.2509148144], [2530199.0179301463, 1175940.0534861954], [2530190.8470508046, 1175944.1851989517], [2530201.0074932734, 1175974.37045642], [2530217.086224528, 1176016.257129724], [2530242.419715473, 1176092.604844341], [2530254.9763209745, 1176130.4355748137], [2530243.257894791, 1176136.0663994881], [2530247.855336996, 1176156.4296324921], [2530259.1757120113, 1176206.6139942063], [2530283.1880937335, 1176313.0284023571], [2530298.7929708357, 1176316.5760880418], [2530300.5541241122, 1176326.4146844274], [2530364.3451143107, 1176317.05038716], [2530372.1601759954, 1176355.592446153], [2530381.7616836466, 1176359.0894086135], [2530485.0430994127, 1176364.3223443541], [2530501.6471128007, 1176363.2470285585], [2530531.739114742, 1176361.2826495734], [2530562.491566445, 1176343.0108765878], [2530598.4175056447, 1176326.7795716363], [2530665.7221429204, 1176358.0485980725], [2530667.5258051483, 1176327.5501711732], [2530668.6180302184, 1176292.750332716], [2530669.422544725, 1176272.0483993022], [2530670.5233336543, 1176259.551143389], [2530671.5224831537, 1176248.95028882], [2530700.827060343, 1176232.050050024], [2530675.324452578, 1176193.541650907], [2530675.324452784, 1176193.4486288247], [2530675.925663445, 1176187.8434037154], [2530678.321890015, 1176166.743546024], [2530682.4196740277, 1176132.7396774665], [2530710.80962694, 1176073.8259701661], [2530717.8288616673, 1176099.4135181478], [2530724.339924247, 1176123.172061381], [2530733.205404557, 1176141.6811067131], [2530742.467961565, 1176155.5672568989], [2530761.7902217256, 1176183.9825311098], [2530775.7438671472, 1176228.121539947], [2530779.8837516033, 1176241.1778012528], [2530784.540849194, 1176257.34147497], [2530793.193989892, 1176287.306447648], [2530793.7615926643, 1176289.2030658005], [2530809.4171758983, 1176343.189176384], [2530809.4335409133, 1176343.180670929], [2530811.2289309595, 1176353.2565598313], [2530814.0311862626, 1176369.056108289], [2530812.685324885, 1176394.2965276036], [2530916.8304460114, 1176389.9531433533], [2530955.5754491934, 1176383.6282657275], [2530967.0993974325, 1176394.2629546134], [2530986.133190314, 1176389.453625839], [2530984.338239815, 1176375.355931521], [2530978.436567381, 1176347.355410424], [2531036.436282205, 1176340.150095511], [2531040.83933935, 1176334.7564394434], [2531134.1461010757, 1176328.0847875706], [2531134.1206928464, 1176327.8221939283], [2531139.81097519, 1176327.373461091], [2531139.1589791374, 1176318.398228357], [2531130.0741020874, 1176191.8833316101], [2531123.8762670364, 1176105.0956531959], [2531119.4396647173, 1176089.6178024933], [2531078.331633176, 1176100.0493198966], [2531078.340246201, 1176100.1085353615], [2531051.4404842956, 1176106.966701175], [2530988.2173954616, 1175885.7219367889], [2530984.296693661, 1175882.690743283], [2530938.9052889682, 1175721.2656770202], [2530958.074775341, 1175700.039027685], [2530988.420706905, 1175672.3514595914], [2530990.68125269, 1175661.920286979], [2530991.3931327467, 1175660.6838700436], [2530991.7566130473, 1175658.3639173438], [2530991.460757061, 1175655.6884551826], [2530990.071893687, 1175652.0728646545], [2530982.341626595, 1175633.8855231993], [2530964.2644277443, 1175592.0582762526], [2530950.8693147986, 1175561.797000535], [2530949.862016901, 1175556.9706164799], [2530947.4658640497, 1175544.7188277764], [2530946.813862439, 1175538.2585288594], [2530946.4839962213, 1175530.274132743], [2530946.8393093715, 1175521.0108998402], [2530947.2118583773, 1175507.429676665], [2530947.872102899, 1175486.558494422], [2530946.9410515674, 1175472.6215450326], [2530945.7554686065, 1175464.5101029775], [2530944.028543566, 1175458.769430848], [2530941.1074092896, 1175450.8528576056], [2530934.9348226017, 1175436.653410709], [2530931.446511944, 1175428.7706428494], [2530937.2883889913, 1175426.890834518], [2530965.9495553044, 1175413.6737950307], [2531008.623909806, 1175393.928875769], [2531033.1279325252, 1175382.5068087527], [2531018.868921704, 1175351.5002778238], [2530994.2214915324, 1175362.2027153594], [2530993.0871503167, 1175357.046231829], [2530948.9820520324, 1175226.5682370462], [2530966.28891001, 1175220.4804968112], [2530949.8628586205, 1175176.1638361714], [2530945.553289157, 1175165.7494446905], [2530970.920349484, 1175154.5982633305], [2530976.1446644613, 1175152.176686137], [2530994.569086866, 1175142.710438026], [2531000.572463971, 1175139.2983496424], [2531006.89754381, 1175135.2680527153], [2531013.0443318863, 1175130.9836672994], [2531019.1747555654, 1175126.4283980986], [2531024.7457545535, 1175121.974762899], [2531031.3163131867, 1175116.2003024737], [2531034.677604539, 1175112.889628159], [2531045.1344299796, 1175102.1703636034], [2531083.4311836082, 1175066.3461801684], [2531110.4412502972, 1175033.9764932315], [2531129.991882156, 1175006.7126685395], [2531134.2506714496, 1175000.1845518756], [2531144.9443637086, 1174987.1875388033], [2531154.9528778917, 1174974.8849598994], [2531159.4489566884, 1174969.6862843512], [2531161.252556145, 1174967.586400964], [2531170.947548802, 1174956.4860025821], [2531174.046139109, 1174953.0823056046], [2531207.1526101124, 1174914.9805769862], [2531216.5508735827, 1174906.5812635939], [2531237.4477220736, 1174888.190714939], [2531266.59983892, 1174874.6773839789], [2531276.565702486, 1174869.3854831096], [2531318.3081163047, 1174848.387347625], [2531348.8404944493, 1174833.476750523], [2531382.294445688, 1174822.7913434356], [2531382.5739660426, 1174812.1820894491], [2531368.416528044, 1174809.4133592378], [2531349.221692825, 1174803.5117978144], [2531331.204277982, 1174796.7127481631], [2531322.745305293, 1174793.2834015011], [2531303.6353218416, 1174781.8698512379], [2531298.3434062805, 1174778.5507599697], [2531275.79549728, 1174760.0925020135], [2531266.117778865, 1174749.5086348276], [2531239.099230234, 1174722.5155909497], [2531232.6730023352, 1174700.9751508404], [2531205.6713536014, 1174626.8205573205], [2531193.097936015, 1174596.4236262161], [2531179.669211362, 1174575.3915621475], [2531165.537646556, 1174557.3650572267], [2531151.0421688627, 1174542.5308023542], [2531144.784725054, 1174536.2651483673], [2531124.980533078, 1174519.5000275688], [2531106.3192945737, 1174508.2981466004], [2531081.6882743333, 1174498.6711679667], [2531059.792352515, 1174493.2011196762], [2531055.863468535, 1174490.025871122], [2531048.234799474, 1174488.671435517], [2531042.731420908, 1174489.89061555], [2531016.9660278615, 1174489.3991780633], [2530988.4659513095, 1174491.871952086], [2530964.6057780976, 1174496.0036301631], [2530940.508301907, 1174504.9026894278], [2530913.2696094406, 1174513.064886274], [2530895.7426751144, 1174523.7757373755], [2530888.2664421247, 1174530.015521539], [2530870.426446443, 1174528.5764391078], [2530878.004384124, 1174490.9147863216], [2530878.791635937, 1174486.672808851], [2530880.1125129308, 1174464.2519060182], [2530848.4372295802, 1174451.7627601563], [2530844.932108951, 1174450.3575160468], [2530814.933374834, 1174438.5625942445], [2530808.0325204106, 1174435.8619240033], [2530803.4347915724, 1174447.7579739152], [2530780.4299302166, 1174440.3579302973], [2530751.1000005137, 1174431.789067462], [2530747.6620929306, 1174416.6161246807], [2530748.043243415, 1174408.3177806088], [2530745.8675652104, 1174406.0830925384], [2530746.2228949424, 1174389.3180162995], [2530750.126375841, 1174389.901996888], [2530752.37875657, 1174371.5796662816], [2530752.86973323, 1174359.463110505], [2530754.055398277, 1174330.4376395384], [2530754.063637107, 1174304.9521729858], [2530753.37765725, 1174278.7126231121], [2530751.506477815, 1174265.7493889034], [2530715.0052084825, 1174269.0093876766], [2530695.8865822116, 1174271.016210709], [2530692.6518417406, 1174302.606674931], [2530667.0307238437, 1174299.9477371168], [2530665.9549074317, 1174314.9940565315], [2530627.243946914, 1174311.9543882997], [2530626.388385967, 1174338.7606804147], [2530616.448374894, 1174338.1594601718], [2530571.14082552, 1174329.7770368427], [2530565.5780235156, 1174327.6771371732], [2530561.23468799, 1174298.9061727384], [2530554.2324706647, 1174270.4146993307], [2530414.78775957, 1174310.226550308], [2530403.154198968, 1174304.0961109833], [2530173.730155335, 1174372.391038506], [2530176.2363241063, 1174392.3989742124], [2530186.7524825167, 1174425.9282901897], [2530197.92887231, 1174444.5305780408], [2530206.9801890906, 1174459.585102338], [2530227.775305772, 1174484.8850013672], [2530240.03546337, 1174495.5784766683], [2530252.126601952, 1174499.8629023968], [2530240.8906672765, 1174532.884640091], [2530241.305589305, 1174540.4627107724], [2530239.6036120416, 1174548.4638980515], [2530239.544181229, 1174548.4809089028], [2530235.0229101684, 1174553.1294190714], [2530230.687689691, 1174554.8737888588], [2530228.2744957265, 1174556.253826406], [2530226.1410133024, 1174557.9471681123], [2530224.1173478654, 1174559.9792224113], [2530222.042862451, 1174563.0782312674], [2530220.4679396404, 1174566.3721138767], [2530219.6466677533, 1174569.7588049055], [2530219.2655290603, 1174572.7223756302], [2530219.1302942624, 1174576.4559630232], [2530219.290926566, 1174577.8364369173], [2530219.9937532074, 1174580.9438497392], [2530220.8574307575, 1174583.9494123498], [2530222.0598204704, 1174587.0398152934], [2530223.473664411, 1174589.5630423976], [2530224.9131338554, 1174591.468275633], [2530233.3716593236, 1174602.3910678031], [2530237.5290026385, 1174607.6573757513], [2530237.300538232, 1174607.8608610511]]]}}, {"type": "Feature", "properties": {"boundary_variant": "band", "status": "research_only"}, "geometry": {"type": "Polygon", "coordinates": [[[2530237.5290026385, 1174607.6573757513], [2530233.3716593236, 1174602.3910678031], [2530224.9131338554, 1174591.468275633], [2530223.473664411, 1174589.5630423976], [2530222.0598204704, 1174587.0398152934], [2530220.8574307575, 1174583.9494123498], [2530219.9937532074, 1174580.9438497392], [2530219.290926566, 1174577.8364369173], [2530219.1302942624, 1174576.4559630232], [2530219.2655290603, 1174572.7223756302], [2530219.6466677533, 1174569.7588049055], [2530220.4679396404, 1174566.3721138767], [2530222.042862451, 1174563.0782312674], [2530224.1173478654, 1174559.9792224113], [2530226.1410133024, 1174557.9471681123], [2530228.2744957265, 1174556.253826406], [2530230.687689691, 1174554.8737888588], [2530235.0229101684, 1174553.1294190714], [2530239.544181229, 1174548.4809089028], [2530239.6036120416, 1174548.4638980515], [2530241.305589305, 1174540.4627107724], [2530240.8906672765, 1174532.884640091], [2530252.126601952, 1174499.8629023968], [2530240.03546337, 1174495.5784766683], [2530227.775305772, 1174484.8850013672], [2530206.9801890906, 1174459.585102338], [2530197.92887231, 1174444.5305780408], [2530186.7524825167, 1174425.9282901897], [2530176.2363241063, 1174392.3989742124], [2530173.730155335, 1174372.391038506], [2530403.154198968, 1174304.0961109833], [2530414.78775957, 1174310.226550308], [2530554.2324706647, 1174270.4146993307], [2530561.23468799, 1174298.9061727384], [2530565.5780235156, 1174327.6771371732], [2530571.14082552, 1174329.7770368427], [2530616.448374894, 1174338.1594601718], [2530626.388385967, 1174338.7606804147], [2530627.243946914, 1174311.9543882997], [2530665.9549074317, 1174314.9940565315], [2530667.0307238437, 1174299.9477371168], [2530692.6518417406, 1174302.606674931], [2530695.8865822116, 1174271.016210709], [2530715.0052084825, 1174269.0093876766], [2530751.506477815, 1174265.7493889034], [2530753.37765725, 1174278.7126231121], [2530754.063637107, 1174304.9521729858], [2530754.055398277, 1174330.4376395384], [2530752.86973323, 1174359.463110505], [2530752.37875657, 1174371.5796662816], [2530750.126375841, 1174389.901996888], [2530746.2228949424, 1174389.3180162995], [2530745.8675652104, 1174406.0830925384], [2530748.043243415, 1174408.3177806088], [2530747.6620929306, 1174416.6161246807], [2530751.1000005137, 1174431.789067462], [2530780.4299302166, 1174440.3579302973], [2530803.4347915724, 1174447.7579739152], [2530808.0325204106, 1174435.8619240033], [2530814.933374834, 1174438.5625942445], [2530844.932108951, 1174450.3575160468], [2530848.4372295802, 1174451.7627601563], [2530880.1125129308, 1174464.2519060182], [2530878.791635937, 1174486.672808851], [2530878.004384124, 1174490.9147863216], [2530870.426446443, 1174528.5764391078], [2530888.2664421247, 1174530.015521539], [2530895.7426751144, 1174523.7757373755], [2530913.2696094406, 1174513.064886274], [2530940.508301907, 1174504.9026894278], [2530964.6057780976, 1174496.0036301631], [2530988.4659513095, 1174491.871952086], [2531016.9660278615, 1174489.3991780633], [2531042.731420908, 1174489.89061555], [2531048.234799474, 1174488.671435517], [2531055.863468535, 1174490.025871122], [2531059.792352515, 1174493.2011196762], [2531081.6882743333, 1174498.6711679667], [2531106.3192945737, 1174508.2981466004], [2531124.980533078, 1174519.5000275688], [2531144.784725054, 1174536.2651483673], [2531151.0421688627, 1174542.5308023542], [2531165.537646556, 1174557.3650572267], [2531179.669211362, 1174575.3915621475], [2531193.097936015, 1174596.4236262161], [2531205.6713536014, 1174626.8205573205], [2531232.6730023352, 1174700.9751508404], [2531239.099230234, 1174722.5155909497], [2531266.117778865, 1174749.5086348276], [2531275.79549728, 1174760.0925020135], [2531298.3434062805, 1174778.5507599697], [2531303.6353218416, 1174781.8698512379], [2531322.745305293, 1174793.2834015011], [2531331.204277982, 1174796.7127481631], [2531349.221692825, 1174803.5117978144], [2531368.416528044, 1174809.4133592378], [2531382.5739660426, 1174812.1820894491], [2531382.294445688, 1174822.7913434356], [2531348.8404944493, 1174833.476750523], [2531318.3081163047, 1174848.387347625], [2531276.565702486, 1174869.3854831096], [2531266.59983892, 1174874.6773839789], [2531237.4477220736, 1174888.190714939], [2531216.5508735827, 1174906.5812635939], [2531207.1526101124, 1174914.9805769862], [2531174.046139109, 1174953.0823056046], [2531170.947548802, 1174956.4860025821], [2531161.252556145, 1174967.586400964], [2531159.4489566884, 1174969.6862843512], [2531154.9528778917, 1174974.8849598994], [2531144.9443637086, 1174987.1875388033], [2531134.2506714496, 1175000.1845518756], [2531129.991882156, 1175006.7126685395], [2531110.4412502972, 1175033.9764932315], [2531083.4311836082, 1175066.3461801684], [2531045.1344299796, 1175102.1703636034], [2531034.677604539, 1175112.889628159], [2531031.3163131867, 1175116.2003024737], [2531024.7457545535, 1175121.974762899], [2531019.1747555654, 1175126.4283980986], [2531013.0443318863, 1175130.9836672994], [2531006.89754381, 1175135.2680527153], [2531000.572463971, 1175139.2983496424], [2530994.569086866, 1175142.710438026], [2530976.1446644613, 1175152.176686137], [2530970.920349484, 1175154.5982633305], [2530945.553289157, 1175165.7494446905], [2530949.8628586205, 1175176.1638361714], [2530966.28891001, 1175220.4804968112], [2530948.9820520324, 1175226.5682370462], [2530993.0871503167, 1175357.046231829], [2530994.2214915324, 1175362.2027153594], [2531018.868921704, 1175351.5002778238], [2531033.1279325252, 1175382.5068087527], [2531008.623909806, 1175393.928875769], [2530965.9495553044, 1175413.6737950307], [2530937.2883889913, 1175426.890834518], [2530931.446511944, 1175428.7706428494], [2530934.9348226017, 1175436.653410709], [2530941.1074092896, 1175450.8528576056], [2530944.028543566, 1175458.769430848], [2530945.7554686065, 1175464.5101029775], [2530946.9410515674, 1175472.6215450326], [2530947.872102899, 1175486.558494422], [2530947.2118583773, 1175507.429676665], [2530946.8393093715, 1175521.0108998402], [2530946.4839962213, 1175530.274132743], [2530946.813862439, 1175538.2585288594], [2530947.4658640497, 1175544.7188277764], [2530949.862016901, 1175556.9706164799], [2530950.8693147986, 1175561.797000535], [2530964.2644277443, 1175592.0582762526], [2530982.341626595, 1175633.8855231993], [2530990.071893687, 1175652.0728646545], [2530991.460757061, 1175655.6884551826], [2530991.7566130473, 1175658.3639173438], [2530991.3931327467, 1175660.6838700436], [2530990.68125269, 1175661.920286979], [2530988.420706905, 1175672.3514595914], [2530958.074775341, 1175700.039027685], [2530938.9052889682, 1175721.2656770202], [2530984.296693661, 1175882.690743283], [2530988.2173954616, 1175885.7219367889], [2531051.4404842956, 1176106.966701175], [2531078.340246201, 1176100.1085353615], [2531078.331633176, 1176100.0493198966], [2531119.4396647173, 1176089.6178024933], [2531123.8762670364, 1176105.0956531959], [2531130.0741020874, 1176191.8833316101], [2531139.1589791374, 1176318.398228357], [2531139.81097519, 1176327.373461091], [2531134.1206928464, 1176327.8221939283], [2531134.1461010757, 1176328.0847875706], [2531040.83933935, 1176334.7564394434], [2531036.436282205, 1176340.150095511], [2530978.436567381, 1176347.355410424], [2530984.338239815, 1176375.355931521], [2530986.133190314, 1176389.453625839], [2530967.0993974325, 1176394.2629546134], [2530955.5754491934, 1176383.6282657275], [2530916.8304460114, 1176389.9531433533], [2530812.685324885, 1176394.2965276036], [2530814.0311862626, 1176369.056108289], [2530811.2289309595, 1176353.2565598313], [2530809.4335409133, 1176343.180670929], [2530809.4171758983, 1176343.189176384], [2530793.7615926643, 1176289.2030658005], [2530793.193989892, 1176287.306447648], [2530784.540849194, 1176257.34147497], [2530779.8837516033, 1176241.1778012528], [2530775.7438671472, 1176228.121539947], [2530761.7902217256, 1176183.9825311098], [2530742.467961565, 1176155.5672568989], [2530733.205404557, 1176141.6811067131], [2530724.339924247, 1176123.172061381], [2530717.8288616673, 1176099.4135181478], [2530710.80962694, 1176073.8259701661], [2530682.4196740277, 1176132.7396774665], [2530678.321890015, 1176166.743546024], [2530675.925663445, 1176187.8434037154], [2530675.324452784, 1176193.4486288247], [2530675.324452578, 1176193.541650907], [2530700.827060343, 1176232.050050024], [2530671.5224831537, 1176248.95028882], [2530670.5233336543, 1176259.551143389], [2530669.422544725, 1176272.0483993022], [2530668.6180302184, 1176292.750332716], [2530667.5258051483, 1176327.5501711732], [2530665.7221429204, 1176358.0485980725], [2530598.4175056447, 1176326.7795716363], [2530562.491566445, 1176343.0108765878], [2530531.739114742, 1176361.2826495734], [2530501.6471128007, 1176363.2470285585], [2530485.0430994127, 1176364.3223443541], [2530381.7616836466, 1176359.0894086135], [2530372.1601759954, 1176355.592446153], [2530364.3451143107, 1176317.05038716], [2530300.5541241122, 1176326.4146844274], [2530298.7929708357, 1176316.5760880418], [2530283.1880937335, 1176313.0284023571], [2530259.1757120113, 1176206.6139942063], [2530247.855336996, 1176156.4296324921], [2530243.257894791, 1176136.0663994881], [2530254.9763209745, 1176130.4355748137], [2530242.419715473, 1176092.604844341], [2530217.086224528, 1176016.257129724], [2530201.0074932734, 1175974.37045642], [2530190.8470508046, 1175944.1851989517], [2530199.0179301463, 1175940.0534861954], [2530187.511081675, 1175889.2509148144], [2530176.597243494, 1175840.9293642603], [2530172.2196399258, 1175826.0695076135], [2530150.2647179714, 1175820.6082876772], [2530117.7511454616, 1175814.3511888105], [2530126.5314829806, 1175775.199247407], [2530120.909464669, 1175773.4890929046], [2530123.051570393, 1175767.2062311722], [2530123.6019509523, 1175767.248652181], [2530135.9892601906, 1175729.2653086574], [2530137.504969577, 1175725.0571394335], [2530147.784123901, 1175725.5483273612], [2530168.7907545497, 1175723.2538290995], [2530181.203601387, 1175724.422231115], [2530182.99860936, 1175712.5177771812], [2530188.4852733472, 1175674.61904266], [2530268.008096022, 1175708.9193886071], [2530383.583605223, 1175763.811501042], [2530406.8595242198, 1175789.9580787653], [2530408.8661739957, 1175790.042492127], [2530420.466154688, 1175791.0164503546], [2530430.618264628, 1175791.6600908583], [2530475.5950760636, 1175796.7658536774], [2530485.933444318, 1175797.9426489342], [2530502.859163154, 1175795.021534571], [2530502.63888396, 1175793.9969992067], [2530538.615615662, 1175789.1284924364], [2530586.77652128, 1175782.5496551928], [2530608.1726831323, 1175779.6963793123], [2530629.543431535, 1175778.9427754206], [2530633.1250090054, 1175773.5238163923], [2530667.027585628, 1175719.724182508], [2530664.4195545735, 1175705.0167826295], [2530662.920884467, 1175696.422787831], [2530646.325699077, 1175697.7183851046], [2530643.0236519175, 1175688.0234096851], [2530640.720287816, 1175683.9168672576], [2530636.32608124, 1175679.3191550015], [2530620.822853862, 1175669.2178269902], [2530616.919599597, 1175663.5195698424], [2530616.022137944, 1175650.3192606736], [2530616.9618522334, 1175641.7252712648], [2530630.0179604576, 1175609.4235974152], [2530635.8520313995, 1175534.676276029], [2530619.9512006827, 1175475.2034770215], [2530608.952476167, 1175448.032391558], [2530589.8166152947, 1175453.7900285558], [2530591.222350868, 1175422.7751344247], [2530593.220632462, 1175409.448002938], [2530588.6231826968, 1175392.5052694143], [2530539.717531495, 1175266.8030435592], [2530533.714380143, 1175265.4989985086], [2530522.3176912055, 1175254.8981165402], [2530521.513502307, 1175128.2901083499], [2530531.115329606, 1175084.5914991666], [2530545.0268735173, 1175082.1531455212], [2530542.9183505857, 1175092.2882412404], [2530557.7191919, 1175094.7944869522], [2530559.3617202723, 1175094.989147903], [2530561.097291857, 1175085.6244981417], [2530562.6976261153, 1175081.1370475295], [2530565.517358974, 1175080.6880930183], [2530582.9760493673, 1175063.0430053945], [2530582.9760493864, 1175063.0343922386], [2530582.8918564063, 1175062.755110477], [2530582.8151999563, 1175062.4672155764], [2530582.7473719725, 1175062.1877185223], [2530582.688372492, 1175061.8998236607], [2530582.637555509, 1175061.612144146], [2530582.586738527, 1175061.3240339737], [2530582.5445347, 1175061.0361391492], [2530582.5189112164, 1175060.7398465346], [2530582.49371841, 1175060.434940765], [2530582.4683102923, 1175060.121852497], [2530582.4596978105, 1175059.8169467642], [2530582.4596985024, 1175059.5038585523], [2530582.4683123515, 1175059.190339702], [2530582.485324008, 1175058.8854340257], [2530582.5105181807, 1175058.5723458696], [2530582.5357123353, 1175058.2674402115], [2530582.5783481295, 1175057.9627499208], [2530582.629166441, 1175057.6494464923], [2530584.3735597725, 1175051.3329925733], [2530586.413811935, 1175046.4049800164], [2530588.1838240144, 1175042.5273412068], [2530591.5957231214, 1175036.7442606438], [2530595.118301037, 1175031.0712133902], [2530603.212758535, 1175017.9303548716], [2530612.1624997794, 1175005.9748838046], [2530624.2281838586, 1174933.5137230596], [2530625.0662517743, 1174929.9575682287], [2530628.2583102426, 1174919.5769999654], [2530631.6708709826, 1174906.7154126735], [2530636.9120131675, 1174890.0183911645], [2530579.649249959, 1174853.7284554404], [2530561.1823848174, 1174873.5750634472], [2530555.7718028235, 1174879.4003440556], [2530526.1201601494, 1174876.0811989435], [2530517.314496823, 1174877.6817191485], [2530508.7710955, 1174883.168280482], [2530492.7090267963, 1174901.499409049], [2530481.540967043, 1174913.5649082775], [2530471.6515652216, 1174909.814072415], [2530451.5928422897, 1174898.5697685655], [2530448.011294015, 1174890.7800225818], [2530445.6153325005, 1174889.3827480932], [2530400.8498108126, 1174860.7049317218], [2530402.4503612616, 1174855.827735812], [2530406.3620448518, 1174847.2759574354], [2530394.5758161563, 1174841.1035286388], [2530389.376934805, 1174832.2978573588], [2530390.215219453, 1174828.1066976201], [2530388.3610265586, 1174826.2014634681], [2530390.0797873856, 1174823.6698454611], [2530375.82116107, 1174813.5433267204], [2530360.724701558, 1174798.200679001], [2530350.149233153, 1174807.4466630023], [2530330.861171284, 1174796.6765150805], [2530319.3628238267, 1174796.6088763925], [2530306.32359072, 1174792.9596688056], [2530289.965306229, 1174776.5586767832], [2530285.2235590424, 1174771.859328521], [2530259.6616727044, 1174761.9106464623], [2530250.347853963, 1174754.1124899816], [2530233.8879117, 1174747.9060288891], [2530203.6264563254, 1174745.1626718917], [2530193.1696584146, 1174743.4268825646], [2530188.74146794, 1174721.607165296], [2530186.446948344, 1174710.2526523182], [2530197.0221908083, 1174705.8076413358], [2530216.928518189, 1174691.1259153606], [2530227.182051781, 1174690.0759943377], [2530227.1820518, 1174690.067381182], [2530227.3853433495, 1174680.5334795234], [2530228.7483785045, 1174679.0602022437], [2530229.3243846996, 1174678.4251986088], [2530229.8915624283, 1174677.7817971273], [2530230.458740176, 1174677.1297824902], [2530231.009337599, 1174676.4777678163], [2530231.56811752, 1174675.8257531605], [2530232.1098864954, 1174675.1569428134], [2530232.6518707816, 1174674.496314965], [2530233.185241949, 1174673.8191067723], [2530233.710215289, 1174673.1418985613], [2530234.23518863, 1174672.4644750215], [2530234.751764163, 1174671.778438307], [2530235.2595112287, 1174671.0844344043], [2530235.7592911264, 1174670.389999826], [2530236.267253597, 1174669.6617586296], [2530236.775216067, 1174668.933732762], [2530237.27478073, 1174668.196878391], [2530237.765947583, 1174667.4520568326], [2530238.2568991086, 1174666.706804616], [2530238.7312703086, 1174665.9617676914], [2530239.205426199, 1174665.2081176105], [2530239.671184281, 1174664.4460696846], [2530240.1199313803, 1174663.6840217207], [2530240.5770763066, 1174662.9219737756], [2530241.017210269, 1174662.151527966], [2530241.449161752, 1174661.3724689824], [2530241.8725000788, 1174660.5936253087], [2530242.295838425, 1174659.8061684794], [2530242.710778944, 1174659.0187116314], [2530244.9461199455, 1174653.7013848654], [2530246.69869658, 1174647.0208098048], [2530247.0460272883, 1174644.6670504329], [2530247.1390549666, 1174642.1352135036], [2530246.8511734107, 1174636.1744784254], [2530246.681931544, 1174633.1687020208], [2530246.18237725, 1174629.2146164372], [2530245.1918751923, 1174624.3038234927], [2530243.6253677644, 1174619.655084539], [2530244.641289523, 1174619.6385064598], [2530244.404213665, 1174619.0708989713], [2530242.609239753, 1174615.5657712682], [2530240.6025970895, 1174612.2634829155], [2530237.300538232, 1174607.8608610511], [2530237.5290026385, 1174607.6573757513]], [[2530245.5812238757, 1174608.9022098857], [2530247.84195368, 1174612.6362332324], [2530249.8485950152, 1174616.5392891993], [2530253.59960449, 1174625.5230342743], [2530251.567330333, 1174625.5484385916], [2530252.1093072076, 1174628.2409122796], [2530252.668075993, 1174632.6267324262], [2530252.8457151814, 1174635.8611881346], [2530253.142209275, 1174642.1014201364], [2530253.0237715147, 1174645.2090464719], [2530252.59203042, 1174648.223219375], [2530250.635966353, 1174655.640218803], [2530248.138138045, 1174661.58415207], [2530247.5961529356, 1174662.6172989053], [2530247.1474056677, 1174663.4555732976], [2530246.698658419, 1174664.285234534], [2530246.233115535, 1174665.1064979064], [2530245.767357322, 1174665.9277612783], [2530245.284803455, 1174666.749239942], [2530244.802034297, 1174667.553492294], [2530244.3026847956, 1174668.3663577647], [2530243.802904673, 1174669.162427581], [2530243.295157382, 1174669.9582820507], [2530242.778581606, 1174670.7541365009], [2530242.253392694, 1174671.5413777763], [2530241.7200212823, 1174672.3290496913], [2530241.1866499092, 1174673.099495295], [2530240.6446653805, 1174673.8699408793], [2530240.111509392, 1174674.6149776739], [2530239.569309609, 1174675.3516166217], [2530239.019142675, 1174676.079857725], [2530238.4601472574, 1174676.8078834796], [2530237.9013671866, 1174677.527726737], [2530237.334189289, 1174678.247569976], [2530236.758182926, 1174678.9585847105], [2530236.173994083, 1174679.661416929], [2530235.5900205877, 1174680.355851321], [2530234.997218609, 1174681.049855036], [2530234.396234131, 1174681.7442893905], [2530233.786421187, 1174682.4301105698], [2530233.3376746676, 1174682.9298879406], [2530233.1681937226, 1174690.6685926854], [2530232.2877030205, 1174695.579596823], [2530219.1720171156, 1174696.9255887489], [2530200.0027617356, 1174711.065764185], [2530193.3053809344, 1174713.8766527628], [2530194.625978593, 1174720.4131795862], [2530198.2329136115, 1174738.1857884778], [2530204.3885184564, 1174739.2019391342], [2530235.2427741457, 1174742.004297559], [2530253.4130723905, 1174748.8543804958], [2530262.760697712, 1174756.6779458607], [2530288.559876285, 1174766.7200811838], [2530294.2072948157, 1174772.3167069491], [2530309.456422645, 1174787.5999242312], [2530320.2011124613, 1174790.6141218382], [2530332.4444978917, 1174790.681977502], [2530349.386985, 1174800.1483037863], [2530361.0294101713, 1174789.9537983655], [2530379.7246534033, 1174808.954030632], [2530398.352296127, 1174822.1795724714], [2530396.0745396754, 1174825.5326689733], [2530396.709543143, 1174826.1844709388], [2530395.7104059393, 1174831.2225188618], [2530398.868838309, 1174836.5820620132], [2530414.18559545, 1174844.608911048], [2530408.0469697155, 1174858.0122598114], [2530407.995936449, 1174858.1563147285], [2530448.7481639013, 1174884.26029596], [2530452.6768344985, 1174886.5550646663], [2530456.2245762683, 1174894.2853798005], [2530474.2002100633, 1174904.3610891383], [2530479.8814428286, 1174906.5202045154], [2530488.255388173, 1174897.4774861238], [2530504.817021183, 1174878.5705691988], [2530515.079395481, 1174871.991648186], [2530525.9085052465, 1174870.0188287958], [2530553.4352829196, 1174873.1008920989], [2530556.7793486337, 1174869.4855273613], [2530578.6499256683, 1174845.9893174544], [2530644.0159344524, 1174887.419171788], [2530637.4369444177, 1174908.383363031], [2530634.0243837154, 1174921.2279393403], [2530630.857949554, 1174931.5322812318], [2530630.112904581, 1174934.6991216282], [2530617.843731946, 1175008.4048829302], [2530608.182757268, 1175021.308876203], [2530600.223742131, 1175034.2294535625], [2530596.7267884673, 1175039.851467925], [2530593.5177299078, 1175045.3044497417], [2530591.9173978576, 1175048.7927742861], [2530590.0631908136, 1175053.2888374932], [2530588.505273858, 1175058.9024583146], [2530588.49666059, 1175058.9532759145], [2530588.4796492704, 1175059.1057287338], [2530588.4714664165, 1175059.2667947283], [2530588.4628529428, 1175059.4106344103], [2530588.462852606, 1175059.5628719383], [2530588.462852288, 1175059.7069269684], [2530588.4628519695, 1175059.8509819985], [2530588.479647268, 1175060.0116173904], [2530588.488475416, 1175060.164070267], [2530588.505270751, 1175060.308125334], [2530588.5222814344, 1175060.443567246], [2530588.5474746157, 1175060.579009176], [2530588.5730984355, 1175060.7230642627], [2530588.598291636, 1175060.8498930368], [2530588.6323132827, 1175060.993948142], [2530588.6661196197, 1175061.1293900912], [2530589.9445197396, 1175064.5330967433], [2530568.4042610275, 1175086.3105521488], [2530567.1510464344, 1175086.505206699], [2530566.9055699795, 1175087.1910286834], [2530564.238474389, 1175101.6275331534], [2530556.855494587, 1175100.7298106756], [2530535.7722197846, 1175097.1736073906], [2530537.355549892, 1175089.5955411259], [2530536.119346244, 1175089.8072066964], [2530527.525268293, 1175128.9251265463], [2530528.3038402586, 1175252.2734858836], [2530536.6017374657, 1175259.9870158636], [2530544.1375991544, 1175261.6211634965], [2530594.3298331983, 1175390.625676113], [2530599.3340358757, 1175409.0922931181], [2530597.2084928467, 1175423.3509371185], [2530596.1927372515, 1175445.610989942], [2530612.466229247, 1175440.708632984], [2530625.657851241, 1175473.2982595817], [2530641.9146176437, 1175534.117295621], [2530635.9280895405, 1175610.8120511868], [2530622.8295613173, 1175643.2071776828], [2530622.04208757, 1175650.4379202004], [2530622.7957142936, 1175661.4791262317], [2530625.0984340557, 1175664.840415356], [2530640.1783254277, 1175674.670643354], [2530645.580699564, 1175680.3183015254], [2530648.527248545, 1175685.5680264726], [2530650.499648375, 1175691.3763124172], [2530667.8997333203, 1175690.0133189792], [2530670.3299043374, 1175703.9838629893], [2530673.3354275147, 1175720.9603996305], [2530638.1630519503, 1175776.7752938268], [2530632.8541002716, 1175784.8275060807], [2530608.680846091, 1175785.6825236871], [2530587.580976889, 1175788.4935957592], [2530539.4200712717, 1175795.0724330028], [2530509.878445474, 1175799.0772698035], [2530510.047692244, 1175799.8647279427], [2530486.1026794477, 1175803.9964058325], [2530474.926251325, 1175802.734984468], [2530430.093064243, 1175797.6376197932], [2530420.0257938686, 1175797.0025926325], [2530408.493641777, 1175796.0288498842], [2530404.065403466, 1175795.8511937587], [2530379.9087915015, 1175768.7054880208], [2530265.527064416, 1175714.389167687], [2530193.3032383155, 1175683.230055778], [2530188.9339330466, 1175713.3980548189], [2530186.2838416076, 1175730.9251749408], [2530168.841558843, 1175729.2823922553], [2530147.970370106, 1175731.5600951626], [2530141.6539130053, 1175731.2551754871], [2530129.765954878, 1175767.6974112205], [2530134.2872149344, 1175768.0275204084], [2530124.9567066827, 1175809.6264581466], [2530151.5601495667, 1175814.7405781809], [2530177.0038283328, 1175821.074103178], [2530182.4055284294, 1175839.4136770142], [2530193.3703991277, 1175887.9301003302], [2530205.9015570604, 1175943.2961392244], [2530198.188036794, 1175947.199604364], [2530206.6551440144, 1175972.3297969752], [2530222.742488387, 1176014.233481281], [2530248.118183514, 1176090.708240039], [2530262.334317703, 1176133.5602286574], [2530250.158532482, 1176139.402289966], [2530253.7060412923, 1176155.1088179888], [2530265.0350294635, 1176205.293179722], [2530288.2091439622, 1176308.0157721336], [2530303.991882637, 1176311.6057703388], [2530305.4311232218, 1176319.6325886995], [2530369.095069336, 1176310.2851944694], [2530377.3758823834, 1176351.105003532], [2530382.9640933285, 1176353.145472483], [2530485.0009082374, 1176358.3106845354], [2530501.2575960634, 1176357.2607767817], [2530529.918521969, 1176355.3896320444], [2530559.72266397, 1176337.6850332692], [2530598.451326879, 1176320.1752192052], [2530660.252378588, 1176348.8956006877], [2530661.53104934, 1176327.2791665096], [2530662.623274279, 1176292.5388664915], [2530663.4364023157, 1176271.6674692573], [2530664.5458047753, 1176259.0007495235], [2530665.8408230245, 1176245.301097496], [2530692.300471255, 1176230.0349833877], [2530669.3210790097, 1176195.3538456087], [2530669.3210839317, 1176193.1269141876], [2530669.9558866494, 1176187.1829768023], [2530672.3607264506, 1176166.0490971648], [2530676.585556737, 1176131.0377049933], [2530708.5831465395, 1176064.6135491754], [2530716.0593532347, 1176070.2698250865], [2530723.6207817565, 1176097.830002264], [2530729.988005776, 1176121.0724018204], [2530738.4292901116, 1176138.70053571], [2530747.446803662, 1176152.2141663674], [2530767.2513989913, 1176181.3324904833], [2530781.4591306555, 1176226.3095599376], [2530785.62485441, 1176239.4420477287], [2530790.3069299837, 1176255.6819479296], [2530798.9514576015, 1176285.6128986233], [2530799.519060374, 1176287.5095167756], [2530813.684148345, 1176336.3646595154], [2530814.293959997, 1176336.26313329], [2530817.1388501218, 1176352.1981237163], [2530820.0599654396, 1176368.6920004552], [2530819.0267746607, 1176388.0309014649], [2530916.220647797, 1176383.9752889164], [2530957.4974890305, 1176377.2356934373], [2530968.7841453156, 1176387.6501003401], [2530979.5118368003, 1176384.9407482443], [2530978.4197076275, 1176376.355152171], [2530971.222630174, 1176342.1989134555], [2531033.311872456, 1176334.4939368833], [2531037.8247476737, 1176328.9479358662], [2531127.491158538, 1176322.5387618686], [2531127.4739327133, 1176322.3185880366], [2531133.3928943793, 1176321.8528447219], [2531133.1724042734, 1176318.8300572215], [2531124.0875272425, 1176192.3066549832], [2531117.940939083, 1176106.1455837635], [2531115.2738959147, 1176096.8657638554], [2531085.639024939, 1176104.3843373412], [2531085.65582048, 1176104.4351549973], [2531047.2747154743, 1176114.2230603641], [2530982.9844648396, 1175889.2696840789], [2530979.0555805597, 1175886.2298773988], [2530932.224498167, 1175719.699359879], [2530953.8155791764, 1175695.805436887], [2530982.9599730982, 1175669.2102296164], [2530985.0172462743, 1175659.7441606575], [2530985.6352425767, 1175658.668809527], [2530985.702856823, 1175658.2284620884], [2530985.5844284017, 1175657.1106895383], [2530984.5090820435, 1175654.3335904162], [2530976.829632346, 1175636.2478843112], [2530958.7692290563, 1175594.462841865], [2530945.1290730457, 1175563.6511849528], [2530943.9775062674, 1175558.155989034], [2530941.5219233157, 1175545.5992944855], [2530940.8277182514, 1175538.6818522331], [2530940.48062664, 1175530.2825173002], [2530940.8363708965, 1175520.8162292512], [2530941.2171023632, 1175507.251801748], [2530941.8691637693, 1175486.660116391], [2530940.971702547, 1175473.2651499023], [2530939.879570848, 1175465.822519598], [2530938.330506164, 1175460.674432978], [2530935.5359845473, 1175453.08795921], [2530929.4400545713, 1175439.0579763222], [2530923.267467359, 1175425.0958218668], [2530935.112718218, 1175421.2940010978], [2530963.4353871723, 1175408.2296290481], [2531006.1006978424, 1175388.4928922644], [2531025.1853173818, 1175379.5940372485], [2531015.87152617, 1175359.3408268846], [2530989.937289293, 1175370.6020400557], [2530987.295230172, 1175358.6547258645], [2530941.4042057754, 1175222.868223912], [2530958.5413844534, 1175216.8396987477], [2530944.2746383366, 1175178.3483354484], [2530937.7631273572, 1175162.6163920646], [2530968.4565683696, 1175149.1284733207], [2530973.511634668, 1175146.7831221817], [2530991.7159906807, 1175137.435519805], [2530997.4820750454, 1175134.158872771], [2531003.569862125, 1175130.2724150207], [2531009.538788273, 1175126.106675432], [2531015.508576335, 1175121.6700520967], [2531020.893530822, 1175117.368654014], [2531027.226796547, 1175111.805646038], [2531030.4270215305, 1175108.65603738], [2531040.935095379, 1175097.877342163], [2531079.0626001414, 1175062.2142243667], [2531105.6911030184, 1175030.302110486], [2531125.038463766, 1175003.325749418], [2531129.3993193298, 1174996.6283844688], [2531140.304465105, 1174983.3858969249], [2531150.355183864, 1174971.0325004954], [2531154.9020804106, 1174965.7743942847], [2531156.714293061, 1174963.657499934], [2531166.476468482, 1174952.489488428], [2531169.5668762727, 1174949.0941892592], [2531202.8680051016, 1174910.7637817857], [2531212.571605542, 1174902.0935853198], [2531234.1372668874, 1174883.110453027], [2531263.9327871236, 1174869.300830931], [2531273.8138110116, 1174864.0513496662], [2531315.6501083225, 1174843.0105792684], [2531346.596779708, 1174827.896927935], [2531376.4095167858, 1174818.3717048797], [2531376.4435415585, 1174817.1014798097], [2531366.9604611867, 1174815.2388639161], [2531347.282858906, 1174809.1932463953], [2531329.019538672, 1174802.3009587897], [2531320.0614340557, 1174798.6685558772], [2531300.5022751116, 1174786.9925186995], [2531294.8292279327, 1174783.4363494767], [2531271.663326149, 1174764.4613008092], [2531261.7823377443, 1174753.6573670441], [2531233.7818915085, 1174725.6908190663], [2531226.9745343314, 1174702.8547441598], [2531200.0749508385, 1174628.9964434237], [2531187.755189341, 1174599.2093243077], [2531174.7665954316, 1174578.863083739], [2531161.0165923396, 1174561.3277448688], [2531146.7747715223, 1174546.7473633229], [2531140.711984585, 1174540.684764913], [2531121.4749678667, 1174524.3942302505], [2531103.6685839486, 1174513.7003120324], [2531079.8596886965, 1174504.4030037527], [2531057.0494809174, 1174498.6965223157], [2531053.2980276276, 1174495.6651138547], [2531048.36182999, 1174494.7932362524], [2531043.3239927357, 1174495.9023842497], [2531017.1692850487, 1174495.4111612313], [2530989.236384935, 1174497.8242904039], [2530966.1720675956, 1174501.8291415218], [2530942.4049062287, 1174510.5923289845], [2530915.74200358, 1174518.5936764197], [2530899.248218691, 1174528.6695248964], [2530890.230658652, 1174536.1881439541], [2530863.2124858233, 1174534.012185761], [2530872.1112654624, 1174489.7804206824], [2530872.8227205877, 1174485.9531664941], [2530873.8640902718, 1174468.239783323], [2530846.2193296575, 1174457.3341750556], [2530842.7219608505, 1174455.9371134613], [2530812.740453045, 1174444.1421916971], [2530811.4532180205, 1174443.6430564758], [2530806.991147115, 1174455.209222822], [2530778.668527176, 1174446.0981640585], [2530746.036315708, 1174436.5555766658], [2530741.6337440186, 1174417.1578788531], [2530741.9300509878, 1174410.6381512573], [2530739.821985907, 1174408.4706459513], [2530740.363811104, 1174382.366325337], [2530744.9193076678, 1174383.0523732624], [2530746.392183747, 1174371.0882725131], [2530746.8749773656, 1174359.2176223153], [2530748.051598317, 1174330.319626034], [2530748.0688805315, 1174305.0283861638], [2530747.391512875, 1174279.2207860702], [2530746.3842197694, 1174272.226470711], [2530715.5891672303, 1174274.9869190631], [2530701.3649678607, 1174276.4769635685], [2530698.011793989, 1174309.2026414576], [2530672.5767202186, 1174306.560930366], [2530671.5095173195, 1174321.4457531294], [2530633.0352032, 1174318.43149423], [2530632.197084154, 1174345.1197861498], [2530615.7201193795, 1174344.1292368178], [2530569.523908035, 1174335.577132356], [2530560.1674447395, 1174332.0465791298], [2530555.341564238, 1174300.074534291], [2530549.888839691, 1174277.8909089274], [2530414.11914915, 1174316.6528243409], [2530402.518964469, 1174310.5482245572], [2530180.31748735, 1174376.6924630518], [2530182.121050275, 1174391.1203642476], [2530192.2644770266, 1174423.447713515], [2530203.0769623374, 1174441.440189134], [2530211.890987519, 1174456.1135807647], [2530232.093305347, 1174480.693418662], [2530243.1174774882, 1174490.3035715658], [2530259.721475492, 1174496.1883316091], [2530246.9444219475, 1174533.722928856], [2530247.3423338174, 1174540.9282651846], [2530244.666844518, 1174553.5019593744], [2530242.5839671157, 1174553.9593133412], [2530238.435000555, 1174558.2266921906], [2530233.3041391037, 1174560.292546258], [2530231.644597241, 1174561.232237883], [2530230.1459055003, 1174562.4262332872], [2530228.7826552405, 1174563.7980906572], [2530227.2669501593, 1174566.0586100356], [2530226.149388053, 1174568.3871742242], [2530225.556582181, 1174570.8425682916], [2530225.251886537, 1174573.2217365673], [2530225.1416314994, 1174576.227512354], [2530225.2094587726, 1174576.8284954468], [2530225.802253416, 1174579.4533559743], [2530226.5472856993, 1174582.027399219], [2530227.495588758, 1174584.4660010391], [2530228.5031086653, 1174586.2698134107], [2530229.680092957, 1174587.827505231], [2530238.0964140752, 1174598.6990490311], [2530245.7674845112, 1174608.3854209518], [2530245.420158331, 1174608.6905412269], [2530245.5812238757, 1174608.9022098857]]]}}]}