{"type": "FeatureCollection", "coordinate_system": "EPSG:2056", "features": [{"type": "Feature", "properties": {"drawing_index": 5558, "area_m2": 20858.342509515365, "outside_morges_m2": 0.0, "status": "research_only_alignment_not_surveyed", "overprints": "pending; base hatch outline only", "source_approval": "2012-10-10; later currentness unresolved"}, "geometry": {"type": "Polygon", "coordinates": [[[2527267.593822237, 1151307.7416285302], [2527294.9090750967, 1151335.4899119039], [2527332.119339973, 1151371.367940936], [2527357.189146026, 1151394.2688380205], [2527379.216747287, 1151413.6047837092], [2527395.724704256, 1151427.3812754645], [2527404.2355774315, 1151433.6038107486], [2527405.9710502285, 1151432.7645929342], [2527409.184530782, 1151429.564619845], [2527419.155309635, 1151417.3891164039], [2527447.0406996794, 1151379.0828404028], [2527473.6484592236, 1151339.5923197346], [2527482.0221999516, 1151325.9365104593], [2527484.7352999267, 1151319.8248913877], [2527479.7327531227, 1151316.8001262033], [2527467.6770700947, 1151311.2235009284], [2527431.5386821604, 1151295.8409374745], [2527375.080526328, 1151272.1424305257], [2527368.706347887, 1151267.6799449946], [2527360.5487487237, 1151260.9051280764], [2527352.955305858, 1151253.8438354465], [2527348.2735963115, 1151248.5219227797], [2527338.974162729, 1151231.5322886936], [2527267.593822237, 1151307.7416285302]]]}}, {"type": "Feature", "properties": {"drawing_index": 5761, "area_m2": 14150.054693271475, "outside_morges_m2": 0.0, "status": "research_only_alignment_not_surveyed", "overprints": "pending; base hatch outline only", "source_approval": "2012-10-10; later currentness unresolved"}, "geometry": {"type": "Polygon", "coordinates": [[[2527227.559902481, 1151185.2058478575], [2527226.6503575575, 1151179.897098495], [2527224.3930473314, 1151174.2413506678], [2527217.5961045357, 1151163.0393707212], [2527207.199744539, 1151149.1270513763], [2527209.214945947, 1151144.5038302056], [2527215.0699211373, 1151133.8150062333], [2527233.3811393003, 1151102.3878397173], [2527252.2972918996, 1151071.140131499], [2527261.9822718054, 1151056.3664612486], [2527265.5394953443, 1151057.1273394157], [2527273.4439636045, 1151060.0652215793], [2527296.384498734, 1151069.8336004454], [2527318.9836060796, 1151080.3948029475], [2527326.4612896093, 1151084.3237146558], [2527329.4210145255, 1151086.472034186], [2527327.250484996, 1151091.2105067447], [2527322.13671199, 1151099.750135486], [2527317.1100560273, 1151108.4535037847], [2527315.5763846003, 1151111.7298975727], [2527315.20087763, 1151113.6831950154], [2527322.7772786194, 1151120.0585698793], [2527338.9641743745, 1151131.7107685767], [2527357.2584716883, 1151145.001712008], [2527363.4360617264, 1151149.960061311], [2527365.883675349, 1151152.754747353], [2527364.2571985787, 1151156.0263603409], [2527359.7325006756, 1151162.3382684009], [2527345.645713717, 1151179.8900771837], [2527330.9378589643, 1151197.0243885946], [2527322.9234809084, 1151205.355417526], [2527227.559902481, 1151185.2058478575]]]}}, {"type": "Feature", "properties": {"drawing_index": 7935, "area_m2": 9638.946508041126, "outside_morges_m2": 0.0, "status": "research_only_alignment_not_surveyed", "overprints": "pending; base hatch outline only", "source_approval": "2012-10-10; later currentness unresolved"}, "geometry": {"type": "Polygon", "coordinates": [[[2526573.014477497, 1151204.013787755], [2526569.439807317, 1151201.4773126657], [2526566.032189234, 1151200.2675845185], [2526562.6570800534, 1151200.6630528416], [2526559.1799365804, 1151202.9421671617], [2526545.7528827083, 1151218.802877324], [2526533.3643436083, 1151234.3520449828], [2526531.5000535874, 1151236.9077535896], [2526531.006573568, 1151238.8878281605], [2526531.9541388717, 1151240.7943677958], [2526534.412984819, 1151243.1294715952], [2526661.565097587, 1151347.182190963], [2526664.2553400556, 1151348.9809847155], [2526666.5717010493, 1151349.2851042862], [2526668.9121523444, 1151348.0323600434], [2526671.674665717, 1151345.1605623555], [2526697.77794406, 1151313.4326021797], [2526699.2191825886, 1151311.1298418033], [2526699.6385966735, 1151309.4058650564], [2526698.889060949, 1151307.787732815], [2526696.8234500517, 1151305.8025059544], [2526573.014477497, 1151204.013787755]]]}}, {"type": "Feature", "properties": {"drawing_index": 8039, "area_m2": 25911.770945609984, "outside_morges_m2": 0.0, "status": "research_only_alignment_not_surveyed", "overprints": "pending; base hatch outline only", "source_approval": "2012-10-10; later currentness unresolved"}, "geometry": {"type": "Polygon", "coordinates": [[[2526528.800805823, 1151241.0505290022], [2526478.2230663844, 1151300.070895047], [2526472.724165974, 1151310.1969076807], [2526464.7194594448, 1151327.831384523], [2526452.5646190178, 1151356.336840691], [2526451.298114346, 1151360.2963895348], [2526451.411194867, 1151363.1975035542], [2526452.92935131, 1151365.5955939493], [2526455.878074404, 1151368.04607192], [2526571.1148377857, 1151456.862990804], [2526576.1102842917, 1151460.3692436467], [2526581.9483718136, 1151463.7749629177], [2526587.3237682083, 1151465.6117164104], [2526589.4300409383, 1151465.4828459257], [2526590.9311413327, 1151464.411071919], [2526659.5771572124, 1151368.8897275724], [2526662.2145389966, 1151365.376708393], [2526664.668903408, 1151361.4381436345], [2526665.632563769, 1151357.2201746306], [2526665.146727843, 1151355.0520827032], [2526663.797833401, 1151352.868942714], [2526528.800805823, 1151241.0505290022]]]}}, {"type": "Feature", "properties": {"drawing_index": 8192, "area_m2": 23832.763886618864, "outside_morges_m2": 0.0834165537218879, "status": "research_only_alignment_not_surveyed", "overprints": "pending; base hatch outline only", "source_approval": "2012-10-10; later currentness unresolved"}, "geometry": {"type": "Polygon", "coordinates": [[[2526336.398352695, 1151280.5832854435], [2526428.712997887, 1151349.025468327], [2526430.6713347826, 1151350.076787594], [2526432.3126731007, 1151350.1826559315], [2526433.6960940612, 1151349.4960972609], [2526434.8806788833, 1151348.1701355043], [2526436.8896649885, 1151344.2120984206], [2526438.8122811723, 1151339.5327360544], [2526449.402772498, 1151314.4363632945], [2526458.076338008, 1151291.974482306], [2526458.015460728, 1151288.284022514], [2526457.373606004, 1151285.6411716475], [2526455.9541106643, 1151282.7752037493], [2526450.3995216493, 1151276.7054708654], [2526445.2171404962, 1151272.3778973024], [2526442.366116112, 1151269.9352529976], [2526440.6279792553, 1151267.7347783335], [2526440.459853577, 1151265.274120252], [2526442.3188627283, 1151262.0509256958], [2526470.705077652, 1151227.2387483055], [2526488.687534038, 1151204.690885619], [2526497.6615213105, 1151192.313283819], [2526508.4663125477, 1151169.613511222], [2526523.106018183, 1151142.4718657313], [2526536.6705639884, 1151119.0104091463], [2526544.2498757364, 1151107.3512032663], [2526546.643328815, 1151104.160521522], [2526547.9159926674, 1151100.7136753933], [2526548.051954134, 1151097.0944656], [2526547.0353000523, 1151093.3866928623], [2526535.7211406226, 1151062.9378672559], [2526524.757651605, 1151031.5916164177], [2526524.0602722657, 1151026.4706194329], [2526336.398352695, 1151280.5832854435]]]}}, {"type": "Feature", "properties": {"drawing_index": 8238, "area_m2": 32437.096637382478, "outside_morges_m2": 0.0, "status": "research_only_alignment_not_surveyed", "overprints": "pending; base hatch outline only", "source_approval": "2012-10-10; later currentness unresolved"}, "geometry": {"type": "Polygon", "coordinates": [[[2526620.885245817, 1151704.061786994], [2526626.313637056, 1151697.5374984334], [2526634.7195619657, 1151689.0222725219], [2526643.8147402233, 1151680.7861848841], [2526651.3108915035, 1151675.0993111448], [2526664.3141619028, 1151669.796214925], [2526685.946736602, 1151662.5234405561], [2526707.9744551973, 1151655.2942576015], [2526722.1631572847, 1151650.1219356237], [2526729.829856875, 1151646.205420524], [2526737.278020621, 1151641.6025736167], [2526743.75353821, 1151636.6153489752], [2526748.50229933, 1151631.545700674], [2526773.9016698943, 1151597.5969383542], [2526777.007832181, 1151594.5418676734], [2526779.919127772, 1151594.2017737245], [2526783.076955616, 1151595.795830558], [2526786.9227146627, 1151598.543212224], [2526837.1234165262, 1151639.225233563], [2526886.696428315, 1151679.9556561802], [2526889.4936567256, 1151682.9861153874], [2526890.263854379, 1151686.1145579503], [2526888.732353865, 1151689.7583142826], [2526884.624487777, 1151694.3347147985], [2526852.09421482, 1151726.2344042428], [2526815.8896785756, 1151762.533780494], [2526785.481194614, 1151796.0209409078], [2526758.767262219, 1151825.1254373575], [2526753.48882788, 1151828.8385310743], [2526748.482115607, 1151829.8300936818], [2526743.4992562034, 1151828.3955423199], [2526738.2923804764, 1151824.8302941294], [2526681.492621665, 1151773.1434655653], [2526625.270158283, 1151720.7892023353], [2526621.444381492, 1151715.863873662], [2526619.547177274, 1151711.477622994], [2526619.415235443, 1151707.5653081615], [2526620.885245817, 1151704.061786994]]]}}]}